<?xml version="1.0" encoding="UTF-8"?>
<osm version="0.6" generator="Overpass API">
<note>The data included in this document is from www.openstreetmap.org. The data is made available under ODbL.</note>
<meta osm_base="2015-12-10T11:35:02Z"/>

  <node id="205488036" lat="37.3971634" lon="-5.9815402">
    <tag k="name" v="lidl"/>
    <tag k="shop" v="supermarket"/>
    <tag k="wheelchair" v="yes"/>
  </node>
  <node id="303618661" lat="37.3900156" lon="-5.9737693">
    <tag k="name" v="MAXI Dia%"/>
    <tag k="shop" v="supermarket"/>
  </node>
  <node id="366537036" lat="37.3925807" lon="-5.9948480">
    <tag k="addr:country" v="ES"/>
    <tag k="is_in:country" v="Spain"/>
    <tag k="name" v="Confitería La Campana"/>
    <tag k="opening_hours" v="10:00-22:00"/>
    <tag k="shop" v="bakery"/>
    <tag k="wheelchair" v="yes"/>
  </node>
  <node id="423890035" lat="37.4063636" lon="-5.9763418">
    <tag k="name" v="El Jamón"/>
    <tag k="operator" v="El Jamón"/>
    <tag k="shop" v="supermarket"/>
  </node>
  <node id="423890046" lat="37.4064686" lon="-5.9733819">
    <tag k="addr:city" v="Sevilla"/>
    <tag k="addr:postcode" v="41008"/>
    <tag k="addr:street" v="Avenida de San Juan de la Salle"/>
    <tag k="name" v="Valdajimena"/>
    <tag k="shop" v="supermarket"/>
  </node>
  <node id="423890052" lat="37.4068889" lon="-5.9724546">
    <tag k="addr:city" v="Sevilla"/>
    <tag k="addr:housenumber" v="12"/>
    <tag k="addr:postcode" v="41008"/>
    <tag k="addr:street" v="Avenida de San Juan de la Salle"/>
    <tag k="name" v="DIA"/>
    <tag k="shop" v="supermarket"/>
  </node>
  <node id="445370428" lat="37.3813810" lon="-5.9794179">
    <tag k="operator" v="Mas"/>
    <tag k="shop" v="supermarket"/>
  </node>
  <node id="455036744" lat="37.4012192" lon="-5.9674157">
    <tag k="shop" v="convenience"/>
    <tag k="wheelchair" v="no"/>
  </node>
  <node id="479517417" lat="37.4019720" lon="-5.9760533">
    <tag k="service" v="repair"/>
    <tag k="shop" v="car"/>
  </node>
  <node id="479517471" lat="37.4020470" lon="-5.9754868">
    <tag k="service" v="repair"/>
    <tag k="shop" v="car"/>
  </node>
  <node id="494341888" lat="37.4065585" lon="-5.9707219">
    <tag k="shop" v="convenience"/>
  </node>
  <node id="627296222" lat="37.4032851" lon="-5.9920138">
    <tag k="shop" v="kiosk"/>
  </node>
  <node id="627296224" lat="37.4034976" lon="-5.9924955">
    <tag k="name" v="Auto Sport Sevilla"/>
    <tag k="shop" v="bicycle"/>
  </node>
  <node id="631339500" lat="37.3931413" lon="-5.9815793">
    <tag k="name" v="Supersol"/>
    <tag k="shop" v="supermarket"/>
  </node>
  <node id="631339502" lat="37.3916239" lon="-5.9813217">
    <tag k="shop" v="supermarket"/>
  </node>
  <node id="643085787" lat="37.3909995" lon="-5.9984187">
    <tag k="name" v="Regala Sevilla"/>
    <tag k="shop" v="gift"/>
  </node>
  <node id="643085789" lat="37.3910287" lon="-5.9985053">
    <tag k="shop" v="kiosk"/>
  </node>
  <node id="683118829" lat="37.3910728" lon="-5.9693987">
    <tag k="shop" v="greengrocer"/>
  </node>
  <node id="708918524" lat="37.3945948" lon="-5.9910877">
    <tag k="name" v="El Jamón"/>
    <tag k="shop" v="supermarket"/>
    <tag k="wheelchair" v="yes"/>
  </node>
  <node id="747666066" lat="37.3928078" lon="-5.9863711">
    <tag k="name" v="Mas y Mas"/>
    <tag k="shop" v="supermarket"/>
  </node>
  <node id="747703011" lat="37.3902034" lon="-5.9903244">
    <tag k="name" v="SuperSol"/>
    <tag k="shop" v="supermarket"/>
  </node>
  <node id="747706100" lat="37.3940160" lon="-5.9915524">
    <tag k="addr:country" v="ES"/>
    <tag k="is_in:country" v="Spain"/>
    <tag k="name" v="Pan de Burguillos"/>
    <tag k="shop" v="bakery"/>
  </node>
  <node id="747850040" lat="37.3934383" lon="-5.9882486">
    <tag k="addr:country" v="ES"/>
    <tag k="is_in:country" v="Spain"/>
    <tag k="name" v="Los Terceros"/>
    <tag k="shop" v="bakery"/>
    <tag k="wheelchair" v="yes"/>
  </node>
  <node id="747853252" lat="37.3968266" lon="-5.9906521">
    <tag k="name" v="Dia"/>
    <tag k="operator" v="Maxi Dia"/>
    <tag k="shop" v="supermarket"/>
  </node>
  <node id="748562645" lat="37.3928300" lon="-5.9835362">
    <tag k="name" v="Dia market"/>
    <tag k="shop" v="supermarket"/>
  </node>
  <node id="760361437" lat="37.4000765" lon="-5.9854292">
    <tag k="name" v="Dia market"/>
    <tag k="shop" v="supermarket"/>
  </node>
  <node id="797670452" lat="37.3877763" lon="-5.9819761">
    <tag k="name" v="Maxi Dia"/>
    <tag k="shop" v="supermarket"/>
  </node>
  <node id="806510609" lat="37.4223309" lon="-5.9613759">
    <tag k="operator" v="Mas"/>
    <tag k="shop" v="supermarket"/>
  </node>
  <node id="807239965" lat="37.4210312" lon="-5.9637284">
    <tag k="operator" v="Supersol"/>
    <tag k="shop" v="supermarket"/>
  </node>
  <node id="818002148" lat="37.4157715" lon="-5.9699081">
    <tag k="operator" v="Dia Market"/>
    <tag k="shop" v="supermarket"/>
  </node>
  <node id="819726910" lat="37.4089056" lon="-5.9771122">
    <tag k="operator" v="El Jamón"/>
    <tag k="shop" v="supermarket"/>
  </node>
  <node id="819727031" lat="37.4162977" lon="-5.9644557">
    <tag k="operator" v="MAS Supermercados"/>
    <tag k="shop" v="supermarket"/>
  </node>
  <node id="819727126" lat="37.4093738" lon="-5.9741594">
    <tag k="name" v="Mercado de Villegas"/>
    <tag k="shop" v="mall"/>
  </node>
  <node id="828512295" lat="37.4061418" lon="-5.9898027">
    <tag k="name" v="Mercadona"/>
    <tag k="operator" v="Mercadona"/>
    <tag k="shop" v="supermarket"/>
  </node>
  <node id="829576876" lat="37.4265448" lon="-5.9860088">
    <tag k="operator" v="Dia Market"/>
    <tag k="shop" v="supermarket"/>
  </node>
  <node id="829594462" lat="37.3993885" lon="-5.9779398">
    <tag k="name" v="Mercadona"/>
    <tag k="operator" v="Mercadona"/>
    <tag k="shop" v="supermarket"/>
    <tag k="wheelchair" v="yes"/>
  </node>
  <node id="833455195" lat="37.4014260" lon="-5.9741525">
    <tag k="operator" v="Supersol"/>
    <tag k="shop" v="supermarket"/>
  </node>
  <node id="835821494" lat="37.4032095" lon="-5.9683925">
    <tag k="operator" v="El Jamón"/>
    <tag k="shop" v="supermarket"/>
    <tag k="wheelchair" v="yes"/>
  </node>
  <node id="835821577" lat="37.4040568" lon="-5.9654044">
    <tag k="operator" v="Mas"/>
    <tag k="shop" v="supermarket"/>
    <tag k="wheelchair" v="yes"/>
  </node>
  <node id="837160634" lat="37.3767341" lon="-5.9803391">
    <tag k="operator" v="Mas"/>
    <tag k="shop" v="supermarket"/>
  </node>
  <node id="842633292" lat="37.3769071" lon="-5.9769752">
    <tag k="shop" v="books"/>
  </node>
  <node id="842633384" lat="37.3758354" lon="-5.9763155">
    <tag k="operator" v="Supercor"/>
    <tag k="shop" v="supermarket"/>
  </node>
  <node id="842633442" lat="37.3709299" lon="-5.9789718">
    <tag k="name" v="Supermercados Mas"/>
    <tag k="operator" v="Mas"/>
    <tag k="shop" v="supermarket"/>
    <tag k="wheelchair" v="yes"/>
  </node>
  <node id="847280631" lat="37.3650152" lon="-5.9790562">
    <tag k="addr:street" v="Calle Antonio Maura Montaner"/>
    <tag k="name" v="Mercadona"/>
    <tag k="operator" v="Mercadona"/>
    <tag k="shop" v="supermarket"/>
    <tag k="wheelchair" v="yes"/>
  </node>
  <node id="847280633" lat="37.3703075" lon="-5.9730397">
    <tag k="addr:country" v="ES"/>
    <tag k="is_in:country" v="Spain"/>
    <tag k="shop" v="bakery"/>
  </node>
  <node id="847280702" lat="37.3666867" lon="-5.9754810">
    <tag k="operator" v="El Jamón"/>
    <tag k="shop" v="supermarket"/>
  </node>
  <node id="863924050" lat="37.3941226" lon="-5.9572429">
    <tag k="name" v="Maxi Dia"/>
    <tag k="shop" v="supermarket"/>
  </node>
  <node id="864118801" lat="37.3811797" lon="-5.9715119">
    <tag k="addr:country" v="ES"/>
    <tag k="is_in:country" v="Spain"/>
    <tag k="operator" v="Polvillo"/>
    <tag k="shop" v="bakery"/>
  </node>
  <node id="864118964" lat="37.3745748" lon="-5.9677453">
    <tag k="name" v="Dia"/>
    <tag k="operator" v="Maxi Dia"/>
    <tag k="shop" v="supermarket"/>
  </node>
  <node id="864119063" lat="37.3821828" lon="-5.9659946">
    <tag k="name" v="OpenCor"/>
    <tag k="operator" v="Opencor"/>
    <tag k="shop" v="supermarket"/>
  </node>
  <node id="864119130" lat="37.3765331" lon="-5.9692550">
    <tag k="name" v="M.A.S."/>
    <tag k="operator" v="Mas"/>
    <tag k="shop" v="supermarket"/>
  </node>
  <node id="864119223" lat="37.3762135" lon="-5.9689733">
    <tag k="name" v="DIA"/>
    <tag k="operator" v="DIA"/>
    <tag k="shop" v="supermarket"/>
  </node>
  <node id="864119301" lat="37.3828281" lon="-5.9654853">
    <tag k="operator" v="El Jamón"/>
    <tag k="shop" v="supermarket"/>
  </node>
  <node id="864119365" lat="37.3810464" lon="-5.9715234">
    <tag k="operator" v="Supersol"/>
    <tag k="shop" v="supermarket"/>
  </node>
  <node id="876137942" lat="37.3880213" lon="-5.9150298">
    <tag k="operator" v="Maxi Dia"/>
    <tag k="shop" v="supermarket"/>
  </node>
  <node id="876527289" lat="37.4004138" lon="-5.9252130">
    <tag k="addr:city" v="Sevilla"/>
    <tag k="addr:housenumber" v="22"/>
    <tag k="addr:street" v="Avenida de las Ciencias"/>
    <tag k="name" v="Mercadona"/>
    <tag k="shop" v="supermarket"/>
  </node>
  <node id="876527389" lat="37.4022714" lon="-5.9268237">
    <tag k="addr:postcode" v="41020"/>
    <tag k="addr:street" v="Avenida de las Ciencias"/>
    <tag k="name" v="Supermercados DIA"/>
    <tag k="operator" v="Dia"/>
    <tag k="shop" v="supermarket"/>
  </node>
  <node id="889003450" lat="37.3852595" lon="-5.9578357">
    <tag k="addr:country" v="ES"/>
    <tag k="is_in:country" v="Spain"/>
    <tag k="operator" v="Polvillo"/>
    <tag k="shop" v="bakery"/>
  </node>
  <node id="889003483" lat="37.3822160" lon="-5.9532198">
    <tag k="name" v="Supersol"/>
    <tag k="operator" v="Supersol"/>
    <tag k="shop" v="supermarket"/>
  </node>
  <node id="889531788" lat="37.3750846" lon="-5.9538345">
    <tag k="operator" v="Dia"/>
    <tag k="shop" v="supermarket"/>
  </node>
  <node id="889531833" lat="37.3838793" lon="-5.9469451">
    <tag k="operator" v="El Jamón"/>
    <tag k="shop" v="supermarket"/>
  </node>
  <node id="889531873" lat="37.3758889" lon="-5.9545486">
    <tag k="operator" v="El Jamón"/>
    <tag k="shop" v="supermarket"/>
  </node>
  <node id="895677563" lat="37.4104300" lon="-5.9250194">
    <tag k="operator" v="Maxi Dia"/>
    <tag k="shop" v="supermarket"/>
  </node>
  <node id="895677645" lat="37.3994984" lon="-5.9527488">
    <tag k="operator" v="Coviran"/>
    <tag k="shop" v="supermarket"/>
  </node>
  <node id="895677671" lat="37.4010345" lon="-5.9406317">
    <tag k="operator" v="Mas"/>
    <tag k="shop" v="supermarket"/>
  </node>
  <node id="895760866" lat="37.4117722" lon="-5.9196117">
    <tag k="operator" v="Mercadona"/>
    <tag k="shop" v="supermarket"/>
  </node>
  <node id="897251242" lat="37.4021436" lon="-5.9206454">
    <tag k="operator" v="Mas"/>
    <tag k="shop" v="supermarket"/>
  </node>
  <node id="897251401" lat="37.3958654" lon="-5.9241546">
    <tag k="operator" v="MAS"/>
    <tag k="shop" v="supermarket"/>
  </node>
  <node id="913280140" lat="37.4007450" lon="-5.9878885">
    <tag k="addr:housenumber" v="9B"/>
    <tag k="email" v="info@galeria-wl.eu"/>
    <tag k="fax" v="+34 610760556"/>
    <tag k="name" v="Galeria Weber-Lutgen"/>
    <tag k="note" v="arte contemporáneo"/>
    <tag k="phone" v="+34 954909471"/>
    <tag k="shop" v="art"/>
    <tag k="website" v="http://www.galeria-wl.eu"/>
  </node>
  <node id="916442504" lat="37.3959690" lon="-5.9781070">
    <tag k="name" v="Supersol"/>
    <tag k="operator" v="Supersol"/>
    <tag k="shop" v="supermarket"/>
  </node>
  <node id="916442505" lat="37.3955684" lon="-5.9782250">
    <tag k="name" v="DIA"/>
    <tag k="operator" v="DIA"/>
    <tag k="shop" v="supermarket"/>
  </node>
  <node id="917045302" lat="37.3993031" lon="-5.9710998">
    <tag k="operator" v="Mas"/>
    <tag k="shop" v="supermarket"/>
    <tag k="wheelchair" v="yes"/>
  </node>
  <node id="928657456" lat="37.3674979" lon="-5.9714706">
    <tag k="addr:country" v="ES"/>
    <tag k="name" v="Peluquería Pepe Sevilla"/>
    <tag k="shop" v="hairdresser"/>
  </node>
  <node id="929412212" lat="37.3660935" lon="-5.9681682">
    <tag k="name" v="Talleres Hermanos Vega"/>
    <tag k="shop" v="car_repair"/>
  </node>
  <node id="929412237" lat="37.3650312" lon="-5.9680063">
    <tag k="addr:country" v="ES"/>
    <tag k="is_in:country" v="Spain"/>
    <tag k="name" v="Polvillo"/>
    <tag k="shop" v="bakery"/>
  </node>
  <node id="929412255" lat="37.3654214" lon="-5.9676838">
    <tag k="shop" v="kiosk"/>
  </node>
  <node id="929412271" lat="37.3658205" lon="-5.9688174">
    <tag k="shop" v="confectionery"/>
  </node>
  <node id="929412279" lat="37.3661575" lon="-5.9683973">
    <tag k="operator" v="El Jamón"/>
    <tag k="shop" v="supermarket"/>
  </node>
  <node id="938371130" lat="37.3716058" lon="-5.9566624">
    <tag k="name" v="DIA"/>
    <tag k="shop" v="supermarket"/>
  </node>
  <node id="942627505" lat="37.3612925" lon="-5.9601058">
    <tag k="shop" v="supermarket"/>
  </node>
  <node id="960293342" lat="37.3901474" lon="-5.9902509">
    <tag k="name" v="Eco Frutas"/>
    <tag k="shop" v="greengrocer"/>
    <tag k="wheelchair" v="no"/>
  </node>
  <node id="960304613" lat="37.3860693" lon="-5.9960895">
    <tag k="name" v="Baco Alimentacion"/>
    <tag k="shop" v="convenience"/>
  </node>
  <node id="960797322" lat="37.3855905" lon="-5.9908091">
    <tag k="name" v="Alimentacion Bebidas"/>
    <tag k="shop" v="convenience"/>
  </node>
  <node id="960837300" lat="37.3903583" lon="-5.9893931">
    <tag k="name" v="Dia"/>
    <tag k="shop" v="supermarket"/>
  </node>
  <node id="993711712" lat="37.3994947" lon="-5.9855208">
    <tag k="opening_hours" v="Lu-Sa 10:30-14:00; Lu-Vi 17:30-20:30"/>
    <tag k="operator" v="Valle de Orosierra"/>
    <tag k="shop" v="butcher"/>
    <tag k="website" v="http://www.orosierra.com/"/>
  </node>
  <node id="993711722" lat="37.4011492" lon="-5.9918408">
    <tag k="name" v="MAS"/>
    <tag k="shop" v="supermarket"/>
  </node>
  <node id="993711723" lat="37.4010586" lon="-5.9917193">
    <tag k="name" v="Eco Frutas"/>
    <tag k="shop" v="greengrocer"/>
  </node>
  <node id="993711724" lat="37.4016208" lon="-5.9918408">
    <tag k="name" v="Supermercado El Carmen"/>
    <tag k="shop" v="convenience"/>
  </node>
  <node id="1046691562" lat="37.3837880" lon="-5.9772850">
    <tag k="addr:housenumber" v="954 411 907"/>
    <tag k="addr:postcode" v="41018"/>
    <tag k="addr:street" v="Eduardo Dato"/>
    <tag k="description" v="Panadería y Confitería."/>
    <tag k="name" v="Horno La Parra"/>
    <tag k="shop" v="supermarket"/>
  </node>
  <node id="1140842229" lat="37.4003820" lon="-5.9905558">
    <tag k="name" v="Panadería Ana"/>
    <tag k="shop" v="convenience"/>
  </node>
  <node id="1142412876" lat="37.4007084" lon="-5.9270066">
    <tag k="name" v="Supersol"/>
    <tag k="shop" v="supermarket"/>
  </node>
  <node id="1152685241" lat="37.3984482" lon="-5.9915135">
    <tag k="name" v="Panadería Alfonso"/>
    <tag k="shop" v="convenience"/>
  </node>
  <node id="1290619742" lat="37.4014950" lon="-5.9939205">
    <tag k="name" v="Jose Gomez del Moral"/>
    <tag k="shop" v="bicycle"/>
  </node>
  <node id="1312257118" lat="37.3936515" lon="-5.9926339">
    <tag k="name" v="Ramitos"/>
    <tag k="shop" v="florist"/>
  </node>
  <node id="1313576960" lat="37.3935680" lon="-5.9849680">
    <tag k="name" v="Talleres Molina"/>
    <tag k="shop" v="motorcycle"/>
  </node>
  <node id="1313577117" lat="37.3939800" lon="-5.9855310">
    <tag k="name" v="Renault"/>
    <tag k="shop" v="car"/>
  </node>
  <node id="1313577555" lat="37.3917280" lon="-5.9843940">
    <tag k="addr:city" v="Sevilla / Casco Antiguo / San Bartolomé"/>
    <tag k="addr:housenumber" v="37 acc b"/>
    <tag k="addr:postcode" v="41003"/>
    <tag k="addr:street" v="Calle San Primitivo"/>
    <tag k="name" v="Bicycle repair"/>
    <tag k="opening_hours" v="Mo-Fr 10:00-14:00,17:00-21:00;Sa 10:00-14:00"/>
    <tag k="phone" v="664022260"/>
    <tag k="shop" v="bicycle"/>
    <tag k="website" v="www.tallerdebicicletas.com"/>
    <tag k="wheelchair" v="yes"/>
  </node>
  <node id="1313583417" lat="37.3919600" lon="-5.9841260">
    <tag k="addr:city" v="Sevilla / Casco Antiguo / San Bartolomé"/>
    <tag k="addr:street" v="Calle Recaredo"/>
    <tag k="name" v="Librería Maymen"/>
    <tag k="opening_hours" v="Mo-Fr 09:30-13:30;Sa 09:30-13:00"/>
    <tag k="shop" v="books"/>
    <tag k="wheelchair" v="no"/>
  </node>
  <node id="1313593133" lat="37.3878814" lon="-5.9844847">
    <tag k="name" v="El Jamón"/>
    <tag k="shop" v="supermarket"/>
    <tag k="wheelchair" v="no"/>
  </node>
  <node id="1314059368" lat="37.3897870" lon="-5.9990823">
    <tag k="shop" v="kiosk"/>
  </node>
  <node id="1314059369" lat="37.3899660" lon="-5.9983394">
    <tag k="name" v="Juguetes Osorno"/>
    <tag k="shop" v="toys"/>
  </node>
  <node id="1314872665" lat="37.3903328" lon="-5.9932043">
    <tag k="shop" v="kiosk"/>
  </node>
  <node id="1314917863" lat="37.3823229" lon="-5.9654876">
    <tag k="name" v="Supemercados El Jamón"/>
    <tag k="shop" v="supermarket"/>
  </node>
  <node id="1315960027" lat="37.3871931" lon="-5.9596531">
    <tag k="shop" v="motorcycle"/>
  </node>
  <node id="1315960030" lat="37.3880072" lon="-5.9606106">
    <tag k="shop" v="clothes"/>
  </node>
  <node id="1315960036" lat="37.3878775" lon="-5.9602359">
    <tag k="shop" v="gift"/>
  </node>
  <node id="1315960052" lat="37.3881609" lon="-5.9607563">
    <tag k="shop" v="toys"/>
  </node>
  <node id="1315960054" lat="37.3882714" lon="-5.9607582">
    <tag k="shop" v="supermarket"/>
    <tag k="wheelchair" v="yes"/>
  </node>
  <node id="1315960055" lat="37.3879819" lon="-5.9602225">
    <tag k="addr:country" v="ES"/>
    <tag k="shop" v="hairdresser"/>
  </node>
  <node id="1315960056" lat="37.3880479" lon="-5.9604612">
    <tag k="shop" v="jewelry"/>
  </node>
  <node id="1316884460" lat="37.3935998" lon="-5.9854770">
    <tag k="shop" v="convenience"/>
  </node>
  <node id="1319842006" lat="37.3932086" lon="-5.9999403">
    <tag k="name" v="El búcaro"/>
    <tag k="shop" v="florist"/>
    <tag k="wheelchair" v="no"/>
  </node>
  <node id="1323182267" lat="37.3943760" lon="-5.9946080">
    <tag k="name" v="Chino"/>
    <tag k="shop" v="convenience"/>
  </node>
  <node id="1323182414" lat="37.3965280" lon="-5.9940340">
    <tag k="name" v="Chino"/>
    <tag k="shop" v="convenience"/>
  </node>
  <node id="1325624276" lat="37.3864985" lon="-5.9990196">
    <tag k="addr:housename" v="Adriano Moda"/>
    <tag k="name" v="Adriano Moda"/>
    <tag k="shop" v="clothes"/>
  </node>
  <node id="1329558132" lat="37.3920840" lon="-5.9910770">
    <tag k="books" v="children"/>
    <tag k="name" v="Rayuela (libros infantiles)"/>
    <tag k="shop" v="books"/>
    <tag k="wheelchair" v="no"/>
  </node>
  <node id="1329560083" lat="37.3962455" lon="-5.9878415">
    <tag k="addr:country" v="ES"/>
    <tag k="is_in:country" v="Spain"/>
    <tag k="name" v="Panadería Burguito"/>
    <tag k="shop" v="bakery"/>
  </node>
  <node id="1329560091" lat="37.3960645" lon="-5.9879018">
    <tag k="name" v="Floristería"/>
    <tag k="shop" v="florist"/>
  </node>
  <node id="1335057355" lat="37.3917902" lon="-5.9946513">
    <tag k="name" v="Librería Beta"/>
    <tag k="shop" v="books"/>
  </node>
  <node id="1335058840" lat="37.3946680" lon="-5.9974030">
    <tag k="name" v="Dia Supermercados"/>
    <tag k="shop" v="supermarket"/>
  </node>
  <node id="1335058933" lat="37.3945238" lon="-5.9968966">
    <tag k="name" v="Casa"/>
    <tag k="shop" v="furniture"/>
  </node>
  <node id="1335058982" lat="37.3950317" lon="-5.9966567">
    <tag k="name" v="Chino"/>
    <tag k="shop" v="convenience"/>
  </node>
  <node id="1335059481" lat="37.3951605" lon="-5.9979580">
    <tag k="addr:country" v="ES"/>
    <tag k="is_in:country" v="Spain"/>
    <tag k="name" v="Panadería"/>
    <tag k="shop" v="bakery"/>
  </node>
  <node id="1336670960" lat="37.4001304" lon="-5.9834399">
    <tag k="name" v="Viveros La María"/>
    <tag k="shop" v="florist"/>
  </node>
  <node id="1342771336" lat="37.3943903" lon="-5.9915180">
    <tag k="addr:street" v="Regina"/>
    <tag k="name" v="Un gato en bicicleta"/>
    <tag k="shop" v="books"/>
    <tag k="website" v="http://www.ungatoenbicicleta.com/"/>
  </node>
  <node id="1343003497" lat="37.3907101" lon="-5.9944014">
    <tag k="addr:housenumber" v="57"/>
    <tag k="addr:street" v="Calle Sierpes"/>
    <tag k="books" v="religion"/>
    <tag k="name" v="Libreria San Pablo"/>
    <tag k="shop" v="books"/>
  </node>
  <node id="1343003509" lat="37.3911626" lon="-5.9937343">
    <tag k="name" v="Librería Repiso"/>
    <tag k="shop" v="books"/>
  </node>
  <node id="1343003521" lat="37.3872916" lon="-5.9770458">
    <tag k="name" v="Librería Interbook"/>
    <tag k="shop" v="books"/>
  </node>
  <node id="1343572651" lat="37.3894437" lon="-5.9860248">
    <tag k="addr:city" v="Sevilla"/>
    <tag k="addr:country" v="ES"/>
    <tag k="addr:housenumber" v="5"/>
    <tag k="addr:postcode" v="41003"/>
    <tag k="addr:street" v="Calle Cristo del Buen Viaje"/>
    <tag k="is_in:country" v="Spain"/>
    <tag k="name" v="Pan Artesano"/>
    <tag k="shop" v="bakery"/>
  </node>
  <node id="1343588604" lat="37.3873360" lon="-5.9849974">
    <tag k="addr:street" v="Avda. Menéndez y Pelayo"/>
    <tag k="name" v="Supermercados Mas"/>
    <tag k="shop" v="supermarket"/>
    <tag k="wheelchair" v="no"/>
  </node>
  <node id="1346579891" lat="37.3937840" lon="-5.9977190">
    <tag k="name" v="Libreria Buenos Libros"/>
    <tag k="shop" v="books"/>
  </node>
  <node id="1348488636" lat="37.3861324" lon="-5.9872096">
    <tag k="amenity" v="restaurant"/>
    <tag k="name" v="Horno las Doncellas"/>
    <tag k="opening_hours" v="Mo-Sa 06:45-15:30, 17:30-21:00"/>
    <tag k="shop" v="bakery"/>
  </node>
  <node id="1360279683" lat="37.4068713" lon="-5.9284092">
    <tag k="addr:country" v="ES"/>
    <tag k="is_in:country" v="Spain"/>
    <tag k="name" v="Panaderia"/>
    <tag k="shop" v="bakery"/>
  </node>
  <node id="1360354725" lat="37.3876854" lon="-5.9552464">
    <tag k="name" v="IVECO"/>
    <tag k="shop" v="car"/>
  </node>
  <node id="1360354781" lat="37.3878131" lon="-5.9567457">
    <tag k="name" v="Chevrolet"/>
    <tag k="shop" v="car"/>
  </node>
  <node id="1361167741" lat="37.3870791" lon="-5.9427447">
    <tag k="name" v="FORD"/>
    <tag k="shop" v="car"/>
  </node>
  <node id="1361167745" lat="37.3871516" lon="-5.9452123">
    <tag k="name" v="Citroën"/>
    <tag k="shop" v="car"/>
    <tag k="website" v="http://www.vterry.es/"/>
  </node>
  <node id="1361167755" lat="37.3871258" lon="-5.9438763">
    <tag k="name" v="Zuzuki"/>
    <tag k="shop" v="car"/>
  </node>
  <node id="1366913038" lat="37.3779800" lon="-5.9975850">
    <tag k="name" v="Supersol"/>
    <tag k="shop" v="supermarket"/>
  </node>
  <node id="1394538556" lat="37.3846337" lon="-5.9711558">
    <tag k="addr:housenumber" v="1"/>
    <tag k="addr:street" v="Avenida de Eduardo Dato"/>
    <tag k="name" v="Ramón Sánchez Pizjuán"/>
    <tag k="shop" v="sports"/>
  </node>
  <node id="1445765334" lat="37.4036714" lon="-5.9740752">
    <tag k="shop" v="convenience"/>
  </node>
  <node id="1456056127" lat="37.3828833" lon="-5.9536265">
    <tag k="name" v="Dia"/>
    <tag k="shop" v="supermarket"/>
  </node>
  <node id="1456056135" lat="37.3774228" lon="-5.9472911">
    <tag k="name" v="Dia"/>
    <tag k="shop" v="supermarket"/>
  </node>
  <node id="1456056137" lat="37.3851723" lon="-5.9482621">
    <tag k="name" v="Dia"/>
    <tag k="shop" v="supermarket"/>
  </node>
  <node id="1456056138" lat="37.3838552" lon="-5.9514647">
    <tag k="name" v="Mas"/>
    <tag k="shop" v="supermarket"/>
  </node>
  <node id="1456056140" lat="37.3761482" lon="-5.9474896">
    <tag k="addr:street" v="Calle Nescania"/>
    <tag k="name" v="jamoncito"/>
    <tag k="operator" v="calvo cabron"/>
    <tag k="shop" v="supermarket"/>
  </node>
  <node id="1456076637" lat="37.3853927" lon="-5.9504292">
    <tag k="shop" v="car_repair"/>
  </node>
  <node id="1456076641" lat="37.3822726" lon="-5.9508529">
    <tag k="shop" v="kiosk"/>
  </node>
  <node id="1456076663" lat="37.3831251" lon="-5.9506759">
    <tag k="shop" v="florist"/>
  </node>
  <node id="1520098901" lat="37.4032652" lon="-5.9891063">
    <tag k="shop" v="kiosk"/>
    <tag k="source" v="survey"/>
  </node>
  <node id="1531495321" lat="37.3910045" lon="-5.9924186">
    <tag k="name" v="WonKandy"/>
    <tag k="shop" v="confectionery"/>
  </node>
  <node id="1531495322" lat="37.3941456" lon="-5.9915308">
    <tag k="name" v="Prensa"/>
    <tag k="shop" v="kiosk"/>
  </node>
  <node id="1531495334" lat="37.3909058" lon="-5.9923393">
    <tag k="name" v="Optica Puente Pellón"/>
    <tag k="shop" v="optician"/>
  </node>
  <node id="1531495343" lat="37.3931529" lon="-5.9922652">
    <tag k="name" v="Deportes Z"/>
    <tag k="shop" v="sports"/>
  </node>
  <node id="1531495369" lat="37.3927876" lon="-5.9912879">
    <tag k="name" v="General Óptica"/>
    <tag k="shop" v="optician"/>
    <tag k="wheelchair" v="yes"/>
  </node>
  <node id="1531495372" lat="37.3936576" lon="-5.9911177">
    <tag k="name" v="Floristeria Hnos luque"/>
    <tag k="shop" v="florist"/>
  </node>
  <node id="1531495377" lat="37.3921348" lon="-5.9913992">
    <tag k="name" v="E-tong"/>
    <tag k="shop" v="mobile_phone"/>
  </node>
  <node id="1531539176" lat="37.3902900" lon="-5.9903975">
    <tag k="name" v="Vodafone"/>
    <tag k="shop" v="mobile_phone"/>
  </node>
  <node id="1531539258" lat="37.3928941" lon="-5.9935621">
    <tag k="name" v="Vodafone"/>
    <tag k="shop" v="mobile_phone"/>
  </node>
  <node id="1531539363" lat="37.3926916" lon="-5.9903385">
    <tag k="name" v="Movistar"/>
    <tag k="shop" v="mobile_phone"/>
  </node>
  <node id="1531564424" lat="37.3881638" lon="-5.9948861">
    <tag k="name" v="Movistar"/>
    <tag k="shop" v="mobile_phone"/>
  </node>
  <node id="1537181692" lat="37.3921069" lon="-5.9947913">
    <tag k="name" v="VisionLab"/>
    <tag k="shop" v="optician"/>
  </node>
  <node id="1537181700" lat="37.3928644" lon="-5.9924494">
    <tag k="name" v="Optica Alain Afflelou"/>
    <tag k="shop" v="optician"/>
  </node>
  <node id="1537181713" lat="37.3904528" lon="-5.9943284">
    <tag k="name" v="Telecor"/>
    <tag k="shop" v="mobile_phone"/>
  </node>
  <node id="1537181717" lat="37.3927368" lon="-5.9939715">
    <tag k="name" v="Milar"/>
    <tag k="shop" v="hifi"/>
  </node>
  <node id="1537181721" lat="37.3918137" lon="-5.9947320">
    <tag k="name" v="GoldenMac"/>
    <tag k="shop" v="hifi"/>
  </node>
  <node id="1537181724" lat="37.3926575" lon="-5.9944772">
    <tag k="name" v="Optica Delgado"/>
    <tag k="shop" v="optician"/>
  </node>
  <node id="1537181739" lat="37.3922271" lon="-5.9947749">
    <tag k="name" v="VisualOptica"/>
    <tag k="shop" v="optician"/>
  </node>
  <node id="1537181740" lat="37.3910927" lon="-5.9946176">
    <tag k="name" v="Movistar"/>
    <tag k="shop" v="mobile_phone"/>
  </node>
  <node id="1537181741" lat="37.3924784" lon="-5.9949288">
    <tag k="name" v="La Cure Normands"/>
    <tag k="shop" v="confectionery"/>
  </node>
  <node id="1537181761" lat="37.3926883" lon="-5.9919845">
    <tag k="addr:country" v="ES"/>
    <tag k="name" v="Estanco"/>
    <tag k="shop" v="tobacco"/>
  </node>
  <node id="1537181762" lat="37.3913789" lon="-5.9945979">
    <tag k="name" v="Solopticas"/>
    <tag k="shop" v="optician"/>
  </node>
  <node id="1537181763" lat="37.3926831" lon="-5.9940722">
    <tag k="name" v="Pasarela"/>
    <tag k="shop" v="shoes"/>
  </node>
  <node id="1537230608" lat="37.3894843" lon="-5.9999434">
    <tag k="name" v="APP Informática"/>
    <tag k="shop" v="hifi"/>
  </node>
  <node id="1537230614" lat="37.3850951" lon="-5.9947683">
    <tag k="shop" v="gift"/>
  </node>
  <node id="1537230616" lat="37.3863324" lon="-5.9966738">
    <tag k="addr:country" v="ES"/>
    <tag k="is_in:country" v="Spain"/>
    <tag k="name" v="Heladería confiteria Los Ángeles"/>
    <tag k="shop" v="bakery"/>
  </node>
  <node id="1537230659" lat="37.3928191" lon="-5.9957451">
    <tag k="name" v="Prensa"/>
    <tag k="shop" v="kiosk"/>
    <tag k="wheelchair" v="yes"/>
  </node>
  <node id="1537230736" lat="37.3939532" lon="-5.9957940">
    <tag k="shop" v="confectionery"/>
  </node>
  <node id="1537230740" lat="37.3926558" lon="-5.9949273">
    <tag k="name" v="Prensa la Campana"/>
    <tag k="shop" v="newsagent"/>
    <tag k="wheelchair" v="yes"/>
  </node>
  <node id="1537230749" lat="37.3878422" lon="-5.9926011">
    <tag k="name" v="El Jardín"/>
    <tag k="shop" v="florist"/>
  </node>
  <node id="1537230767" lat="37.3939616" lon="-5.9956693">
    <tag k="name" v="Supermercado Chino"/>
    <tag k="shop" v="supermarket"/>
  </node>
  <node id="1537230772" lat="37.3942825" lon="-5.9965359">
    <tag k="name" v="Prensa"/>
    <tag k="shop" v="kiosk"/>
  </node>
  <node id="1542687091" lat="37.3951882" lon="-5.9974618">
    <tag k="addr:country" v="ES"/>
    <tag k="shop" v="hairdresser"/>
  </node>
  <node id="1542687145" lat="37.3952266" lon="-5.9977325">
    <tag k="shop" v="butcher"/>
  </node>
  <node id="1542687148" lat="37.3927120" lon="-5.9926150">
    <tag k="name" v="Prensa"/>
    <tag k="shop" v="kiosk"/>
    <tag k="wheelchair" v="yes"/>
  </node>
  <node id="1542687206" lat="37.3951776" lon="-5.9972633">
    <tag k="shop" v="music"/>
  </node>
  <node id="1542687236" lat="37.3928450" lon="-5.9938787">
    <tag k="name" v="Prensa"/>
    <tag k="shop" v="kiosk"/>
  </node>
  <node id="1542687246" lat="37.3952905" lon="-5.9982423">
    <tag k="shop" v="fishmonger"/>
  </node>
  <node id="1544052878" lat="37.3892894" lon="-5.9842656">
    <tag k="name" v="Los hermanod"/>
    <tag k="shop" v="greengrocer"/>
  </node>
  <node id="1544052973" lat="37.3893640" lon="-5.9842281">
    <tag k="addr:country" v="ES"/>
    <tag k="is_in:country" v="Spain"/>
    <tag k="name" v="confitería Don Divino"/>
    <tag k="shop" v="bakery"/>
  </node>
  <node id="1544052987" lat="37.3931260" lon="-5.9814431">
    <tag k="name" v="Tienda motos"/>
    <tag k="shop" v="motorcycle"/>
  </node>
  <node id="1544052996" lat="37.3927850" lon="-5.9807214">
    <tag k="name" v="Ford"/>
    <tag k="shop" v="car"/>
  </node>
  <node id="1544061205" lat="37.3908452" lon="-5.9825464">
    <tag k="name" v="Mundo Scooter"/>
    <tag k="shop" v="motorcycle"/>
  </node>
  <node id="1545527324" lat="37.3881210" lon="-5.9850533">
    <tag k="name" v="Bike Life"/>
    <tag k="opening_hours" v="Mo-Fr 10:00-14:00,17:00-21:00; Sa 10:00-14:00"/>
    <tag k="shop" v="bicycle"/>
    <tag k="wheelchair" v="limited"/>
  </node>
  <node id="1548447021" lat="37.3834992" lon="-5.9184405">
    <tag k="name" v="Mercadona"/>
    <tag k="operator" v="Mercadona"/>
    <tag k="shop" v="supermarket"/>
  </node>
  <node id="1558290296" lat="37.4066907" lon="-5.9730014">
    <tag k="addr:street" v="Avenida de San Juan de la Salle"/>
    <tag k="name" v="MAS"/>
    <tag k="shop" v="supermarket"/>
  </node>
  <node id="1558295493" lat="37.4073276" lon="-5.9737118">
    <tag k="shop" v="jewelry"/>
  </node>
  <node id="1558302103" lat="37.4047725" lon="-5.9754379">
    <tag k="addr:country" v="ES"/>
    <tag k="shop" v="hairdresser"/>
  </node>
  <node id="1558303260" lat="37.4061339" lon="-5.9752716">
    <tag k="shop" v="fishmonger"/>
  </node>
  <node id="1558303551" lat="37.4078022" lon="-5.9790052">
    <tag k="addr:country" v="ES"/>
    <tag k="is_in:country" v="Spain"/>
    <tag k="name" v="Polvillo"/>
    <tag k="shop" v="bakery"/>
  </node>
  <node id="1595872272" lat="37.4151454" lon="-5.9561305">
    <tag k="name" v="Cash Badía"/>
    <tag k="shop" v="convenience"/>
  </node>
  <node id="1595872275" lat="37.4154820" lon="-5.9557496">
    <tag k="name" v="Aurgi"/>
    <tag k="shop" v="car_repair"/>
  </node>
  <node id="1600682558" lat="37.3965252" lon="-5.9832312">
    <tag k="addr:country" v="ES"/>
    <tag k="is_in:country" v="Spain"/>
    <tag k="shop" v="bakery"/>
  </node>
  <node id="1601760342" lat="37.4043147" lon="-5.9621129">
    <tag k="name" v="Noru"/>
    <tag k="shop" v="hifi"/>
  </node>
  <node id="1605839807" lat="37.3853754" lon="-5.9813389">
    <tag k="addr:country" v="ES"/>
    <tag k="addr:street" v="C/ Jiménez Aranda"/>
    <tag k="is_in:country" v="Spain"/>
    <tag k="name" v="El Dulce Nombre"/>
    <tag k="shop" v="bakery"/>
  </node>
  <node id="1605842149" lat="37.3850834" lon="-5.9812451">
    <tag k="addr:street" v="C/ Jiménez Aranda"/>
    <tag k="name" v="Supermercado MAS"/>
    <tag k="shop" v="supermarket"/>
  </node>
  <node id="1668385076" lat="37.3784614" lon="-5.9412792">
    <tag k="name" v="MAS"/>
    <tag k="shop" v="supermarket"/>
  </node>
  <node id="1668395862" lat="37.3775619" lon="-5.9414347">
    <tag k="name" v="Floristeria Camelia"/>
    <tag k="shop" v="florist"/>
  </node>
  <node id="1708346979" lat="37.4182804" lon="-5.9636732">
    <tag k="shop" v="clothes"/>
  </node>
  <node id="1708376552" lat="37.4186607" lon="-5.9629950">
    <tag k="name" v="Papeleria Espova"/>
    <tag k="shop" v="kiosk"/>
  </node>
  <node id="1715754973" lat="37.3911040" lon="-5.9913870">
    <tag k="addr:country" v="ES"/>
    <tag k="addr:housenumber" v="10"/>
    <tag k="addr:street" v="Calle Don Alonso el Sabio"/>
    <tag k="name" v="Peluquería Pepe Cruz"/>
    <tag k="shop" v="hairdresser"/>
  </node>
  <node id="1715912863" lat="37.3911274" lon="-5.9915828">
    <tag k="addr:housenumber" v="8"/>
    <tag k="addr:street" v="Calle Don Alonso el Sabio"/>
    <tag k="name" v="Sombreros Patricia Buffuna"/>
    <tag k="shop" v="clothes"/>
    <tag k="website" v="http://www.patriciabuffuna.com/"/>
  </node>
  <node id="1715912872" lat="37.3916171" lon="-5.9910485">
    <tag k="addr:housenumber" v="2"/>
    <tag k="addr:street" v="Calle Pérez Galdós"/>
    <tag k="name" v="La Importadora"/>
    <tag k="shop" v="clothes"/>
    <tag k="website" v="http://laimportadorashopgallery.blogspot.com.es/"/>
  </node>
  <node id="1715912878" lat="37.3914535" lon="-5.9909471">
    <tag k="addr:housenumber" v="1"/>
    <tag k="addr:street" v="Calle Pérez Galdós"/>
    <tag k="name" v="Delimbo"/>
    <tag k="shop" v="art"/>
    <tag k="website" v="http://delimbo.com/"/>
  </node>
  <node id="1715912898" lat="37.3915239" lon="-5.9909176">
    <tag k="addr:housenumber" v="1"/>
    <tag k="addr:street" v="Calle Pérez Galdós"/>
    <tag k="name" v="Isadora"/>
    <tag k="shop" v="clothes"/>
    <tag k="website" v="http://isadoratienda.blogspot.com.es/"/>
  </node>
  <node id="1719268422" lat="37.3915342" lon="-5.9910487">
    <tag k="addr:housenumber" v="4"/>
    <tag k="addr:street" v="Calle Pérez Galdós"/>
    <tag k="name" v="Le Voilá"/>
    <tag k="shop" v="clothes"/>
    <tag k="website" v="http://le-voila.blogspot.com.es/"/>
  </node>
  <node id="1719268426" lat="37.3916322" lon="-5.9908127">
    <tag k="addr:housenumber" v="3"/>
    <tag k="addr:street" v="Calle Ortíz de Zúñiga"/>
    <tag k="name" v="Taranta"/>
    <tag k="shop" v="clothes"/>
    <tag k="website" v="http://www.tarantasevilla.com/"/>
  </node>
  <node id="1719268439" lat="37.3911421" lon="-5.9917810">
    <tag k="addr:housenumber" v="6"/>
    <tag k="addr:street" v="Calle Don Alonso el Sabio"/>
    <tag k="name" v="Zález"/>
    <tag k="shop" v="clothes"/>
    <tag k="website" v="http://nuriagonzalez.com/"/>
  </node>
  <node id="1719268443" lat="37.3921159" lon="-5.9908905">
    <tag k="addr:housenumber" v="1"/>
    <tag k="addr:street" v="Calle Santillana"/>
    <tag k="name" v="Florypondio"/>
    <tag k="shop" v="clothes"/>
    <tag k="website" v="http://www.florypondio.com/"/>
    <tag k="wheelchair" v="no"/>
  </node>
  <node id="1720409763" lat="37.4245402" lon="-5.9849356">
    <tag k="addr:postcode" v="41015"/>
    <tag k="addr:street" v="Calle Cataluña"/>
    <tag k="designation" v="Supermarket"/>
    <tag k="name" v="Supermcado &quot;M.A.S.&quot;"/>
    <tag k="shop" v="supermarket"/>
    <tag k="website" v="http://www.supermercadosmas.com"/>
  </node>
  <node id="1720410615" lat="37.4245402" lon="-5.9849356">
    <tag k="addr:postcode" v="41015"/>
    <tag k="addr:street" v="Calle Cataluña"/>
    <tag k="designation" v="Supermarket"/>
    <tag k="name" v="Supermcado &quot;M.A.S.&quot;"/>
    <tag k="shop" v="supermarket"/>
    <tag k="website" v="http://www.supermercadosmas.com"/>
  </node>
  <node id="1731000919" lat="37.3899332" lon="-5.9988203">
    <tag k="addr:housenumber" v="12"/>
    <tag k="addr:street" v="Calle San Pablo"/>
    <tag k="name" v="Librería BETA"/>
    <tag k="shop" v="books"/>
    <tag k="website" v="http://www.libreriasbeta.com"/>
  </node>
  <node id="1731000932" lat="37.3943608" lon="-5.9916279">
    <tag k="name" v="La seta coqueta"/>
    <tag k="shop" v="clothes"/>
  </node>
  <node id="1731490564" lat="37.3937290" lon="-5.9490013">
    <tag k="name" v="Sytasa (Renault)"/>
    <tag k="shop" v="car"/>
  </node>
  <node id="1752157720" lat="37.3926659" lon="-5.9819003">
    <tag k="name" v="Supersol"/>
    <tag k="shop" v="supermarket"/>
  </node>
  <node id="1757025956" lat="37.3927769" lon="-5.9991987">
    <tag k="addr:housenumber" v="4"/>
    <tag k="addr:postcode" v="41001"/>
    <tag k="addr:street" v="Plaza del Museo"/>
    <tag k="name" v="Antigüedades el Museo"/>
    <tag k="shop" v="jewelry"/>
    <tag k="website" v="www.antiguedadeselmuseo.com"/>
  </node>
  <node id="1757025957" lat="37.3930198" lon="-5.9994776">
    <tag k="name" v="Kiosko museo"/>
    <tag k="shop" v="kiosk"/>
  </node>
  <node id="1757029796" lat="37.3918203" lon="-5.9998801">
    <tag k="addr:country" v="ES"/>
    <tag k="shop" v="hairdresser"/>
  </node>
  <node id="1757029797" lat="37.3929142" lon="-5.9985274">
    <tag k="name" v="brillante"/>
    <tag k="shop" v="convenience"/>
  </node>
  <node id="1757029800" lat="37.3929050" lon="-5.9983995">
    <tag k="name" v="Chino"/>
    <tag k="shop" v="convenience"/>
    <tag k="wheelchair" v="yes"/>
  </node>
  <node id="1802909198" lat="37.3937267" lon="-5.9840314">
    <tag k="addr:country" v="ES"/>
    <tag k="addr:housenumber" v="6"/>
    <tag k="addr:street" v="Muñoz Torrero"/>
    <tag k="name" v="Isaias Peluqueros"/>
    <tag k="shop" v="hairdresser"/>
    <tag k="website" v="http://isaiaspeluqueros.es/"/>
  </node>
  <node id="1845768173" lat="37.3628442" lon="-5.9581086">
    <tag k="name" v="BMW San Pablo Motor"/>
    <tag k="shop" v="car"/>
  </node>
  <node id="1851251159" lat="37.3903305" lon="-5.9908586">
    <tag k="name" v="Quiosco Plaza de la Alfalfa"/>
    <tag k="shop" v="kiosk"/>
  </node>
  <node id="1869407349" lat="37.3988100" lon="-5.9242357">
    <tag k="addr:postcode" v="41020"/>
    <tag k="addr:street" v="Avenida de las Ciencias"/>
    <tag k="name" v="Papelería Carmen "/>
    <tag k="shop" v="books"/>
  </node>
  <node id="1870624334" lat="37.3988577" lon="-5.9242752">
    <tag k="addr:country" v="ES"/>
    <tag k="addr:postcode" v="41020"/>
    <tag k="addr:street" v="Avda de las Ciencias"/>
    <tag k="name" v="La Barbería"/>
    <tag k="shop" v="hairdresser"/>
  </node>
  <node id="1873028045" lat="37.4012548" lon="-5.9252511">
    <tag k="addr:city" v="Sevilla"/>
    <tag k="addr:postcode" v="41020"/>
    <tag k="addr:street" v="Avenida Emilio Lemos"/>
    <tag k="shop" v="laundry"/>
  </node>
  <node id="1873047363" lat="37.3968178" lon="-5.9223506">
    <tag k="shop" v="florist"/>
  </node>
  <node id="1873047380" lat="37.4084798" lon="-5.9109710">
    <tag k="addr:postcode" v="41020"/>
    <tag k="name" v="Alcampo"/>
    <tag k="shop" v="supermarket"/>
  </node>
  <node id="1883917195" lat="37.3852201" lon="-5.9772574">
    <tag k="name" v="Mas"/>
    <tag k="shop" v="supermarket"/>
  </node>
  <node id="1887927539" lat="37.3923485" lon="-5.9953360">
    <tag k="name" v="Wowble!"/>
    <tag k="shop" v="beverages"/>
  </node>
  <node id="1887927550" lat="37.3907607" lon="-5.9952147">
    <tag k="name" v="wokcandy"/>
    <tag k="shop" v="confectionery"/>
    <tag k="wheelchair" v="yes"/>
  </node>
  <node id="1887935468" lat="37.3989563" lon="-5.9931012">
    <tag k="addr:city" v="Sevilla"/>
    <tag k="addr:housenumber" v="4"/>
    <tag k="addr:postcode" v="41002"/>
    <tag k="addr:street" v="Vulcano"/>
    <tag k="name" v="FresKura"/>
    <tag k="note" v="Gelato Italiano Artigianale"/>
    <tag k="shop" v="ice_cream"/>
    <tag k="website" v="http://www.freskura.com"/>
  </node>
  <node id="1887954632" lat="37.3938253" lon="-5.9919735">
    <tag k="name" v="Chino"/>
    <tag k="shop" v="convenience"/>
  </node>
  <node id="1888658112" lat="37.4197516" lon="-5.9856155">
    <tag k="addr:country" v="ES"/>
    <tag k="is_in:country" v="Spain"/>
    <tag k="name" v="La espiga dorada"/>
    <tag k="shop" v="bakery"/>
  </node>
  <node id="1889729018" lat="37.4102009" lon="-5.9782710">
    <tag k="addr:country" v="ES"/>
    <tag k="addr:housenumber" v="6"/>
    <tag k="addr:postcode" v="41009"/>
    <tag k="addr:street" v="Mayo"/>
    <tag k="name" v="Peluqueria y Estetica Changel"/>
    <tag k="shop" v="hairdresser"/>
  </node>
  <node id="1890279436" lat="37.4205810" lon="-5.9853209">
    <tag k="addr:country" v="ES"/>
    <tag k="name" v="Mary Carmen"/>
    <tag k="shop" v="hairdresser"/>
  </node>
  <node id="1892275932" lat="37.4088536" lon="-5.9794376">
    <tag k="shop" v="convenience"/>
  </node>
  <node id="1892276832" lat="37.4093783" lon="-5.9796782">
    <tag k="addr:country" v="ES"/>
    <tag k="designation" v="Churreria"/>
    <tag k="is_in:country" v="Spain"/>
    <tag k="name" v="Churreria"/>
    <tag k="shop" v="bakery"/>
  </node>
  <node id="1892656786" lat="37.3911421" lon="-5.9917811">
    <tag k="addr:housenumber" v="6"/>
    <tag k="addr:street" v="Calle Don Alonso el Sabio"/>
    <tag k="name" v="Zález"/>
    <tag k="shop" v="clothes"/>
    <tag k="website" v="http://nuriagonzalez.com/"/>
  </node>
  <node id="1892656794" lat="37.3911421" lon="-5.9917811">
    <tag k="addr:housenumber" v="6"/>
    <tag k="addr:street" v="Calle Don Alonso el Sabio"/>
    <tag k="name" v="Zález"/>
    <tag k="shop" v="clothes"/>
    <tag k="website" v="http://nuriagonzalez.com/"/>
  </node>
  <node id="1892656798" lat="37.3911660" lon="-5.9919128">
    <tag k="addr:street" v="Don Alonso EL sabio 4"/>
    <tag k="name" v="Bici4City"/>
    <tag k="shop" v="bicycle"/>
    <tag k="website" v="http://www.bici4city.com"/>
  </node>
  <node id="1897723386" lat="37.4096034" lon="-5.9796953">
    <tag k="shop" v="fishmonger"/>
  </node>
  <node id="1897723442" lat="37.4096448" lon="-5.9796368">
    <tag k="shop" v="butcher"/>
  </node>
  <node id="1897725587" lat="37.4100240" lon="-5.9800606">
    <tag k="name" v="Prensa"/>
    <tag k="shop" v="kiosk"/>
  </node>
  <node id="1897725588" lat="37.4097513" lon="-5.9790440">
    <tag k="designation" v="Drogueria"/>
    <tag k="shop" v="convenience"/>
  </node>
  <node id="1897725590" lat="37.4101838" lon="-5.9792318">
    <tag k="name" v="La Concha"/>
    <tag k="shop" v="convenience"/>
  </node>
  <node id="1897725592" lat="37.4102179" lon="-5.9791057">
    <tag k="name" v="Ferreteria La Estrella"/>
    <tag k="shop" v="doityourself"/>
  </node>
  <node id="1897725593" lat="37.4092336" lon="-5.9788429">
    <tag k="shop" v="convenience"/>
  </node>
  <node id="1897726246" lat="37.4096171" lon="-5.9787597">
    <tag k="name" v="Chucherias"/>
    <tag k="shop" v="kiosk"/>
  </node>
  <node id="1901950962" lat="37.4103194" lon="-5.9793843">
    <tag k="name" v="Chucherias"/>
    <tag k="shop" v="kiosk"/>
  </node>
  <node id="1901951088" lat="37.4100296" lon="-5.9799127">
    <tag k="name" v="Modas Yoli"/>
    <tag k="shop" v="clothes"/>
  </node>
  <node id="1901952975" lat="37.4104536" lon="-5.9808676">
    <tag k="name" v="Polleria"/>
    <tag k="shop" v="convenience"/>
  </node>
  <node id="1903240706" lat="37.4142495" lon="-5.9536666">
    <tag k="addr:city" v="Sevilla"/>
    <tag k="addr:housenumber" v="11"/>
    <tag k="addr:postcode" v="41007"/>
    <tag k="addr:street" v="Calle Azogue"/>
    <tag k="name" v="NG Talleres"/>
    <tag k="opening_hours" v="9:00 - 19:30"/>
    <tag k="phone" v="+34 954 047 943"/>
    <tag k="shop" v="car_repair"/>
    <tag k="source" v="Owner"/>
    <tag k="website" v="http://www.ngtalleres.es"/>
    <tag k="wheelchair" v="yes"/>
  </node>
  <node id="1904029308" lat="37.4091263" lon="-5.9785555">
    <tag k="name" v="Papeleria Abril"/>
    <tag k="shop" v="books"/>
  </node>
  <node id="1904030115" lat="37.4101830" lon="-5.9783999">
    <tag k="name" v="Locutorio Mayo"/>
    <tag k="shop" v="convenience"/>
  </node>
  <node id="1904031545" lat="37.4095226" lon="-5.9789203">
    <tag k="name" v="Kiosko de la Once"/>
    <tag k="shop" v="kiosk"/>
  </node>
  <node id="1905305396" lat="37.3745766" lon="-5.9965453">
    <tag k="name" v="Dynos"/>
    <tag k="operator" v="Dynos"/>
    <tag k="shop" v="computer"/>
    <tag k="wheelchair" v="limited"/>
  </node>
  <node id="1905305415" lat="37.3745846" lon="-5.9962501">
    <tag k="name" v="movilquick"/>
    <tag k="operator" v="movilquick"/>
    <tag k="shop" v="electronics"/>
    <tag k="website" v="http://www.movilquick.net"/>
  </node>
  <node id="1905305428" lat="37.3745824" lon="-5.9964003">
    <tag k="name" v="GameShop"/>
    <tag k="operator" v="GameShopÇ"/>
    <tag k="shop" v="electronics"/>
  </node>
  <node id="1905508079" lat="37.3936379" lon="-5.9852664">
    <tag k="addr:country" v="ES"/>
    <tag k="name" v="Peluqueria"/>
    <tag k="shop" v="hairdresser"/>
  </node>
  <node id="1905508083" lat="37.3938616" lon="-5.9825896">
    <tag k="addr:country" v="ES"/>
    <tag k="shop" v="hairdresser"/>
  </node>
  <node id="1905508102" lat="37.3935527" lon="-5.9856741">
    <tag k="addr:country" v="ES"/>
    <tag k="name" v="Peluquería Castellanos"/>
    <tag k="shop" v="hairdresser"/>
  </node>
  <node id="1905508124" lat="37.3938271" lon="-5.9825135">
    <tag k="name" v="aromas"/>
    <tag k="shop" v="beauty"/>
  </node>
  <node id="1905508170" lat="37.3937849" lon="-5.9843491">
    <tag k="addr:country" v="ES"/>
    <tag k="shop" v="hairdresser"/>
  </node>
  <node id="1905510913" lat="37.3928047" lon="-5.9864868">
    <tag k="shop" v="kiosk"/>
  </node>
  <node id="1905510914" lat="37.3929112" lon="-5.9876160">
    <tag k="name" v="Sense"/>
    <tag k="shop" v="clothes"/>
  </node>
  <node id="1905510915" lat="37.3928196" lon="-5.9876885">
    <tag k="shop" v="greengrocer"/>
  </node>
  <node id="1905510916" lat="37.3931073" lon="-5.9867658">
    <tag k="shop" v="kiosk"/>
  </node>
  <node id="1905511436" lat="37.3925623" lon="-5.9951435">
    <tag k="name" v="Calzedonia"/>
    <tag k="shop" v="clothes"/>
  </node>
  <node id="1905511437" lat="37.3926434" lon="-5.9956015">
    <tag k="name" v="Zara"/>
    <tag k="shop" v="clothes"/>
  </node>
  <node id="1905845793" lat="37.3933139" lon="-5.9863125">
    <tag k="shop" v="furniture"/>
  </node>
  <node id="1907926438" lat="37.3990051" lon="-5.9881019">
    <tag k="shop" v="kiosk"/>
  </node>
  <node id="1922923688" lat="37.3874080" lon="-5.9658196">
    <tag k="addr:country" v="ES"/>
    <tag k="addr:housenumber" v="158"/>
    <tag k="addr:postcode" v="41010"/>
    <tag k="addr:street" v="Luis montoto"/>
    <tag k="name" v="Peluquería María Carretero"/>
    <tag k="phone" v="954584044"/>
    <tag k="shop" v="hairdresser"/>
  </node>
  <node id="1923440517" lat="37.3695056" lon="-5.9819449">
    <tag k="addr:city" v="Sevilla"/>
    <tag k="addr:housenumber" v="9"/>
    <tag k="addr:postcode" v="41013"/>
    <tag k="addr:street" v="Calle Bogotá"/>
    <tag k="name" v="Óptica Felipe II"/>
    <tag k="phone" v="954235758"/>
    <tag k="shop" v="optician"/>
  </node>
  <node id="1935807037" lat="37.4088029" lon="-5.9437901">
    <tag k="brand" v="Volkswagen"/>
    <tag k="name" v="Avisa"/>
    <tag k="shop" v="car"/>
    <tag k="source" v="survey"/>
  </node>
  <node id="1941502888" lat="37.4044973" lon="-5.9461224">
    <tag k="shop" v="kiosk"/>
    <tag k="source" v="survey"/>
  </node>
  <node id="1942035292" lat="37.3992625" lon="-5.9533765">
    <tag k="shop" v="kiosk"/>
  </node>
  <node id="1942035293" lat="37.4044694" lon="-5.9488992">
    <tag k="shop" v="kiosk"/>
  </node>
  <node id="1957097368" lat="37.3904395" lon="-5.9675979">
    <tag k="shop" v="kiosk"/>
    <tag k="source" v="PNOA"/>
  </node>
  <node id="1968388820" lat="37.3735177" lon="-5.9739145">
    <tag k="shop" v="jewelry"/>
  </node>
  <node id="1968389370" lat="37.3730104" lon="-5.9704276">
    <tag k="shop" v="kiosk"/>
  </node>
  <node id="1972550810" lat="37.4018743" lon="-5.9563417">
    <tag k="shop" v="kiosk"/>
    <tag k="source" v="survey"/>
  </node>
  <node id="1976417151" lat="37.3860269" lon="-5.9941059">
    <tag k="shop" v="kiosk"/>
    <tag k="source" v="photograph"/>
  </node>
  <node id="1994104758" lat="37.4043295" lon="-5.9759457">
    <tag k="addr:city" v="Sevilla"/>
    <tag k="addr:housenumber" v="84"/>
    <tag k="addr:postcode" v="41008"/>
    <tag k="addr:street" v="Avenida de Miraflores"/>
    <tag k="designation" v="Neumaticos"/>
    <tag k="name" v="NeumaticosSevilla"/>
    <tag k="opening_hours" v="8:30 a 20"/>
    <tag k="phone" v="+34 954904210"/>
    <tag k="shop" v="car_repair"/>
    <tag k="website" v="www.neumaticossevilla.com"/>
  </node>
  <node id="1994117848" lat="37.4040246" lon="-5.9758026">
    <tag k="addr:city" v="Sevilla"/>
    <tag k="addr:housenumber" v="1 lc2"/>
    <tag k="addr:postcode" v="41008"/>
    <tag k="addr:street" v="Santa Maria de la Hiedra"/>
    <tag k="designation" v="Servicio oficial Teka Sevilla"/>
    <tag k="name" v="Teka Sevilla"/>
    <tag k="opening_hours" v="8:30-14:00;16:30-19:00"/>
    <tag k="phone" v="+34 954353300"/>
    <tag k="shop" v="doityourself"/>
    <tag k="source" v="Reparacion Electrodomesticos"/>
    <tag k="website" v="www.tekasevilla.es"/>
  </node>
  <node id="2024492584" lat="37.3876859" lon="-5.9673225">
    <tag k="name" v="Supermercado"/>
    <tag k="shop" v="supermarket"/>
  </node>
  <node id="2029878255" lat="37.3929559" lon="-5.9991506">
    <tag k="name" v="viajes Foster"/>
    <tag k="shop" v="travel_agency"/>
    <tag k="wheelchair" v="limited"/>
  </node>
  <node id="2029880366" lat="37.3929473" lon="-5.9989332">
    <tag k="shop" v="vacant"/>
  </node>
  <node id="2039930074" lat="37.3896043" lon="-5.9703975">
    <tag k="craft" v="plumber"/>
    <tag k="name" v="Fontanería Cobreplas"/>
    <tag k="shop" v="hardware"/>
    <tag k="source" v="survey"/>
    <tag k="survey:date" v="29-11-2012"/>
  </node>
  <node id="2039930085" lat="37.3919492" lon="-5.9695932">
    <tag k="addr:city" v="Sevilla"/>
    <tag k="addr:country" v="ES"/>
    <tag k="addr:housenumber" v="10"/>
    <tag k="addr:street" v="Avenida El Greco"/>
    <tag k="is_in:country" v="Spain"/>
    <tag k="name" v="Polvillo"/>
    <tag k="shop" v="bakery"/>
    <tag k="source" v="survey"/>
    <tag k="survey:date" v="29-11-2012"/>
  </node>
  <node id="2079283236" lat="37.3909400" lon="-5.9944771">
    <tag k="addr:housenumber" v="53"/>
    <tag k="addr:street" v="Calle Sierpes"/>
    <tag k="name" v="General Óptica"/>
    <tag k="shop" v="optician"/>
    <tag k="source" v="survey"/>
    <tag k="survey:date" v="2013-06-12"/>
    <tag k="website" v="http://www.generaloptica.es"/>
  </node>
  <node id="2154128144" lat="37.3732443" lon="-5.9952049">
    <tag k="name" v="Supermercados MAS"/>
    <tag k="shop" v="supermarket"/>
    <tag k="wheelchair" v="yes"/>
  </node>
  <node id="2154300875" lat="37.4144417" lon="-5.9532542">
    <tag k="addr:housenumber" v="24"/>
    <tag k="addr:street" v="Antracita"/>
    <tag k="description" v="tu especialista en nuevas tecnologias"/>
    <tag k="image" v="http://i.imgur.com/5nWFuZ4l.jpg"/>
    <tag k="name" v="FonoMovil"/>
    <tag k="phone" v="954424909"/>
    <tag k="shop" v="music"/>
    <tag k="website" v="www.fonomovil.net"/>
  </node>
  <node id="2166010819" lat="37.3904968" lon="-5.9911217">
    <tag k="name" v="Carnicas Almansa"/>
    <tag k="shop" v="butcher"/>
  </node>
  <node id="2189921567" lat="37.3996951" lon="-5.9775078">
    <tag k="addr:city" v="Sevilla"/>
    <tag k="addr:housenumber" v="4"/>
    <tag k="addr:postcode" v="41008"/>
    <tag k="addr:street" v="Francisco de Ariño"/>
    <tag k="designation" v="Neumaticos"/>
    <tag k="name" v="NeumaticosSevilla II"/>
    <tag k="opening_hours" v="09:00-14:00; 16:00-20:00"/>
    <tag k="shop" v="car_repair"/>
    <tag k="website" v="www.neumaticossevilla.com"/>
  </node>
  <node id="2211620210" lat="37.3584990" lon="-5.9859139">
    <tag k="name" v="Supersol"/>
    <tag k="shop" v="supermarket"/>
  </node>
  <node id="2211632143" lat="37.3609109" lon="-5.9863387">
    <tag k="shop" v="kiosk"/>
  </node>
  <node id="2211649435" lat="37.3618731" lon="-5.9856442">
    <tag k="addr:city" v="Sevilla"/>
    <tag k="addr:housenumber" v="4 E"/>
    <tag k="addr:postcode" v="41012"/>
    <tag k="addr:street" v="Calle Monzón"/>
    <tag k="name" v="App Informática"/>
    <tag k="shop" v="computer"/>
  </node>
  <node id="2211649464" lat="37.3634393" lon="-5.9849949">
    <tag k="shop" v="kiosk"/>
  </node>
  <node id="2241094988" lat="37.3720492" lon="-5.9620406">
    <tag k="name" v="Mercadona"/>
    <tag k="shop" v="supermarket"/>
  </node>
  <node id="2257374437" lat="37.3730775" lon="-5.9636880">
    <tag k="name" v="ChasLepe"/>
    <tag k="shop" v="supermarket"/>
  </node>
  <node id="2260878911" lat="37.3617410" lon="-5.9642296">
    <tag k="addr:country" v="ES"/>
    <tag k="is_in:country" v="Spain"/>
    <tag k="name" v="Horno Las Letanías"/>
    <tag k="shop" v="bakery"/>
  </node>
  <node id="2260884506" lat="37.3612225" lon="-5.9619654">
    <tag k="shop" v="fishmonger"/>
  </node>
  <node id="2260884511" lat="37.3619537" lon="-5.9644760">
    <tag k="shop" v="convenience"/>
  </node>
  <node id="2260884513" lat="37.3613355" lon="-5.9618179">
    <tag k="shop" v="greengrocer"/>
  </node>
  <node id="2263190164" lat="37.3829988" lon="-5.9734304">
    <tag k="shop" v="kiosk"/>
    <tag k="wheelchair" v="yes"/>
  </node>
  <node id="2269907544" lat="37.3935681" lon="-5.9880809">
    <tag k="name" v="Libería Anticuaria Los Terceros"/>
    <tag k="shop" v="books"/>
    <tag k="source" v="survey"/>
    <tag k="website" v="http://www.librerialosterceros.com/"/>
  </node>
  <node id="2278689238" lat="37.3908615" lon="-5.9968481">
    <tag k="shop" v="kiosk"/>
    <tag k="source" v="survey"/>
  </node>
  <node id="2279290588" lat="37.3872678" lon="-5.9710246">
    <tag k="shop" v="kiosk"/>
  </node>
  <node id="2286112625" lat="37.3856964" lon="-5.9901075">
    <tag k="addr:housenumber" v="4"/>
    <tag k="addr:street" v="Pasaje de Andreu"/>
    <tag k="name" v="Antigüedades M. Ortega"/>
    <tag k="shop" v="antiques"/>
    <tag k="source" v="survey"/>
  </node>
  <node id="2286112626" lat="37.3855987" lon="-5.9900716">
    <tag k="addr:housenumber" v="2"/>
    <tag k="addr:street" v="Calle Jamerdana"/>
    <tag k="name" v="Artesania Jacaranda"/>
    <tag k="shop" v="gift"/>
  </node>
  <node id="2286112631" lat="37.3846812" lon="-5.9904789">
    <tag k="shop" v="gift"/>
  </node>
  <node id="2286152877" lat="37.3910868" lon="-5.9957470">
    <tag k="name" v="Fosco"/>
    <tag k="shop" v="shoes"/>
  </node>
  <node id="2286152884" lat="37.3908628" lon="-5.9947138">
    <tag k="name" v="Oysho"/>
    <tag k="shop" v="clothes"/>
    <tag k="source" v="photograph"/>
  </node>
  <node id="2286152890" lat="37.3910943" lon="-5.9956816">
    <tag k="name" v="Roberto Verno"/>
    <tag k="shop" v="boutique"/>
  </node>
  <node id="2286152894" lat="37.3909024" lon="-5.9954766">
    <tag k="name" v="Stradivarius"/>
    <tag k="shop" v="clothes"/>
    <tag k="source" v="photograph"/>
  </node>
  <node id="2286152999" lat="37.3909358" lon="-5.9945706">
    <tag k="shop" v="kiosk"/>
    <tag k="wheelchair" v="yes"/>
  </node>
  <node id="2286190217" lat="37.3911706" lon="-5.9933967">
    <tag k="name" v="Lupe"/>
    <tag k="shop" v="clothes"/>
  </node>
  <node id="2290635780" lat="37.3754294" lon="-5.9684555">
    <tag k="name" v="Quiquecicle"/>
    <tag k="shop" v="bicycle"/>
    <tag k="website" v="www.quiquecicle.com"/>
  </node>
  <node id="2290635782" lat="37.3748918" lon="-5.9730003">
    <tag k="shop" v="jewelry"/>
  </node>
  <node id="2290635786" lat="37.3755547" lon="-5.9717826">
    <tag k="shop" v="kiosk"/>
  </node>
  <node id="2290757430" lat="37.3820860" lon="-5.9912916">
    <tag k="name" v="Servi-copy"/>
    <tag k="shop" v="copyshop"/>
  </node>
  <node id="2290757432" lat="37.3819149" lon="-5.9907875">
    <tag k="addr:country" v="ES"/>
    <tag k="name" v="Tabacos Estanco La Cigarrera"/>
    <tag k="shop" v="tobacco"/>
  </node>
  <node id="2293370419" lat="37.3851528" lon="-5.9909050">
    <tag k="name" v="Artesania Sta. Cruz S.L."/>
    <tag k="shop" v="gift"/>
  </node>
  <node id="2293370433" lat="37.3850160" lon="-5.9904479">
    <tag k="name" v="Jimbec"/>
    <tag k="shop" v="gift"/>
  </node>
  <node id="2293459771" lat="37.3797221" lon="-5.9838584">
    <tag k="name" v="Opencor"/>
    <tag k="shop" v="convenience"/>
    <tag k="source" v="survey"/>
    <tag k="wheelchair" v="yes"/>
  </node>
  <node id="2302720432" lat="37.3982513" lon="-5.9604267">
    <tag k="shop" v="kiosk"/>
    <tag k="source" v="survey"/>
    <tag k="survey:date" v="2013-05-13"/>
  </node>
  <node id="2316134226" lat="37.3800750" lon="-5.9851006">
    <tag k="shop" v="kiosk"/>
    <tag k="source" v="survey"/>
  </node>
  <node id="2333700710" lat="37.4006722" lon="-5.9870044">
    <tag k="addr:city" v="Sevilla"/>
    <tag k="addr:housenumber" v="24"/>
    <tag k="addr:postcode" v="41003"/>
    <tag k="addr:street" v="Calle Fray Diego de Cádiz"/>
    <tag k="email" v="info@santacleta.com"/>
    <tag k="name" v="Santa Cleta"/>
    <tag k="service:bicycle:diy" v="yes"/>
    <tag k="service:bicycle:rental" v="yes"/>
    <tag k="service:bicycle:repair" v="yes"/>
    <tag k="service:bicycle:retail" v="yes"/>
    <tag k="service:bicycle:second_hand" v="yes"/>
    <tag k="shop" v="bicycle"/>
    <tag k="website" v="www.santacleta.com"/>
  </node>
  <node id="2335910782" lat="37.3848033" lon="-5.9688691">
    <tag k="addr:city" v="Sevilla"/>
    <tag k="addr:housenumber" v="25"/>
    <tag k="addr:street" v="Calle Goya"/>
    <tag k="name" v="Electrónica Goya"/>
    <tag k="shop" v="electronics"/>
    <tag k="source" v="survey"/>
  </node>
  <node id="2344410925" lat="37.3838711" lon="-5.9937952">
    <tag k="shop" v="kiosk"/>
    <tag k="source" v="survey"/>
  </node>
  <node id="2344636750" lat="37.3821764" lon="-5.9704446">
    <tag k="addr:housenumber" v="38"/>
    <tag k="addr:street" v="Avenida de Eduardo Dato"/>
    <tag k="name" v="General Óptica"/>
    <tag k="shop" v="optician"/>
  </node>
  <node id="2361009545" lat="37.3984032" lon="-5.9991195">
    <tag k="addr:city" v="Sevilla"/>
    <tag k="addr:housename" v="La Ortiga"/>
    <tag k="addr:housenumber" v="4"/>
    <tag k="addr:postcode" v="41002"/>
    <tag k="addr:street" v="c/ Cristo del Buen Fin"/>
    <tag k="name" v="La Ortiga, cooperativa de productores y consumidores de productos ecológicos"/>
    <tag k="operator" v="EcoOrtiga"/>
    <tag k="phone" v="954 906 306"/>
    <tag k="shop" v="supermarket"/>
    <tag k="website" v="http://www.laortiga.com"/>
  </node>
  <node id="2401297388" lat="37.4067724" lon="-5.9550224">
    <tag k="name" v="The First Outlet"/>
    <tag k="shop" v="department_store"/>
  </node>
  <node id="2401298175" lat="37.4070749" lon="-5.9542902">
    <tag k="name" v="Castro Jarana SL"/>
    <tag k="shop" v="car"/>
  </node>
  <node id="2417049389" lat="37.3980849" lon="-5.9916472">
    <tag k="addr:country" v="ES"/>
    <tag k="is_in:country" v="Spain"/>
    <tag k="name" v="Horno Curro"/>
    <tag k="shop" v="bakery"/>
  </node>
  <node id="2419749421" lat="37.4107940" lon="-5.9843843">
    <tag k="name" v="Bicicletas Astolfi"/>
    <tag k="service:bicycle:rental" v="no"/>
    <tag k="service:bicycle:repair" v="yes"/>
    <tag k="service:bicycle:retail" v="yes"/>
    <tag k="shop" v="bicycle"/>
  </node>
  <node id="2419749433" lat="37.4108561" lon="-5.9843661">
    <tag k="brand" v="Bridgestone"/>
    <tag k="name" v="El Rubio"/>
    <tag k="phone" v="954386764"/>
    <tag k="shop" v="tyres"/>
  </node>
  <node id="2429047454" lat="37.3975220" lon="-5.9840231">
    <tag k="addr:housenumber" v="1"/>
    <tag k="addr:postcode" v="41003"/>
    <tag k="addr:street" v="Plaza del Pelícano"/>
    <tag k="name" v="Casa Cornelio"/>
    <tag k="shop" v="convenience"/>
    <tag k="website" v="http://www.satsevilla.org"/>
  </node>
  <node id="2444466478" lat="37.3941964" lon="-5.9606215">
    <tag k="shop" v="kiosk"/>
    <tag k="source" v="ide.Sevilla"/>
    <tag k="source:date" v="2011"/>
    <tag k="wheelchair" v="yes"/>
  </node>
  <node id="2447103099" lat="37.3834060" lon="-5.9732920">
    <tag k="addr:city" v="Sevilla"/>
    <tag k="addr:housenumber" v="32"/>
    <tag k="addr:postcode" v="41018"/>
    <tag k="addr:street" v="Avenida Luis de Morales"/>
    <tag k="name" v="Cex"/>
    <tag k="opening_hours" v="Mo-Sa 08:30-20:00; Su 17:00-22:00"/>
    <tag k="shop" v="second_hand"/>
    <tag k="website" v="http://es.webuy.com/"/>
  </node>
  <node id="2465547442" lat="37.3992567" lon="-5.9852304">
    <tag k="addr:country" v="ES"/>
    <tag k="is_in:country" v="Spain"/>
    <tag k="name" v="Polvillo"/>
    <tag k="shop" v="bakery"/>
  </node>
  <node id="2474401092" lat="37.3895807" lon="-5.9827386">
    <tag k="addr:city" v="Sevilla"/>
    <tag k="addr:housenumber" v="5"/>
    <tag k="addr:street" v="Calle Amador de Los Rios"/>
    <tag k="name" v="PCBox"/>
    <tag k="opening_hours" v="Lu-Vie 10:00-14:00, 17:00-20:30; Sáb 10:00-14:00"/>
    <tag k="shop" v="computer"/>
    <tag k="website" v="www.pcbox.com"/>
  </node>
  <node id="2480652590" lat="37.3992999" lon="-5.9917470">
    <tag k="addr:country" v="ES"/>
    <tag k="is_in:country" v="Spain"/>
    <tag k="shop" v="bakery"/>
  </node>
  <node id="2480652619" lat="37.3999285" lon="-5.9906902">
    <tag k="shop" v="convenience"/>
  </node>
  <node id="2497170040" lat="37.3990576" lon="-5.9845579">
    <tag k="shop" v="kiosk"/>
    <tag k="source" v="ide.Sevilla"/>
    <tag k="source:date" v="2011"/>
  </node>
  <node id="2506037890" lat="37.3765980" lon="-5.9991605">
    <tag k="name" v="Torbel"/>
    <tag k="shop" v="clothes"/>
    <tag k="source" v="flashmapmob"/>
  </node>
  <node id="2506037896" lat="37.3766828" lon="-5.9989971">
    <tag k="name" v="Sport Juegos Bar"/>
    <tag k="shop" v="lottery"/>
    <tag k="source" v="flashmapmob"/>
  </node>
  <node id="2516250550" lat="37.3911957" lon="-5.9594517">
    <tag k="shop" v="kiosk"/>
    <tag k="source" v="survey"/>
    <tag k="wheelchair" v="yes"/>
  </node>
  <node id="2516250551" lat="37.3937147" lon="-5.9619850">
    <tag k="shop" v="kiosk"/>
    <tag k="source" v="survey"/>
    <tag k="wheelchair" v="yes"/>
  </node>
  <node id="2524196869" lat="37.3608841" lon="-5.9873112">
    <tag k="shop" v="kiosk"/>
  </node>
  <node id="2526791426" lat="37.4000627" lon="-5.9916557">
    <tag k="shop" v="books"/>
  </node>
  <node id="2526791434" lat="37.3991670" lon="-5.9920492">
    <tag k="shop" v="bicycle"/>
  </node>
  <node id="2528424733" lat="37.3813487" lon="-5.9664171">
    <tag k="shop" v="kiosk"/>
  </node>
  <node id="2558599059" lat="37.3881120" lon="-5.9829290">
    <tag k="name" v="Supermercado Spar"/>
    <tag k="shop" v="supermarket"/>
  </node>
  <node id="2561018917" lat="37.3906287" lon="-5.9978859">
    <tag k="addr:country" v="ES"/>
    <tag k="is_in:country" v="Spain"/>
    <tag k="name" v="Pastelería"/>
    <tag k="shop" v="bakery"/>
  </node>
  <node id="2561018919" lat="37.3897145" lon="-5.9991600">
    <tag k="name" v="Supermercados MAS"/>
    <tag k="shop" v="supermarket"/>
  </node>
  <node id="2580437926" lat="37.3956109" lon="-5.9914167">
    <tag k="name" v="Carrefour Express"/>
    <tag k="shop" v="supermarket"/>
  </node>
  <node id="2580438119" lat="37.3944264" lon="-5.9916009">
    <tag k="name" v="La seta coqueta"/>
    <tag k="shop" v="clothes"/>
  </node>
  <node id="2582629375" lat="37.3939980" lon="-5.9930540">
    <tag k="addr:city" v="Sevilla"/>
    <tag k="addr:housenumber" v="16"/>
    <tag k="addr:postcode" v="41003"/>
    <tag k="addr:street" v="Pasaje de los Azahares"/>
    <tag k="name" v="Librería Anatma"/>
    <tag k="shop" v="books"/>
    <tag k="website" v="http://www.anatmalibros.com"/>
  </node>
  <node id="2582630991" lat="37.3887074" lon="-5.9951100">
    <tag k="shop" v="kiosk"/>
    <tag k="source" v="survey"/>
  </node>
  <node id="2583371985" lat="37.3814945" lon="-5.9634600">
    <tag k="name" v="Bodybell"/>
    <tag k="shop" v="carpet"/>
  </node>
  <node id="2587675533" lat="37.3899432" lon="-5.9897445">
    <tag k="shop" v="convenience"/>
  </node>
  <node id="2587676331" lat="37.3898623" lon="-5.9892778">
    <tag k="name" v="Bazar Oriental"/>
    <tag k="shop" v="department_store"/>
    <tag k="source" v="Survey"/>
  </node>
  <node id="2589299564" lat="37.3891894" lon="-5.9941243">
    <tag k="shop" v="kiosk"/>
    <tag k="source" v="survey"/>
  </node>
  <node id="2612899664" lat="37.3950815" lon="-5.9908308">
    <tag k="alt_name" v="La tienda de los botellines"/>
    <tag k="name" v="Ultramarino (Joaquín)"/>
    <tag k="shop" v="convenience"/>
    <tag k="wheelchair" v="no"/>
  </node>
  <node id="2616456828" lat="37.3919027" lon="-5.9974628">
    <tag k="name" v="Carrefour Express"/>
    <tag k="shop" v="supermarket"/>
  </node>
  <node id="2618590254" lat="37.3930288" lon="-5.9955627">
    <tag k="shop" v="kiosk"/>
    <tag k="source" v="survey"/>
  </node>
  <node id="2625930400" lat="37.4009160" lon="-5.9914084">
    <tag k="addr:housenumber" v="14"/>
    <tag k="addr:street" v="Calle Antonio Susillo"/>
    <tag k="craft" v="plumber"/>
    <tag k="name" v="Suministros Alameda"/>
    <tag k="shop" v="hardware"/>
    <tag k="source" v="survey"/>
  </node>
  <node id="2631672547" lat="37.3930253" lon="-5.9499392">
    <tag k="name" v="Diesel Gallardo"/>
    <tag k="shop" v="car_repair"/>
  </node>
  <node id="2641681293" lat="37.3723750" lon="-5.9597894">
    <tag k="name" v="Electrocien"/>
    <tag k="shop" v="electronics"/>
  </node>
  <node id="2651559615" lat="37.3816054" lon="-5.9649648">
    <tag k="name" v="Dia"/>
    <tag k="shop" v="supermarket"/>
  </node>
  <node id="2683720296" lat="37.3916530" lon="-5.9920600">
    <tag k="description" v="Ropa de hombre"/>
    <tag k="name" v="Puroego"/>
    <tag k="shop" v="clothes"/>
  </node>
  <node id="2683730540" lat="37.3917560" lon="-5.9921100">
    <tag k="name" v="Pasarela"/>
    <tag k="shop" v="shoes"/>
  </node>
  <node id="2683739951" lat="37.3918000" lon="-5.9919600">
    <tag k="shop" v="clothes"/>
  </node>
  <node id="2683744487" lat="37.3921960" lon="-5.9919810">
    <tag k="description" v="Ropa clásica de hombre y mujer. trajes tradicionales y telas."/>
    <tag k="name" v="Oro Blanco"/>
    <tag k="shop" v="clothes"/>
  </node>
  <node id="2684978378" lat="37.3920200" lon="-5.9919970">
    <tag k="description" v="Merceria"/>
    <tag k="name" v="Mercería Peña"/>
    <tag k="shop" v="hometextile"/>
  </node>
  <node id="2684989748" lat="37.3918880" lon="-5.9920240">
    <tag k="description" v="zapatos de mujer"/>
    <tag k="name" v="Marypaz"/>
    <tag k="shop" v="shoes"/>
  </node>
  <node id="2685000099" lat="37.3915200" lon="-5.9921370">
    <tag k="name" v="Entre algodones"/>
    <tag k="shop" v="furniture"/>
  </node>
  <node id="2685000941" lat="37.3912920" lon="-5.9921580">
    <tag k="description" v="Chino"/>
    <tag k="name" v="The lefti s"/>
    <tag k="shop" v="department_store"/>
  </node>
  <node id="2685016119" lat="37.3912880" lon="-5.9921210">
    <tag k="name" v="Don Regalón"/>
    <tag k="shop" v="souvenir"/>
  </node>
  <node id="2723918396" lat="37.4037049" lon="-5.9767568">
    <tag k="addr:city" v="Sevilla"/>
    <tag k="addr:housenumber" v="87"/>
    <tag k="addr:postcode" v="41008"/>
    <tag k="addr:street" v="Avenida de Miraflores"/>
    <tag k="name" v="Electromenaje 2005"/>
    <tag k="opening_hours" v="10 a 13 y 17 a 20"/>
    <tag k="phone" v="+34 954359200"/>
    <tag k="shop" v="electronics"/>
    <tag k="website" v="http://www.repuestolandia.es"/>
  </node>
  <node id="2728250298" lat="37.3730808" lon="-5.9773155">
    <tag k="addr:city" v="Sevilla"/>
    <tag k="addr:country" v="ES"/>
    <tag k="addr:housenumber" v="10"/>
    <tag k="addr:postcode" v="41013"/>
    <tag k="addr:street" v="calle presidente Cardenas"/>
    <tag k="is_in:country" v="Spain"/>
    <tag k="name" v="Suitcake"/>
    <tag k="phone" v="657 89 39 38"/>
    <tag k="shop" v="bakery"/>
    <tag k="wheelchair" v="yes"/>
    <tag k="wheelchair:description" v="Pastelería de autor"/>
  </node>
  <node id="2794326484" lat="37.3819687" lon="-5.9935024">
    <tag k="shop" v="kiosk"/>
  </node>
  <node id="2813091584" lat="37.3773089" lon="-5.9697082">
    <tag k="addr:city" v="Sevilla"/>
    <tag k="addr:housenumber" v="116"/>
    <tag k="addr:postcode" v="41015"/>
    <tag k="addr:street" v="Calle Marqués de Nervion"/>
    <tag k="name" v="Sevilla Cycling"/>
    <tag k="opening_hours" v="9:30–14:30, 17:00–21:00"/>
    <tag k="shop" v="bicycle"/>
    <tag k="website" v="http://sevillacycling.es/"/>
  </node>
  <node id="2823649289" lat="37.4023496" lon="-5.9195159">
    <tag k="addr:city" v="Sevilla"/>
    <tag k="addr:postcode" v="41020"/>
    <tag k="amenity" v="cafe"/>
    <tag k="name" v="Los Naranjos"/>
    <tag k="shop" v="coffee"/>
  </node>
  <node id="2913072701" lat="37.3817324" lon="-5.9946250">
    <tag k="shop" v="kiosk"/>
    <tag k="source" v="bing"/>
    <tag k="source:date" v="2013"/>
  </node>
  <node id="2913072715" lat="37.3822625" lon="-5.9940238">
    <tag k="shop" v="kiosk"/>
    <tag k="source" v="bing"/>
    <tag k="source:date" v="2013"/>
  </node>
  <node id="2914840554" lat="37.3849204" lon="-5.9867188">
    <tag k="shop" v="kiosk"/>
    <tag k="source" v="bing"/>
    <tag k="source:date" v="2013"/>
  </node>
  <node id="2917229437" lat="37.3818046" lon="-5.9952226">
    <tag k="name" v="Surf Planet Outlet"/>
    <tag k="shop" v="sports"/>
  </node>
  <node id="2918724278" lat="37.3753088" lon="-5.9974578">
    <tag k="name" v="Orobriz"/>
    <tag k="shop" v="jewelry"/>
    <tag k="source" v="flashmapmob"/>
    <tag k="wheelchair" v="no"/>
  </node>
  <node id="2918724280" lat="37.3754019" lon="-5.9974657">
    <tag k="name" v="Monica"/>
    <tag k="shop" v="clothes"/>
    <tag k="source" v="flashmapmob"/>
    <tag k="wheelchair" v="yes"/>
  </node>
  <node id="2918724282" lat="37.3756654" lon="-5.9974732">
    <tag k="name" v="Movistar"/>
    <tag k="opening_hours" v="10:00-14:00 &amp; 17:00-20:30"/>
    <tag k="shop" v="mobile_phone"/>
    <tag k="source" v="flashmapmob"/>
    <tag k="wheelchair" v="yes"/>
  </node>
  <node id="2918724286" lat="37.3757683" lon="-5.9974864">
    <tag k="name" v="Vodaphone"/>
    <tag k="shop" v="mobile_phone"/>
    <tag k="source" v="flashmapmob"/>
    <tag k="wheelchair" v="yes"/>
  </node>
  <node id="2926017439" lat="37.3750107" lon="-5.9974460">
    <tag k="name" v="Librerias Palas"/>
    <tag k="shop" v="books"/>
    <tag k="source" v="flashmapmob"/>
    <tag k="wheelchair" v="yes"/>
  </node>
  <node id="2926017471" lat="37.3752202" lon="-5.9974543">
    <tag k="name" v="Sevilla en flor"/>
    <tag k="shop" v="florist"/>
    <tag k="source" v="flashmapmob"/>
    <tag k="wheelchair" v="yes"/>
  </node>
  <node id="2926019010" lat="37.3762013" lon="-5.9975045">
    <tag k="name" v="Eurekakids"/>
    <tag k="shop" v="toys"/>
    <tag k="source" v="flashmapmob"/>
    <tag k="wheelchair" v="yes"/>
  </node>
  <node id="2926019022" lat="37.3764679" lon="-5.9976892">
    <tag k="name" v="imaginarium"/>
    <tag k="opening_hours" v="10:00-14:00 17:00-20:30"/>
    <tag k="shop" v="toys"/>
    <tag k="source" v="flashmapmob"/>
  </node>
  <node id="2926019025" lat="37.3765811" lon="-5.9975204">
    <tag k="name" v="Orange"/>
    <tag k="shop" v="mobile_phone"/>
    <tag k="source" v="flashmapmob"/>
    <tag k="wheelchair" v="yes"/>
  </node>
  <node id="2957415598" lat="37.4010558" lon="-5.9257114">
    <tag k="addr:city" v="Sevilla"/>
    <tag k="name" v="Bonsabor"/>
    <tag k="shop" v="supermarket"/>
  </node>
  <node id="2957444131" lat="37.4023602" lon="-5.9258860">
    <tag k="name" v="Las Ciencias"/>
    <tag k="shop" v="hardware"/>
  </node>
  <node id="2957444132" lat="37.4034295" lon="-5.9213518">
    <tag k="shop" v="hardware"/>
  </node>
  <node id="2957446033" lat="37.3930665" lon="-5.9201365">
    <tag k="shop" v="hardware"/>
  </node>
  <node id="2957446034" lat="37.3928328" lon="-5.9207849">
    <tag k="shop" v="hardware"/>
  </node>
  <node id="3012261137" lat="37.3769692" lon="-5.9733097">
    <tag k="name" v="Appinformatica"/>
    <tag k="shop" v="computer"/>
  </node>
  <node id="3049388100" lat="37.4034517" lon="-5.9575704">
    <tag k="name" v="Kanina Bikes"/>
    <tag k="service:bicycle:repair" v="yes"/>
    <tag k="service:bicycle:retail" v="yes"/>
    <tag k="shop" v="bicycle"/>
    <tag k="source" v="survey"/>
    <tag k="website" v="www.kaninabikes.com"/>
  </node>
  <node id="3059440640" lat="37.3582266" lon="-5.9860823">
    <tag k="addr:city" v="Sevilla"/>
    <tag k="addr:housenumber" v="49"/>
    <tag k="addr:postcode" v="41012"/>
    <tag k="addr:street" v="Avenida de la Reina Mercedes"/>
    <tag k="name" v="Spejo's Peluqueros"/>
    <tag k="phone" v="954 232 484"/>
    <tag k="shop" v="hairdresser"/>
  </node>
  <node id="3060451794" lat="37.3587313" lon="-5.9860592">
    <tag k="addr:housenumber" v="41"/>
    <tag k="addr:postcode" v="41012"/>
    <tag k="addr:street" v="Avenida de la Reina Mercedes"/>
    <tag k="name" v="El Arca de Noé"/>
    <tag k="shop" v="computer"/>
  </node>
  <node id="3060453814" lat="37.3588454" lon="-5.9860418">
    <tag k="addr:city" v="Sevilla"/>
    <tag k="addr:housenumber" v="39"/>
    <tag k="addr:postcode" v="41012"/>
    <tag k="addr:street" v="Avenida de la Reina Mercedes"/>
    <tag k="name" v="Super Bazar"/>
    <tag k="shop" v="variety_store"/>
  </node>
  <node id="3060463014" lat="37.3589713" lon="-5.9860388">
    <tag k="addr:housenumber" v="37"/>
    <tag k="name" v="Solo Plata"/>
    <tag k="shop" v="jewelry"/>
  </node>
  <node id="3060464588" lat="37.3590939" lon="-5.9860262">
    <tag k="addr:city" v="Sevilla"/>
    <tag k="addr:housenumber" v="35"/>
    <tag k="addr:postcode" v="41012"/>
    <tag k="addr:street" v="Avenida de la Reina Mercedes"/>
    <tag k="name" v="JOYMA"/>
    <tag k="shop" v="jewelry"/>
  </node>
  <node id="3060488656" lat="37.3594683" lon="-5.9860455">
    <tag k="addr:city" v="Sevilla"/>
    <tag k="addr:housenumber" v="33"/>
    <tag k="addr:postcode" v="41012"/>
    <tag k="addr:street" v="Avenida de la Reina Mercedes"/>
    <tag k="name" v="Bazar Sol"/>
    <tag k="shop" v="variety_store"/>
  </node>
  <node id="3060488657" lat="37.3596319" lon="-5.9860374">
    <tag k="addr:city" v="Sevilla"/>
    <tag k="addr:housenumber" v="31"/>
    <tag k="addr:postcode" v="41012"/>
    <tag k="addr:street" v="Avenida de la Reina Mercedes"/>
    <tag k="name" v="Tecnocopy"/>
    <tag k="shop" v="copyshop"/>
  </node>
  <node id="3060488659" lat="37.3596927" lon="-5.9860381">
    <tag k="addr:city" v="Sevilla"/>
    <tag k="addr:housenumber" v="31"/>
    <tag k="addr:postcode" v="41012"/>
    <tag k="addr:street" v="Avenida de la Reina Mercedes"/>
    <tag k="name" v="Sol"/>
    <tag k="shop" v="clothes"/>
  </node>
  <node id="3060568637" lat="37.3605600" lon="-5.9859924">
    <tag k="name" v="Carem"/>
    <tag k="shop" v="haberdashery"/>
  </node>
  <node id="3060631918" lat="37.3565535" lon="-5.9858378">
    <tag k="addr:city" v="Sevilla"/>
    <tag k="addr:housenumber" v="38"/>
    <tag k="addr:postcode" v="41012"/>
    <tag k="addr:street" v="Calle Monzón"/>
    <tag k="name" v="Taller Dils"/>
    <tag k="phone" v="954 61 23 97"/>
    <tag k="shop" v="car_repair"/>
  </node>
  <node id="3060632795" lat="37.3563973" lon="-5.9857777">
    <tag k="addr:city" v="Sevilla"/>
    <tag k="addr:housenumber" v="40"/>
    <tag k="addr:postcode" v="41012"/>
    <tag k="addr:street" v="Calle Monzón"/>
    <tag k="name" v="El Jamón"/>
    <tag k="operator" v="El Jamón"/>
    <tag k="shop" v="supermarket"/>
  </node>
  <node id="3060641536" lat="37.3565651" lon="-5.9859942">
    <tag k="addr:city" v="Sevilla"/>
    <tag k="addr:housenumber" v="1"/>
    <tag k="addr:postcode" v="41012"/>
    <tag k="addr:street" v="Calle Levante"/>
    <tag k="name" v="Ferretería Reina Mercedes"/>
    <tag k="phone" v="954 61 04 30"/>
    <tag k="shop" v="hardware"/>
  </node>
  <node id="3060651302" lat="37.3565709" lon="-5.9858905">
    <tag k="addr:city" v="Sevilla"/>
    <tag k="addr:housenumber" v="1"/>
    <tag k="addr:postcode" v="41012"/>
    <tag k="addr:street" v="Calle Levante"/>
    <tag k="name" v="Frutería Carlos y Paco"/>
    <tag k="phone" v="954625089"/>
    <tag k="shop" v="greengrocer"/>
  </node>
  <node id="3060659334" lat="37.3579569" lon="-5.9857942">
    <tag k="addr:city" v="Sevilla"/>
    <tag k="addr:housenumber" v="53"/>
    <tag k="addr:postcode" v="41012"/>
    <tag k="addr:street" v="Avenida de la Reina Mercedes"/>
    <tag k="name" v="Regalos Villoria"/>
    <tag k="phone" v="954 24 17 25"/>
    <tag k="shop" v="gift"/>
  </node>
  <node id="3060671775" lat="37.3580363" lon="-5.9857694">
    <tag k="addr:city" v="Sevilla"/>
    <tag k="addr:housenumber" v="32"/>
    <tag k="addr:postcode" v="41012"/>
    <tag k="addr:street" v="Calle Monzón"/>
    <tag k="name" v="Tintorería Monzón"/>
    <tag k="phone" v="954 62 36 47"/>
    <tag k="shop" v="dry_cleaning"/>
  </node>
  <node id="3067569835" lat="37.3916734" lon="-5.9974796">
    <tag k="name" v="Alvaro Moreno"/>
    <tag k="shop" v="clothes"/>
  </node>
  <node id="3067569836" lat="37.3918618" lon="-5.9955440">
    <tag k="name" v="Anda"/>
    <tag k="shop" v="shoes"/>
  </node>
  <node id="3067569837" lat="37.3917684" lon="-5.9959925">
    <tag k="name" v="Beautik"/>
    <tag k="shop" v="clothes"/>
  </node>
  <node id="3067569838" lat="37.3913336" lon="-5.9954810">
    <tag k="name" v="Calzedonia"/>
    <tag k="shop" v="clothes"/>
  </node>
  <node id="3067569840" lat="37.3916254" lon="-5.9975595">
    <tag k="name" v="Chapó"/>
    <tag k="shop" v="shoes"/>
  </node>
  <node id="3067569841" lat="37.3918159" lon="-5.9959098">
    <tag k="name" v="Dorado"/>
    <tag k="shop" v="shoes"/>
  </node>
  <node id="3067569842" lat="37.3915202" lon="-5.9953134">
    <tag k="name" v="H.E. by Mango"/>
    <tag k="shop" v="clothes"/>
  </node>
  <node id="3067569843" lat="37.3915219" lon="-5.9977279">
    <tag k="name" v="Herbolario Esencias de Sevilla"/>
    <tag k="shop" v="tea"/>
  </node>
  <node id="3067569844" lat="37.3912268" lon="-5.9952956">
    <tag k="name" v="Initimissimi"/>
    <tag k="shop" v="clothes"/>
  </node>
  <node id="3067569845" lat="37.3918191" lon="-5.9957944">
    <tag k="name" v="Inside"/>
    <tag k="shop" v="clothes"/>
  </node>
  <node id="3067569846" lat="37.3915992" lon="-5.9963266">
    <tag k="name" v="Julian López"/>
    <tag k="shop" v="clothes"/>
  </node>
  <node id="3067569848" lat="37.3910287" lon="-5.9983373">
    <tag k="name" v="Lamartín"/>
    <tag k="shop" v="shoes"/>
  </node>
  <node id="3067569849" lat="37.3915562" lon="-5.9976515">
    <tag k="name" v="Mares"/>
    <tag k="shop" v="clothes"/>
  </node>
  <node id="3067569850" lat="37.3917199" lon="-5.9960860">
    <tag k="name" v="Mayoral"/>
    <tag k="shop" v="clothes"/>
  </node>
  <node id="3067569851" lat="37.3916464" lon="-5.9955418">
    <tag k="name" v="Pimkie"/>
    <tag k="shop" v="clothes"/>
  </node>
  <node id="3067569852" lat="37.3919178" lon="-5.9945338">
    <tag k="name" v="Pull&amp;Bear"/>
    <tag k="shop" v="clothes"/>
  </node>
  <node id="3067569853" lat="37.3913296" lon="-5.9980567">
    <tag k="name" v="Sinestréss"/>
    <tag k="shop" v="clothes"/>
  </node>
  <node id="3067569854" lat="37.3912986" lon="-5.9953024">
    <tag k="name" v="Foot Locker"/>
    <tag k="shop" v="shoes"/>
  </node>
  <node id="3067569855" lat="37.3913564" lon="-5.9953018">
    <tag k="name" v="Six"/>
    <tag k="shop" v="jewelry"/>
  </node>
  <node id="3067569856" lat="37.3914902" lon="-5.9975145">
    <tag k="name" v="Tuareg"/>
    <tag k="shop" v="clothes"/>
  </node>
  <node id="3067569857" lat="37.3914132" lon="-5.9953027">
    <tag k="name" v="Zabol"/>
    <tag k="shop" v="shoes"/>
  </node>
  <node id="3067569859" lat="37.3914462" lon="-5.9954845">
    <tag k="name" v="Zara"/>
    <tag k="shop" v="clothes"/>
  </node>
  <node id="3120354627" lat="37.3982848" lon="-5.9797925">
    <tag k="shop" v="greengrocer"/>
  </node>
  <node id="3131186218" lat="37.3987586" lon="-5.9942450">
    <tag k="addr:city" v="Sevilla"/>
    <tag k="addr:housenumber" v="33"/>
    <tag k="addr:postcode" v="41002"/>
    <tag k="addr:street" v="Alameda de Hércules"/>
    <tag k="name" v="La ExtraVagante Libros"/>
    <tag k="opening_hours" v="Mo-Fr 10:00-14:00,17:00-21:00;Sa-Su 11:00-14:00,17:00-21:00;"/>
    <tag k="phone" v="+34 954 900 816"/>
    <tag k="shop" v="books"/>
    <tag k="website" v="http://www.laextravagante.com/"/>
    <tag k="wheelchair" v="yes"/>
  </node>
  <node id="3131207947" lat="37.3970346" lon="-5.9931004">
    <tag k="addr:city" v="Sevilla"/>
    <tag k="addr:housenumber" v="4A"/>
    <tag k="addr:postcode" v="41002"/>
    <tag k="addr:street" v="Calle Conde de Torrejón"/>
    <tag k="name" v="La Fuga"/>
    <tag k="shop" v="books"/>
    <tag k="website" v="https://plus.google.com/110478888424122455780/about?gl=es&amp;hl=es"/>
    <tag k="wheelchair" v="limited"/>
  </node>
  <node id="3132434665" lat="37.4020298" lon="-5.9849747">
    <tag k="shop" v="hardware"/>
  </node>
  <node id="3141638721" lat="37.3940053" lon="-5.9917777">
    <tag k="addr:city" v="Sevilla"/>
    <tag k="addr:housenumber" v="1-2"/>
    <tag k="addr:postcode" v="41003"/>
    <tag k="addr:street" v="Regina"/>
    <tag k="designation" v="Children clothes"/>
    <tag k="name" v="Un Globo"/>
    <tag k="shop" v="clothes"/>
    <tag k="website" v="www.facebook.com/ungloboensevilla"/>
  </node>
  <node id="3141644669" lat="37.3941033" lon="-5.9917840">
    <tag k="name" v="Cami-Setas"/>
    <tag k="shop" v="clothes"/>
  </node>
  <node id="3141653230" lat="37.3940899" lon="-5.9915445">
    <tag k="name" v="Cuchilleria Regina"/>
    <tag k="shop" v="doityourself"/>
  </node>
  <node id="3149264563" lat="37.3926705" lon="-5.9945870">
    <tag k="clothes" v="men"/>
    <tag k="name" v="Vertice"/>
    <tag k="opening_hours" v="10:00-13:00,17:30-20:30"/>
    <tag k="shop" v="clothes"/>
    <tag k="wheelchair" v="no"/>
  </node>
  <node id="3149290552" lat="37.3868529" lon="-5.9926461">
    <tag k="addr:housenumber" v="31"/>
    <tag k="addr:street" v="Calle Alemanes"/>
    <tag k="name" v="Esencias de Sevilla"/>
    <tag k="phone" v="+34 955 29 40 94"/>
    <tag k="shop" v="tea"/>
    <tag k="website" v="http://www.herbolarioesenciasdesevilla.com"/>
    <tag k="wheelchair" v="yes"/>
  </node>
  <node id="3149290553" lat="37.3859914" lon="-5.9917369">
    <tag k="clothes" v="women;traditional"/>
    <tag k="fax" v="+34 95 421 85 88"/>
    <tag k="name" v="Juan Foronda"/>
    <tag k="phone" v="+34 95 422 76 61"/>
    <tag k="shop" v="boutique"/>
    <tag k="website" v="http://juanforonda.com/"/>
    <tag k="wheelchair" v="yes"/>
  </node>
  <node id="3149342577" lat="37.3925179" lon="-5.9956521">
    <tag k="clothes" v="women"/>
    <tag k="name" v="DayADay"/>
    <tag k="shop" v="clothes"/>
    <tag k="wheelchair" v="no"/>
  </node>
  <node id="3149342580" lat="37.3924923" lon="-5.9957039">
    <tag k="name" v="Markade"/>
    <tag k="shop" v="boutique"/>
    <tag k="wheelchair" v="limited"/>
  </node>
  <node id="3149342581" lat="37.3924937" lon="-5.9954948">
    <tag k="name" v="Nicolás"/>
    <tag k="opening_hours" v="10:00-21:00"/>
    <tag k="shop" v="shoes"/>
    <tag k="wheelchair" v="no"/>
  </node>
  <node id="3149342582" lat="37.3928374" lon="-5.9962097">
    <tag k="name" v="Orange"/>
    <tag k="shop" v="mobile_phone"/>
    <tag k="wheelchair" v="yes"/>
  </node>
  <node id="3149342583" lat="37.3926606" lon="-5.9961838">
    <tag k="name" v="Orobriz"/>
    <tag k="shop" v="jewelry"/>
    <tag k="wheelchair" v="yes"/>
  </node>
  <node id="3149342584" lat="37.3925378" lon="-5.9949658">
    <tag k="name" v="Pilar Burgos"/>
    <tag k="opening_hours" v="10:00-22:00"/>
    <tag k="shop" v="shoes"/>
    <tag k="wheelchair" v="no"/>
  </node>
  <node id="3149342585" lat="37.3926705" lon="-5.9963536">
    <tag k="clothes" v="women"/>
    <tag k="name" v="Punto Roma"/>
    <tag k="shop" v="clothes"/>
    <tag k="wheelchair" v="no"/>
  </node>
  <node id="3149342586" lat="37.3924703" lon="-5.9955931">
    <tag k="name" v="Tiger"/>
    <tag k="shop" v="variety_store"/>
    <tag k="wheelchair" v="yes"/>
  </node>
  <node id="3149342587" lat="37.3925328" lon="-5.9956128">
    <tag k="name" v="WikiSmoke"/>
    <tag k="opening_hours" v="10:00-22:00"/>
    <tag k="shop" v="e-cigarette"/>
    <tag k="wheelchair" v="yes"/>
  </node>
  <node id="3149342588" lat="37.3924604" lon="-5.9956235">
    <tag k="shop" v="vacant"/>
    <tag k="wheelchair" v="no"/>
  </node>
  <node id="3149374464" lat="37.3930511" lon="-5.9977324">
    <tag k="name" v="Elena Prado"/>
    <tag k="shop" v="hairdresser"/>
    <tag k="wheelchair" v="no"/>
  </node>
  <node id="3149374465" lat="37.3932477" lon="-5.9977145">
    <tag k="name" v="Juan Delgado"/>
    <tag k="shop" v="hairdresser"/>
    <tag k="wheelchair" v="no"/>
  </node>
  <node id="3149374466" lat="37.3927827" lon="-5.9972168">
    <tag k="clothes" v="women"/>
    <tag k="name" v="Kahyra"/>
    <tag k="shop" v="clothes"/>
    <tag k="wheelchair" v="yes"/>
  </node>
  <node id="3149374467" lat="37.3928317" lon="-5.9976341">
    <tag k="name" v="Moda Lifa"/>
    <tag k="shop" v="clothes"/>
    <tag k="wheelchair" v="yes"/>
  </node>
  <node id="3149374468" lat="37.3931597" lon="-5.9977190">
    <tag k="name" v="Peluquería Eladio"/>
    <tag k="shop" v="hairdresser"/>
    <tag k="wheelchair" v="no"/>
  </node>
  <node id="3149374469" lat="37.3927763" lon="-5.9971444">
    <tag k="clothes" v="women"/>
    <tag k="name" v="Sevilla Woman"/>
    <tag k="shop" v="clothes"/>
  </node>
  <node id="3149374470" lat="37.3927735" lon="-5.9970926">
    <tag k="clothes" v="women"/>
    <tag k="name" v="dh"/>
    <tag k="shop" v="clothes"/>
  </node>
  <node id="3149374471" lat="37.3927635" lon="-5.9970113">
    <tag k="shop" v="vacant"/>
  </node>
  <node id="3149394396" lat="37.3859768" lon="-5.9908993">
    <tag k="addr:housenumber" v="2 A"/>
    <tag k="addr:street" v="Calle Rodrigo Caro"/>
    <tag k="name" v="Artesanías Medina"/>
    <tag k="shop" v="gift"/>
  </node>
  <node id="3149394397" lat="37.3859114" lon="-5.9908810">
    <tag k="addr:housenumber" v="2 B"/>
    <tag k="addr:street" v="Calle Rodrigo Caro"/>
    <tag k="name" v="Cerámica Artística Colón"/>
    <tag k="shop" v="gift"/>
  </node>
  <node id="3149394398" lat="37.3860160" lon="-5.9911844">
    <tag k="addr:housenumber" v="10"/>
    <tag k="addr:street" v="Calle Mateos Gago"/>
    <tag k="name" v="Cerámica Santa Cruz"/>
    <tag k="shop" v="gift"/>
  </node>
  <node id="3149394399" lat="37.3860204" lon="-5.9912356">
    <tag k="addr:housenumber" v="10"/>
    <tag k="addr:street" v="Calle Mateos Gago"/>
    <tag k="craft" v="pottery"/>
    <tag k="name" v="El azulejo"/>
    <tag k="shop" v="gift"/>
  </node>
  <node id="3149394401" lat="37.3860160" lon="-5.9910949">
    <tag k="addr:housenumber" v="12"/>
    <tag k="addr:street" v="Calle Mateos Gago"/>
    <tag k="name" v="Luna de Sevilla"/>
    <tag k="shop" v="gift"/>
  </node>
  <node id="3149394402" lat="37.3858735" lon="-5.9921144">
    <tag k="addr:housenumber" v="2"/>
    <tag k="addr:street" v="Plaza Virgen de los Reyes"/>
    <tag k="shop" v="gift"/>
  </node>
  <node id="3149394403" lat="37.3857944" lon="-5.9921428">
    <tag k="addr:housenumber" v="4 A"/>
    <tag k="addr:street" v="Plaza Virgen de los Reyes"/>
    <tag k="shop" v="gift"/>
  </node>
  <node id="3149399836" lat="37.3928892" lon="-5.9980997">
    <tag k="clothes" v="women"/>
    <tag k="name" v="Babylonia"/>
    <tag k="shop" v="clothes"/>
    <tag k="wheelchair" v="limited"/>
  </node>
  <node id="3149399838" lat="37.3930042" lon="-5.9985054">
    <tag k="name" v="Polvillo"/>
    <tag k="opening_hours" v="7:00-16:00"/>
    <tag k="shop" v="bakery"/>
  </node>
  <node id="3149412208" lat="37.3856844" lon="-5.9906278">
    <tag k="addr:housenumber" v="1"/>
    <tag k="addr:street" v="Pasaje de Andreu"/>
    <tag k="name" v="Souvenirs Josefa Rosado"/>
    <tag k="shop" v="gift"/>
  </node>
  <node id="3149412209" lat="37.3857444" lon="-5.9906844">
    <tag k="addr:housenumber" v="3 C"/>
    <tag k="addr:street" v="Calle Rodrigo Caro"/>
    <tag k="name" v="Souvenirs Josefa Rosado"/>
    <tag k="shop" v="gift"/>
  </node>
  <node id="3149412210" lat="37.3858623" lon="-5.9907057">
    <tag k="addr:housenumber" v="3 A"/>
    <tag k="addr:street" v="Calle Rodrigo Caro"/>
    <tag k="name" v="Souvenirs La Pepa"/>
    <tag k="shop" v="gift"/>
  </node>
  <node id="3149436817" lat="37.3928068" lon="-5.9992363">
    <tag k="name" v="Antigüedades el Museo"/>
    <tag k="shop" v="antiques"/>
    <tag k="wheelchair" v="no"/>
  </node>
  <node id="3149436819" lat="37.3929495" lon="-5.9988878">
    <tag k="name" v="Collection"/>
    <tag k="shop" v="clothes"/>
  </node>
  <node id="3149436821" lat="37.3929581" lon="-5.9989557">
    <tag k="name" v="Ecoturismo"/>
    <tag k="shop" v="ticket"/>
  </node>
  <node id="3149436822" lat="37.3930198" lon="-5.9986501">
    <tag k="name" v="Lebrón"/>
    <tag k="shop" v="hairdresser"/>
    <tag k="wheelchair" v="no"/>
  </node>
  <node id="3149436823" lat="37.3931923" lon="-5.9998449">
    <tag k="clothes" v="hats"/>
    <tag k="name" v="Reyes Hellin"/>
    <tag k="shop" v="clothes"/>
  </node>
  <node id="3149436824" lat="37.3922580" lon="-5.9992962">
    <tag k="shop" v="vacant"/>
  </node>
  <node id="3149436825" lat="37.3928885" lon="-5.9992193">
    <tag k="shop" v="vacant"/>
  </node>
  <node id="3149436826" lat="37.3931476" lon="-5.9996411">
    <tag k="shop" v="vacant"/>
  </node>
  <node id="3149496624" lat="37.3858995" lon="-5.9906991">
    <tag k="addr:housenumber" v="2 A"/>
    <tag k="addr:street" v="Pasaje de Vila"/>
    <tag k="name" v="Embrujo"/>
    <tag k="shop" v="gift"/>
  </node>
  <node id="3149496625" lat="37.3857641" lon="-5.9900393">
    <tag k="addr:housenumber" v="1"/>
    <tag k="addr:street" v="Calle Jamerdana"/>
    <tag k="name" v="Esencias de Sevilla"/>
    <tag k="phone" v="+34 955 28 94 74"/>
    <tag k="shop" v="tea"/>
    <tag k="website" v="http://www.herbolarioesenciasdesevilla.com"/>
  </node>
  <node id="3149496626" lat="37.3858406" lon="-5.9900810">
    <tag k="addr:housenumber" v="13"/>
    <tag k="addr:street" v="Pasaje de Vila"/>
    <tag k="clothes" v="women"/>
    <tag k="email" v="contact@lacotonniere.fr"/>
    <tag k="name" v="La Cotonniere"/>
    <tag k="opening_hours" v="Mo-Su 09:00-22:00"/>
    <tag k="organic" v="yes"/>
    <tag k="shop" v="clothes"/>
    <tag k="website" v="http://www.lacotonniere.fr"/>
  </node>
  <node id="3149496627" lat="37.3858378" lon="-5.9899848">
    <tag k="addr:housenumber" v="1"/>
    <tag k="addr:street" v="Calle Ximénez de Enciso"/>
    <tag k="name" v="La Ruta de la Plata"/>
    <tag k="shop" v="jewelry"/>
  </node>
  <node id="3149496628" lat="37.3859963" lon="-5.9902028">
    <tag k="addr:housenumber" v="11 A"/>
    <tag k="addr:street" v="Pasaje de Vila"/>
    <tag k="clothes" v="women"/>
    <tag k="shop" v="clothes"/>
  </node>
  <node id="3149506286" lat="37.3857411" lon="-5.9902237">
    <tag k="addr:housenumber" v="5"/>
    <tag k="addr:street" v="Pasaje de Andreu"/>
    <tag k="clothes" v="women;foulard"/>
    <tag k="shop" v="clothes"/>
  </node>
  <node id="3149522612" lat="37.3856803" lon="-5.9905281">
    <tag k="addr:housenumber" v="1 B"/>
    <tag k="addr:street" v="Pasaje de Andreu"/>
    <tag k="email" v="info@andalusiantaste.com"/>
    <tag k="name" v="Andalusian taste"/>
    <tag k="phone" v="+34 954211711"/>
    <tag k="shop" v="deli"/>
    <tag k="website" v="http://www.andalusiantaste.com"/>
  </node>
  <node id="3149527760" lat="37.3936523" lon="-5.9996985">
    <tag k="name" v="Carpinteria M. Bobo Perez"/>
    <tag k="shop" v="furniture"/>
  </node>
  <node id="3149527762" lat="37.3941741" lon="-5.9996296">
    <tag k="name" v="Cosmeceutical"/>
    <tag k="shop" v="chemist"/>
    <tag k="wheelchair" v="limited"/>
  </node>
  <node id="3149527765" lat="37.3953409" lon="-5.9994348">
    <tag k="name" v="Galería San Vicente 31"/>
    <tag k="shop" v="art"/>
  </node>
  <node id="3149527766" lat="37.3934811" lon="-5.9990193">
    <tag k="name" v="La Gallina Clueca"/>
    <tag k="shop" v="organic"/>
    <tag k="website" v="http://www.lagallinaclueca.es"/>
  </node>
  <node id="3149527767" lat="37.3950903" lon="-5.9994779">
    <tag k="name" v="La Saika"/>
    <tag k="service" v="repair"/>
    <tag k="shop" v="bicycle"/>
  </node>
  <node id="3149527769" lat="37.3953272" lon="-5.9993089">
    <tag k="name" v="Sha Long"/>
    <tag k="shop" v="convenience"/>
  </node>
  <node id="3149527771" lat="37.3953793" lon="-5.9996640">
    <tag k="craft" v="glaziery"/>
    <tag k="name" v="venta y reparacion de lámparas cristal"/>
    <tag k="shop" v="furniture"/>
  </node>
  <node id="3150246533" lat="37.3898971" lon="-5.9842984">
    <tag k="addr:street" v="Calle Recaredo"/>
    <tag k="name" v="fun covers"/>
    <tag k="opening_hours" v="Mo-Fr 10:00-14:00, 17:00-21:00;Sa 10:00-15:00"/>
    <tag k="operator" v="varios"/>
    <tag k="shop" v="mobile_phone"/>
    <tag k="wheelchair" v="yes"/>
  </node>
  <node id="3150248427" lat="37.3905354" lon="-5.9842434">
    <tag k="addr:city" v="Sevilla / Casco Antiguo / San Bartolomé"/>
    <tag k="addr:housenumber" v="11-A"/>
    <tag k="addr:street" v="Calle Recaredo"/>
    <tag k="name" v="Horno San Roque"/>
    <tag k="opening_hours" v="Mo-Sa 08:00-15:00, 17:30-20:30;Su 08:00-15:00"/>
    <tag k="shop" v="convenience"/>
    <tag k="wheelchair" v="no"/>
  </node>
  <node id="3150250332" lat="37.3905888" lon="-5.9842346">
    <tag k="addr:city" v="Sevilla / Casco Antiguo / San Bartolomé"/>
    <tag k="addr:housenumber" v="9"/>
    <tag k="addr:street" v="Calle Recaredo"/>
    <tag k="name" v="La Fortuna"/>
    <tag k="opening_hours" v="Mo-Fr 09:00-14:00,16:30-20:30;Sa 09:00-14:00"/>
    <tag k="shop" v="lottery"/>
    <tag k="wheelchair" v="no"/>
  </node>
  <node id="3150253329" lat="37.3910791" lon="-5.9842529">
    <tag k="addr:city" v="Sevilla / Casco Antiguo / San Bartolomé"/>
    <tag k="addr:housenumber" v="25"/>
    <tag k="addr:street" v="Calle Recaredo"/>
    <tag k="name" v="Ideas"/>
    <tag k="opening_hours" v="Mo-Fr 10:00-14:00,17:00-20:30"/>
    <tag k="shop" v="kitchen"/>
    <tag k="wheelchair" v="no"/>
  </node>
  <node id="3150361619" lat="37.3862613" lon="-5.9903834">
    <tag k="addr:housenumber" v="15"/>
    <tag k="addr:street" v="Calle Mateos Gago"/>
    <tag k="name" v="Atocha mini-mercado"/>
    <tag k="shop" v="convenience"/>
  </node>
  <node id="3150361620" lat="37.3861726" lon="-5.9907913">
    <tag k="addr:housenumber" v="11"/>
    <tag k="addr:street" v="Calle Mateos Gago"/>
    <tag k="name" v="Cerámica el Arte~Sano"/>
    <tag k="opening_hours" v="Mo-Su 10:00-20:00"/>
    <tag k="phone" v="+34 954 21 38 58"/>
    <tag k="shop" v="gift"/>
  </node>
  <node id="3150361621" lat="37.3862474" lon="-5.9904573">
    <tag k="addr:housenumber" v="15"/>
    <tag k="addr:street" v="Calle Mateos Gago"/>
    <tag k="opening_hours" v="Mo-Su 10:00-20:00"/>
    <tag k="shop" v="gift"/>
  </node>
  <node id="3150361622" lat="37.3862731" lon="-5.9903170">
    <tag k="addr:housenumber" v="17 A"/>
    <tag k="addr:street" v="Calles Mateos Gago"/>
    <tag k="shop" v="newsagent"/>
  </node>
  <node id="3150361623" lat="37.3862555" lon="-5.9904176">
    <tag k="addr:housenumber" v="15"/>
    <tag k="addr:street" v="Calle Mateos Gago"/>
    <tag k="name" v="Souvenirs Lío"/>
    <tag k="opening_hours" v="Mo-Su 10:00-20:00"/>
    <tag k="shop" v="gift"/>
  </node>
  <node id="3150394750" lat="37.3868045" lon="-5.9897697">
    <tag k="addr:housenumber" v="35"/>
    <tag k="addr:street" v="Mateos Gago"/>
    <tag k="name" v="Arjé"/>
    <tag k="opening_hours" v="Mo-Fr 10:00-14:00,17:00-20:45; Sa 10:30-14:00"/>
    <tag k="phone" v="+34 954 56 20 29"/>
    <tag k="shop" v="furniture;interior_decoration"/>
    <tag k="website" v="https://www.facebook.com/pages/ARJ%C3%89/342505385774502"/>
  </node>
  <node id="3150394751" lat="37.3866078" lon="-5.9899362">
    <tag k="addr:housenumber" v="29"/>
    <tag k="addr:street" v="Calle Mateos Gago"/>
    <tag k="email" v="info@mariagavira.com"/>
    <tag k="name" v="María Gavira"/>
    <tag k="phone" v="+34 954 22 19 65"/>
    <tag k="shop" v="bag"/>
    <tag k="website" v="http://www.mariagavira.com/"/>
    <tag k="wheelchair" v="yes"/>
  </node>
  <node id="3150438970" lat="37.3856169" lon="-5.9905133">
    <tag k="addr:housenumber" v="2"/>
    <tag k="addr:street" v="Pasaje de Andreu"/>
    <tag k="name" v="Arjé"/>
    <tag k="opening_hours" v="Mo-Fr 10:00-14:00,17:00-20:45; Sa 10:30-14:00"/>
    <tag k="phone" v="+34 954 56 15 91;+34 954 56 42 96"/>
    <tag k="shop" v="furniture;interior_decoration"/>
    <tag k="website" v="https://www.facebook.com/pages/ARJ%C3%89/342505385774502"/>
  </node>
  <node id="3150438972" lat="37.3870827" lon="-5.9900368">
    <tag k="addr:city" v="Sevilla"/>
    <tag k="addr:country" v="ES"/>
    <tag k="addr:housenumber" v="9"/>
    <tag k="addr:postcode" v="41004"/>
    <tag k="addr:street" v="Calle Guzmán el Bueno"/>
    <tag k="email" v="info@galeriahaurie.com"/>
    <tag k="fax" v="+34 95 456 32 33"/>
    <tag k="name" v="Galería Haurie"/>
    <tag k="phone" v="+34 95 422 57 26"/>
    <tag k="shop" v="art"/>
    <tag k="website" v="http://www.galeriahaurie.com/"/>
  </node>
  <node id="3150440364" lat="37.3890451" lon="-5.9847061">
    <tag k="addr:city" v="Sevilla"/>
    <tag k="addr:country" v="ES"/>
    <tag k="addr:housenumber" v="67"/>
    <tag k="addr:province" v="Sevilla"/>
    <tag k="addr:street" v="Recaredo"/>
    <tag k="name" v="Floristeria Puerta Carmona"/>
    <tag k="operator" v="Interflora"/>
    <tag k="phone" v="954535484"/>
    <tag k="shop" v="florist"/>
    <tag k="website" v="www.floristeriapuertacarmona.com"/>
    <tag k="wheelchair" v="yes"/>
  </node>
  <node id="3150440365" lat="37.3889977" lon="-5.9847221">
    <tag k="name" v="Top Mage"/>
    <tag k="opening_hours" v="Mo-Sa 09:30-14:00,16:30-20:00"/>
    <tag k="phone" v="954414971"/>
    <tag k="shop" v="hairdresser"/>
    <tag k="wheelchair" v="limited"/>
  </node>
  <node id="3150443027" lat="37.3872683" lon="-5.9914032">
    <tag k="addr:city" v="Sevilla"/>
    <tag k="addr:country" v="ES"/>
    <tag k="addr:housenumber" v="3"/>
    <tag k="addr:postcode" v="41004"/>
    <tag k="addr:street" v="Calle Don Remondo"/>
    <tag k="name" v="Las Pléyades"/>
    <tag k="phone" v="+34 954 225 821"/>
    <tag k="shop" v="books;hebalist"/>
    <tag k="website" v="https://www.facebook.com/las.pleyadessevilla"/>
  </node>
  <node id="3150453732" lat="37.3872289" lon="-5.9924194">
    <tag k="addr:city" v="Sevilla"/>
    <tag k="addr:country" v="ES"/>
    <tag k="addr:housenumber" v="21"/>
    <tag k="addr:street" v="Calle Placentines"/>
    <tag k="name" v="De sevillanas maneras"/>
    <tag k="shop" v="gift"/>
  </node>
  <node id="3150454161" lat="37.3869267" lon="-5.9924298">
    <tag k="addr:city" v="Sevilla"/>
    <tag k="addr:country" v="ES"/>
    <tag k="addr:housenumber" v="35"/>
    <tag k="addr:street" v="Calle Placentines"/>
    <tag k="name" v="La Magdalena"/>
    <tag k="shop" v="gift"/>
  </node>
  <node id="3150467051" lat="37.3872273" lon="-5.9929409">
    <tag k="clothes" v="women"/>
    <tag k="craft" v="dressmaker"/>
    <tag k="email" v="placentines1@obando.es"/>
    <tag k="name" v="Obando Atelier"/>
    <tag k="phone" v="+34 954 56 37 68"/>
    <tag k="shop" v="clothes"/>
    <tag k="website" v="http://www.obando.es"/>
  </node>
  <node id="3150471083" lat="37.3884932" lon="-5.9919704">
    <tag k="addr:city" v="Sevilla"/>
    <tag k="addr:country" v="ES"/>
    <tag k="addr:housenumber" v="11"/>
    <tag k="addr:postcode" v="41004"/>
    <tag k="addr:street" v="Calle Pajaritos"/>
    <tag k="name" v="La Alacena Real"/>
    <tag k="phone" v="+34 954 22 00 90"/>
    <tag k="shop" v="convenience"/>
  </node>
  <node id="3150475034" lat="37.3886413" lon="-5.9923934">
    <tag k="addr:city" v="Sevilla"/>
    <tag k="addr:country" v="ES"/>
    <tag k="addr:housenumber" v="5"/>
    <tag k="addr:postcode" v="41004"/>
    <tag k="addr:street" v="Calle Pajaritos"/>
    <tag k="female" v="yes"/>
    <tag k="name" v="Peluquería de señoras Ana Curado"/>
    <tag k="phone" v="+34 954217244"/>
    <tag k="shop" v="hairdresser"/>
  </node>
  <node id="3150531545" lat="37.3882919" lon="-5.9849995">
    <tag k="craft" v="pottery"/>
    <tag k="email" v="alfares.sevilla@gmail.com"/>
    <tag k="name" v="Alfares"/>
    <tag k="opening_hours" v="Mo-Fr 09:30-14:00,17:00-21:00; Sa 09:30-14:00"/>
    <tag k="phone" v="954419859"/>
    <tag k="shop" v="craft"/>
    <tag k="wheelchair" v="limited"/>
  </node>
  <node id="3150531546" lat="37.3889495" lon="-5.9847368">
    <tag k="name" v="Florida Importaciones"/>
    <tag k="opening_hours" v="Mo-Sa 09:15-14:00,17:00-21:00"/>
    <tag k="shop" v="variety_store"/>
    <tag k="wheelchair" v="no"/>
  </node>
  <node id="3150531547" lat="37.3888014" lon="-5.9847960">
    <tag k="addr:city" v="Sevilla"/>
    <tag k="addr:country" v="ES"/>
    <tag k="addr:housenumber" v="60"/>
    <tag k="addr:province" v="Sevilla"/>
    <tag k="addr:street" v="Recaredo"/>
    <tag k="name" v="Manuel Riesgo"/>
    <tag k="opening_hours" v="Mo-Th 10:00-15:00,16:00-20:00; Fr 10:00-15:00"/>
    <tag k="shop" v="art"/>
    <tag k="website" v="www.riesgoarte.com"/>
  </node>
  <node id="3150531548" lat="37.3886327" lon="-5.9848599">
    <tag k="addr:city" v="Sevilla"/>
    <tag k="addr:country" v="ES"/>
    <tag k="addr:housenumber" v="55"/>
    <tag k="addr:province" v="Sevilla"/>
    <tag k="addr:street" v="Recaredo"/>
    <tag k="shop" v="vacant"/>
    <tag k="wheelchair" v="no"/>
  </node>
  <node id="3150531549" lat="37.3888860" lon="-5.9847652">
    <tag k="addr:city" v="Sevilla"/>
    <tag k="addr:country" v="ES"/>
    <tag k="addr:housenumber" v="62"/>
    <tag k="addr:province" v="Sevilla"/>
    <tag k="addr:street" v="Recaredo"/>
    <tag k="shop" v="vacant"/>
    <tag k="wheelchair" v="limited"/>
  </node>
  <node id="3150531550" lat="37.3886881" lon="-5.9848392">
    <tag k="addr:city" v="Sevilla"/>
    <tag k="addr:country" v="ES"/>
    <tag k="addr:housenumber" v="57"/>
    <tag k="addr:province" v="Sevilla"/>
    <tag k="addr:street" v="Recaredo"/>
    <tag k="name" v="Rastro Remar"/>
    <tag k="opening_hours" v="Mo-Fr 09:30-14:00,16:00-20:30; Sa 10:00-14:00"/>
    <tag k="phone" v="954999480"/>
    <tag k="shop" v="charity"/>
    <tag k="website" v="www.remar.org"/>
    <tag k="wheelchair" v="limited"/>
  </node>
  <node id="3150840650" lat="37.3921194" lon="-5.9842344">
    <tag k="addr:city" v="Sevilla / Casco Antiguo / San Bartolomé"/>
    <tag k="addr:housenumber" v="39"/>
    <tag k="addr:postcode" v="41003"/>
    <tag k="addr:street" v="Calle Recaredo"/>
    <tag k="name" v="Carlin"/>
    <tag k="opening_hours" v="Mo-Fr 09:00-14:00,17:00-20:30;Sa 10:30-13:30"/>
    <tag k="shop" v="stationery"/>
    <tag k="website" v="recaredo@web.carlin.es"/>
    <tag k="wheelchair" v="no"/>
  </node>
  <node id="3150871749" lat="37.3928813" lon="-5.9848581">
    <tag k="addr:city" v="Sevilla"/>
    <tag k="addr:housenumber" v="2"/>
    <tag k="addr:postcode" v="41003"/>
    <tag k="addr:street" v="Calle Diego de Merlo"/>
    <tag k="name" v="Comidas magui"/>
    <tag k="note" v="Comidas para llevar"/>
    <tag k="opening_hours" v="Mo-Fr 109:00-15:15,18:00-21:00;Sa 10:00-15:00"/>
    <tag k="phone" v="+34 619 58 67 80"/>
    <tag k="shop" v="convenience"/>
    <tag k="wheelchair" v="limited"/>
  </node>
  <node id="3150880322" lat="37.3927377" lon="-5.9850783">
    <tag k="addr:city" v="Sevilla"/>
    <tag k="addr:housenumber" v="21"/>
    <tag k="addr:street" v="Calle Salinas"/>
    <tag k="name" v="Esteban distribuciones"/>
    <tag k="note" v="Instrumentos musicales y accesorios para bandas"/>
    <tag k="opening_hours" v="Mo-Fr 10:00-13:30,17:30-21:30;Sa 10:00-13:30"/>
    <tag k="shop" v="music"/>
    <tag k="website" v="www.estebandistribuciones.es"/>
  </node>
  <node id="3150905929" lat="37.3894101" lon="-5.9848771">
    <tag k="addr:city" v="Sevilla / Casco Antiguo / San Bartolomé"/>
    <tag k="addr:housenumber" v="1"/>
    <tag k="addr:postcode" v="41003"/>
    <tag k="addr:street" v="Puerta de Carmona"/>
    <tag k="name" v="Puerta Carmona"/>
    <tag k="note" v="summer Mo-Fr 17:30-20:30"/>
    <tag k="opening_hours" v="Mo-Fr 9:00-13:30,16:30-20:00;Sa 9:00-13:00"/>
    <tag k="phone" v="+34 954 41 94 57"/>
    <tag k="shop" v="hardware"/>
  </node>
  <node id="3150919068" lat="37.3897681" lon="-5.9858038">
    <tag k="addr:city" v="Sevilla"/>
    <tag k="addr:housenumber" v="9"/>
    <tag k="addr:street" v="Calle San Esteban"/>
    <tag k="name" v="Estrella de mar, moda infantil"/>
    <tag k="opening_hours" v="Mo-Fr 10:30-13:30,17:30-20:30;Sa 10:30-13:30"/>
    <tag k="phone" v="+34 954 41 29 87"/>
    <tag k="shop" v="clothes"/>
    <tag k="website" v="www.estrellademaronline.es"/>
  </node>
  <node id="3150954921" lat="37.3916150" lon="-5.9842280">
    <tag k="addr:city" v="Sevilla / Casco Antiguo / San Bartolomé"/>
    <tag k="addr:housenumber" v="33"/>
    <tag k="addr:street" v="Calle Recaredo"/>
    <tag k="name" v="Sierra de Aracena"/>
    <tag k="note" v="Jamón,embutidos, miel,quesos, vino"/>
    <tag k="opening_hours" v="Mo-Fr 10:00-14:00,16:30-20:00;Sa 10:00-14:00"/>
    <tag k="phone" v="+34 954 42 10 66"/>
    <tag k="shop" v="convenience"/>
    <tag k="wheelchair" v="no"/>
  </node>
  <node id="3151328305" lat="37.4023267" lon="-5.9188844">
    <tag k="addr:city" v="Sevilla"/>
    <tag k="addr:housenumber" v="36"/>
    <tag k="addr:postcode" v="41020"/>
    <tag k="addr:street" v="Calle Profesor Manuel Clavero Arévalo"/>
    <tag k="name" v="B@dulakeste"/>
    <tag k="opening_hours" v="Mo-Fr 08:30-15:00,17:30-23:00; Sa-Su 10:00-15:00,17:30-23:00"/>
    <tag k="payment:cash" v="yes"/>
    <tag k="payment:visa" v="yes"/>
    <tag k="payment:visa_debit" v="yes"/>
    <tag k="shop" v="convenience"/>
    <tag k="wheelchair" v="yes"/>
  </node>
  <node id="3153970044" lat="37.3785976" lon="-5.9726165">
    <tag k="addr:street" v="Calle Espinosa y Cárcel"/>
    <tag k="name" v="La Coriana"/>
    <tag k="operator" v="un chino y su mujer"/>
    <tag k="shop" v="supermarket"/>
  </node>
  <node id="3153976239" lat="37.3775664" lon="-5.9697255">
    <tag k="addr:street" v="Calle Santa María Mazzarello"/>
    <tag k="name" v="La China"/>
    <tag k="opening_hours" v="las que tu quieras"/>
    <tag k="operator" v="La china"/>
    <tag k="shop" v="supermarket"/>
  </node>
  <node id="3153976240" lat="37.3780520" lon="-5.9726701">
    <tag k="addr:street" v="Calle Fernández de Ribera"/>
    <tag k="name" v="El Toni"/>
    <tag k="operator" v="Toni"/>
    <tag k="shop" v="supermarket"/>
  </node>
  <node id="3154906073" lat="37.3917673" lon="-5.9842288">
    <tag k="addr:city" v="Sevilla / Casco Antiguo / San Bartolomé"/>
    <tag k="addr:housenumber" v="37 acc b"/>
    <tag k="addr:postcode" v="41003"/>
    <tag k="addr:street" v="Calle Recaredo"/>
    <tag k="bicycle" v="yes"/>
    <tag k="crossing" v="traffic_signals"/>
    <tag k="name" v="electric city motor"/>
    <tag k="opening_hours" v="Mo-Fr 10:00-14:00,17:00-20:30;Sa 10:00-14:00"/>
    <tag k="shop" v="bicycle"/>
    <tag k="tactile_paving" v="yes"/>
    <tag k="wheelchair" v="yes"/>
  </node>
  <node id="3156569897" lat="37.4002592" lon="-5.9923407">
    <tag k="addr:city" v="Sevilla"/>
    <tag k="addr:housenumber" v="6"/>
    <tag k="addr:postcode" v="41002"/>
    <tag k="addr:street" v="Calle Relator"/>
    <tag k="name" v="El barbero de Sevilla"/>
    <tag k="phone" v="+34/954370758"/>
    <tag k="shop" v="hairdresser"/>
    <tag k="website" v="http://www.elbarberodesevilla.es"/>
  </node>
  <node id="3156569899" lat="37.4003595" lon="-5.9919473">
    <tag k="addr:city" v="Sevilla"/>
    <tag k="addr:housenumber" v="25"/>
    <tag k="addr:postcode" v="41002"/>
    <tag k="addr:street" v="Calle Relator"/>
    <tag k="name" v="Quijano Mármoles &amp; Granitos"/>
    <tag k="shop" v="building materials"/>
  </node>
  <node id="3156620764" lat="37.3960191" lon="-5.9878458">
    <tag k="name" v="Papelería San Marcos"/>
    <tag k="shop" v="newsagent"/>
  </node>
  <node id="3156620765" lat="37.3961285" lon="-5.9878948">
    <tag k="name" v="Frutas Chari"/>
    <tag k="shop" v="greengrocer"/>
  </node>
  <node id="3156620767" lat="37.3963893" lon="-5.9878295">
    <tag k="shop" v="convenience"/>
  </node>
  <node id="3157719308" lat="37.3981215" lon="-5.9821472">
    <tag k="name" v="Aintas"/>
    <tag k="opening_hours" v="Mo-Fr"/>
    <tag k="shop" v="hairdresser"/>
  </node>
  <node id="3157719309" lat="37.3978219" lon="-5.9826583">
    <tag k="name" v="Artesanía Religiosa San Julián"/>
    <tag k="shop" v="antiques"/>
  </node>
  <node id="3157719312" lat="37.3974454" lon="-5.9841693">
    <tag k="name" v="Casa Cornelio"/>
    <tag k="shop" v="alcohol"/>
  </node>
  <node id="3157719315" lat="37.3993408" lon="-5.9883873">
    <tag k="addr:city" v="Sevilla"/>
    <tag k="addr:country" v="ES"/>
    <tag k="addr:housenumber" v="55"/>
    <tag k="addr:street" v="Calle San Luis"/>
    <tag k="fair_trade" v="yes"/>
    <tag k="name" v="DAS BROT"/>
    <tag k="opening_hours" v="Mo-Fr 08:30-14:30, 17:30-21:00; Sa-Su 08:30-12:00"/>
    <tag k="shop" v="bakery"/>
  </node>
  <node id="3157719317" lat="37.3962838" lon="-5.9878335">
    <tag k="addr:city" v="Sevilla"/>
    <tag k="addr:country" v="ES"/>
    <tag k="addr:housenumber" v="2"/>
    <tag k="addr:street" v="Plaza San Marcos"/>
    <tag k="name" v="El jardín del té"/>
    <tag k="shop" v="tea"/>
  </node>
  <node id="3157719318" lat="37.3991759" lon="-5.9848331">
    <tag k="name" v="Estación Cadeaux"/>
    <tag k="shop" v="stationery"/>
  </node>
  <node id="3157719320" lat="37.3990137" lon="-5.9835891">
    <tag k="name" v="Fotodepilación American Secrets"/>
    <tag k="shop" v="beauty"/>
  </node>
  <node id="3157719323" lat="37.3990380" lon="-5.9849841">
    <tag k="name" v="La Quenelle"/>
    <tag k="shop" v="bakery"/>
  </node>
  <node id="3157719324" lat="37.3991990" lon="-5.9837654">
    <tag k="name" v="La Ronda"/>
    <tag k="opening_hours" v="Mo-Fr"/>
    <tag k="shop" v="tyres"/>
  </node>
  <node id="3157719325" lat="37.3980730" lon="-5.9822693">
    <tag k="name" v="La Segunda Vera"/>
    <tag k="shop" v="dry_cleaning"/>
  </node>
  <node id="3157719326" lat="37.3992165" lon="-5.9850094">
    <tag k="name" v="Las mil y una cosas"/>
    <tag k="shop" v="variety_store"/>
  </node>
  <node id="3157719328" lat="37.3992079" lon="-5.9834636">
    <tag k="name" v="Luisa Zavalón"/>
    <tag k="shop" v="hairdresser"/>
  </node>
  <node id="3157719329" lat="37.3989821" lon="-5.9846245">
    <tag k="addr:city" v="Sevilla"/>
    <tag k="addr:country" v="ES"/>
    <tag k="addr:housenumber" v="6"/>
    <tag k="addr:street" v="Calle San Hermenegildo"/>
    <tag k="name" v="MALDONADO"/>
    <tag k="phone" v="954413535 - 615850044"/>
    <tag k="shop" v="seafood"/>
  </node>
  <node id="3157719331" lat="37.4004898" lon="-5.9886981">
    <tag k="name" v="Nuño"/>
    <tag k="opening_hours" v="10:00-14:00,18:00-21:00"/>
    <tag k="shop" v="books"/>
  </node>
  <node id="3157719333" lat="37.3966542" lon="-5.9878822">
    <tag k="addr:city" v="Sevilla"/>
    <tag k="addr:country" v="ES"/>
    <tag k="addr:housenumber" v="7"/>
    <tag k="addr:street" v="Calle San Luis"/>
    <tag k="name" v="PAK ESPAÑA"/>
    <tag k="shop" v="greengrocer"/>
  </node>
  <node id="3157719334" lat="37.3990643" lon="-5.9838640">
    <tag k="name" v="PC3"/>
    <tag k="shop" v="computer"/>
  </node>
  <node id="3157719335" lat="37.4004652" lon="-5.9859927">
    <tag k="name" v="Patricia"/>
    <tag k="shop" v="greengrocer"/>
  </node>
  <node id="3157719336" lat="37.3992281" lon="-5.9851052">
    <tag k="name" v="Peluquería Perro Verde"/>
    <tag k="shop" v="pet"/>
  </node>
  <node id="3157719337" lat="37.3991638" lon="-5.9847116">
    <tag k="name" v="Pipirigaña"/>
    <tag k="shop" v="toys"/>
  </node>
  <node id="3157719338" lat="37.3986447" lon="-5.9879785">
    <tag k="addr:city" v="Sevilla"/>
    <tag k="addr:country" v="ES"/>
    <tag k="addr:housenumber" v="58B"/>
    <tag k="name" v="Planeta Propio"/>
    <tag k="shop" v="boutique"/>
  </node>
  <node id="3157719339" lat="37.4000058" lon="-5.9859518">
    <tag k="name" v="Popurrí Rafaela"/>
    <tag k="shop" v="variety_store"/>
  </node>
  <node id="3157719340" lat="37.3987545" lon="-5.9840473">
    <tag k="name" v="Rectificado de Motores Sutil S.A."/>
    <tag k="shop" v="car_repair"/>
  </node>
  <node id="3157719341" lat="37.3961602" lon="-5.9878697">
    <tag k="addr:city" v="Sevilla"/>
    <tag k="addr:country" v="ES"/>
    <tag k="addr:housenumber" v="1"/>
    <tag k="addr:street" v="Plaza San Marcos"/>
    <tag k="name" v="San Marcos"/>
    <tag k="shop" v="chemist"/>
  </node>
  <node id="3157719344" lat="37.3976694" lon="-5.9836608">
    <tag k="name" v="Talleres Jose Antonio Grande de León"/>
    <tag k="shop" v="tailor-bordado oro"/>
  </node>
  <node id="3157719345" lat="37.4001339" lon="-5.9884014">
    <tag k="email" v="Ventas@ultramarinosalonso.com"/>
    <tag k="name" v="Ultramarinos Alonso"/>
    <tag k="opening_hours" v="08:15-14:45,17:30-21:00"/>
    <tag k="phone" v="954388806 - 635548510"/>
    <tag k="shop" v="grocery"/>
    <tag k="website" v="www.ultramarinosalonso.com"/>
  </node>
  <node id="3157719346" lat="37.4003802" lon="-5.9885017">
    <tag k="craft" v="shoemaker"/>
    <tag k="name" v="Zapata"/>
    <tag k="opening_hours" v="10:00-14:00,18:00-20:00"/>
    <tag k="shop" v="shoes"/>
  </node>
  <node id="3157719347" lat="37.3982068" lon="-5.9878377">
    <tag k="name" v="2 Renglones"/>
    <tag k="shop" v="gift"/>
  </node>
  <node id="3158664225" lat="37.4021376" lon="-5.9837218">
    <tag k="shop" v="bakery"/>
  </node>
  <node id="3158664226" lat="37.4019885" lon="-5.9837432">
    <tag k="name" v="Peluquería Jose María"/>
    <tag k="shop" v="hairdresser"/>
  </node>
  <node id="3158664227" lat="37.4018393" lon="-5.9833758">
    <tag k="shop" v="hairdresser"/>
  </node>
  <node id="3158664232" lat="37.4024316" lon="-5.9807553">
    <tag k="shop" v="supermarket"/>
  </node>
  <node id="3158664233" lat="37.4030389" lon="-5.9827307">
    <tag k="shop" v="car_repair"/>
  </node>
  <node id="3161051616" lat="37.3856668" lon="-5.9902461">
    <tag k="name" v="Artesania Bonilla"/>
    <tag k="opening_hours" v="Mo-Sa 11:00-20:30"/>
    <tag k="shop" v="gift"/>
    <tag k="wheelchair" v="limited"/>
  </node>
  <node id="3161051617" lat="37.3856644" lon="-5.9864364">
    <tag k="name" v="Artesanos en cuero"/>
    <tag k="opening_hours" v="Mo-Fr 10:00-22:00; Sa 10:00-14:00"/>
    <tag k="organic" v="no"/>
    <tag k="second_hand" v="no"/>
    <tag k="shop" v="shoes"/>
    <tag k="wheelchair" v="no"/>
  </node>
  <node id="3161051618" lat="37.3860403" lon="-5.9892777">
    <tag k="name" v="Artesanía Santa Teresa"/>
    <tag k="opening_hours" v="Mo-Sa 10:00-22:00"/>
    <tag k="shop" v="gift"/>
    <tag k="wheelchair" v="no"/>
  </node>
  <node id="3161051619" lat="37.3860901" lon="-5.9893575">
    <tag k="name" v="Añil"/>
    <tag k="opening_hours" v="Mo-Sa 09:00-21:00"/>
    <tag k="organic" v="no"/>
    <tag k="second_hand" v="no"/>
    <tag k="shop" v="clothes"/>
    <tag k="wheelchair" v="limited"/>
  </node>
  <node id="3161051620" lat="37.3858917" lon="-5.9895803">
    <tag k="name" v="Baraka"/>
    <tag k="opening_hours" v="Mo-Sa 17:30-20:30"/>
    <tag k="shop" v="bag"/>
    <tag k="wheelchair" v="no"/>
  </node>
  <node id="3161051621" lat="37.3856282" lon="-5.9941210">
    <tag k="name" v="Bordados Isabel"/>
    <tag k="opening_hours" v="Mo-Sa 10:00-20:00"/>
    <tag k="shop" v="gift"/>
    <tag k="wheelchair" v="limited"/>
  </node>
  <node id="3161051622" lat="37.3863528" lon="-5.9886764">
    <tag k="addr:city" v="Sevilla"/>
    <tag k="name" v="Ceramica Aida"/>
    <tag k="opening_hours" v="Mo-Fr 10:00-21:00"/>
    <tag k="shop" v="gift"/>
    <tag k="wheelchair" v="limited"/>
  </node>
  <node id="3161051623" lat="37.3843579" lon="-5.9903972">
    <tag k="name" v="Cerámicas Vida"/>
    <tag k="opening_hours" v="Mo-Sa 10:00-21:00"/>
    <tag k="shop" v="gift"/>
    <tag k="wheelchair" v="limited"/>
  </node>
  <node id="3161051624" lat="37.3849841" lon="-5.9907463">
    <tag k="contact:facebook" v="lasmoradas-sevilla"/>
    <tag k="email" v="alicialasmoradas@gmail.com"/>
    <tag k="name" v="Cerámicas las Moradas"/>
    <tag k="opening_hours" v="Mo-Sa 10:00-21:00"/>
    <tag k="shop" v="gift"/>
    <tag k="website" v="http://las-moradas-sevilla.blogspot.com.es"/>
    <tag k="wheelchair" v="no"/>
  </node>
  <node id="3161051625" lat="37.3852728" lon="-5.9909928">
    <tag k="name" v="Complementos la Carbona"/>
    <tag k="opening_hours" v="Mo-Sa 11:00-20:00"/>
    <tag k="shop" v="gift"/>
    <tag k="wheelchair" v="yes"/>
  </node>
  <node id="3161051626" lat="37.3858645" lon="-5.9896468">
    <tag k="name" v="El abanico"/>
    <tag k="opening_hours" v="Mo-Sa 10:00-22:00"/>
    <tag k="shop" v="bag"/>
    <tag k="wheelchair" v="no"/>
  </node>
  <node id="3161051627" lat="37.3856656" lon="-5.9941110">
    <tag k="name" v="Félix Cartelismo"/>
    <tag k="opening_hours" v="Mo-Sa 10:00-14:00,15:00-20:30"/>
    <tag k="shop" v="copyshop"/>
    <tag k="wheelchair" v="no"/>
  </node>
  <node id="3161051628" lat="37.3850531" lon="-5.9909244">
    <tag k="name" v="Herbolário y esencias de Sevilla"/>
    <tag k="shop" v="tea"/>
    <tag k="wheelchair" v="limited"/>
  </node>
  <node id="3161051629" lat="37.3856394" lon="-5.9863697">
    <tag k="name" v="Inma de la Flor"/>
    <tag k="opening_hours" v="10:00-14:00,17:30-20:30"/>
    <tag k="organic" v="no"/>
    <tag k="second_hand" v="no"/>
    <tag k="shop" v="clothes"/>
  </node>
  <node id="3161051630" lat="37.3858468" lon="-5.9899228">
    <tag k="name" v="Isabel Olivera"/>
    <tag k="opening_hours" v="Mo-Sa 11:00-21:00"/>
    <tag k="shop" v="gift"/>
    <tag k="wheelchair" v="no"/>
  </node>
  <node id="3161051631" lat="37.3847021" lon="-5.9904171">
    <tag k="name" v="La monería"/>
    <tag k="opening_hours" v="Mo-Sa 10:00-21:00"/>
    <tag k="shop" v="gift"/>
    <tag k="wheelchair" v="no"/>
  </node>
  <node id="3161051632" lat="37.3860267" lon="-5.9870092">
    <tag k="name" v="Las BBB"/>
    <tag k="opening_hours" v="Mo-Sa 09:00-21:00"/>
    <tag k="organic" v="no"/>
    <tag k="second_hand" v="no"/>
    <tag k="shop" v="shoes"/>
    <tag k="wheelchair" v="limited"/>
  </node>
  <node id="3161051634" lat="37.3856622" lon="-5.9900937">
    <tag k="name" v="Luna Blanca"/>
    <tag k="opening_hours" v="Mo-Sa 11:00-20:30"/>
    <tag k="organic" v="yes"/>
    <tag k="shop" v="gift"/>
    <tag k="wheelchair" v="no"/>
  </node>
  <node id="3161051635" lat="37.3860879" lon="-5.9897736">
    <tag k="contact:facebook" v="lunaresevilla"/>
    <tag k="email" v="tienda@lunaresevilla.com"/>
    <tag k="name" v="Lunares"/>
    <tag k="opening_hours" v="Mo-Sa 10:00-22:00"/>
    <tag k="shop" v="gift"/>
    <tag k="website" v="http://www.lunaresevilla.com/"/>
    <tag k="wheelchair" v="limited"/>
  </node>
  <node id="3161051636" lat="37.3857166" lon="-5.9903559">
    <tag k="name" v="Marco Polo"/>
    <tag k="opening_hours" v="Mo-Sa 11:00-20:30"/>
    <tag k="shop" v="gift"/>
    <tag k="wheelchair" v="limited"/>
  </node>
  <node id="3161051637" lat="37.3855942" lon="-5.9941181">
    <tag k="name" v="Regalos avenida"/>
    <tag k="opening_hours" v="Mo-Su 10:00-20:00"/>
    <tag k="shop" v="gift"/>
    <tag k="wheelchair" v="limited"/>
  </node>
  <node id="3161051638" lat="37.3845232" lon="-5.9904300">
    <tag k="name" v="Rey de Luna"/>
    <tag k="shop" v="gift"/>
    <tag k="wheelchair" v="limited"/>
  </node>
  <node id="3161051639" lat="37.3859637" lon="-5.9894453">
    <tag k="name" v="Salt and Sugar"/>
    <tag k="opening_hours" v="Mo-Fr 08:30-14:30, Sa 09:00-21:00"/>
    <tag k="shop" v="tea"/>
    <tag k="wheelchair" v="yes"/>
  </node>
  <node id="3161051640" lat="37.3859045" lon="-5.9892406">
    <tag k="contact:facebook" v="sangrespanola"/>
    <tag k="email" v="sangrespanolafashion@gmail.com"/>
    <tag k="name" v="Sangre española"/>
    <tag k="opening_hours" v="Mo-Sa 09:30-22:00"/>
    <tag k="organic" v="no"/>
    <tag k="second_hand" v="no"/>
    <tag k="shop" v="clothes"/>
    <tag k="website" v="http://www.sangrespanola.com"/>
    <tag k="wheelchair" v="no"/>
  </node>
  <node id="3161051641" lat="37.3843421" lon="-5.9903345">
    <tag k="name" v="Sevilla Arte - Las cadenas"/>
    <tag k="opening_hours" v="Mo-Sa 10:00-21:00"/>
    <tag k="shop" v="gift"/>
    <tag k="wheelchair" v="limited"/>
  </node>
  <node id="3161051642" lat="37.3856724" lon="-5.9905753">
    <tag k="name" v="Tienda Plata"/>
    <tag k="opening_hours" v="Mo-Sa 11:00-20:00"/>
    <tag k="shop" v="jewelry"/>
    <tag k="wheelchair" v="no"/>
  </node>
  <node id="3162650146" lat="37.3881412" lon="-5.9857520">
    <tag k="addr:city" v="Sevilla"/>
    <tag k="addr:country" v="ES"/>
    <tag k="addr:housenumber" v="9"/>
    <tag k="addr:province" v="Sevilla"/>
    <tag k="addr:state" v="ES"/>
    <tag k="addr:street" v="Calle Tintes"/>
    <tag k="name" v="Peluquería Ana"/>
    <tag k="opening_hours" v="Mo-Fr 09:30-18:30; Sa 09:00-13:00"/>
    <tag k="shop" v="hairdresser"/>
    <tag k="wheelchair" v="no"/>
  </node>
  <node id="3162675433" lat="37.3862544" lon="-5.9859525">
    <tag k="addr:city" v="Sevilla"/>
    <tag k="addr:country" v="ES"/>
    <tag k="addr:housenumber" v="9"/>
    <tag k="addr:province" v="Sevilla"/>
    <tag k="addr:street" v="Avenida Menéndez Pelayo"/>
    <tag k="name" v="La Segunda Vera"/>
    <tag k="opening_hours" v="Mo-Fr 09:30-14:00,17:30-20:00; Sa 10:00-13:30"/>
    <tag k="phone" v="+34 954 53 63 76"/>
    <tag k="shop" v="dry_cleaning"/>
    <tag k="wheelchair" v="yes"/>
  </node>
  <node id="3162675434" lat="37.3874139" lon="-5.9853450">
    <tag k="addr:city" v="Sevilla"/>
    <tag k="addr:country" v="ES"/>
    <tag k="addr:housenumber" v="29"/>
    <tag k="addr:province" v="Sevilla"/>
    <tag k="addr:street" v="Avenida Menéndez Pelayo"/>
    <tag k="name" v="Magia Cadabra"/>
    <tag k="opening_hours" v="Mo-Fr 10:30-13:30,17:30-20:30; Sa 10:30-13:30"/>
    <tag k="shop" v="other"/>
    <tag k="website" v="www.magiacadabra.com"/>
    <tag k="wheelchair" v="yes"/>
  </node>
  <node id="3162675435" lat="37.3863273" lon="-5.9859142">
    <tag k="addr:city" v="Sevilla"/>
    <tag k="addr:country" v="ES"/>
    <tag k="addr:housenumber" v="11"/>
    <tag k="addr:province" v="Sevilla"/>
    <tag k="addr:street" v="Avenida Menéndez Pelayo"/>
    <tag k="email" v="tienda@ohmybikes.com"/>
    <tag k="name" v="Oh my bikes"/>
    <tag k="opening_hours" v="Mo-Fr 10:00-14:00,17:00-20:30; Sa 10:00-14:00"/>
    <tag k="phone" v="+34 954536017"/>
    <tag k="shop" v="bicycle"/>
    <tag k="website" v="www.ohmybikes.com"/>
    <tag k="wheelchair" v="yes"/>
  </node>
  <node id="3162713911" lat="37.3898899" lon="-5.9882293">
    <tag k="addr:city" v="Sevilla"/>
    <tag k="addr:country" v="ES"/>
    <tag k="addr:housenumber" v="20"/>
    <tag k="addr:province" v="Sevilla"/>
    <tag k="addr:street" v="Calle Águilas"/>
    <tag k="name" v="Antigüedades Santa María"/>
    <tag k="shop" v="antiques"/>
    <tag k="wheelchair" v="no"/>
  </node>
  <node id="3162713912" lat="37.3897405" lon="-5.9868021">
    <tag k="addr:city" v="Sevilla"/>
    <tag k="addr:country" v="ES"/>
    <tag k="addr:housenumber" v="3"/>
    <tag k="addr:province" v="Sevilla"/>
    <tag k="addr:street" v="Plaza de Pilatos"/>
    <tag k="craft" v="handicraft"/>
    <tag k="email" v="cocosevilla@gmail.com"/>
    <tag k="name" v="Coco Sevilla"/>
    <tag k="opening_hours" v="Mo-Fr 10:30-19:00"/>
    <tag k="phone" v="+34 657 299 192"/>
    <tag k="shop" v="craft"/>
    <tag k="website" v="https://www.facebook.com/cocosevilla"/>
    <tag k="wheelchair" v="no"/>
  </node>
  <node id="3162713913" lat="37.3898192" lon="-5.9873894">
    <tag k="addr:city" v="Sevilla"/>
    <tag k="addr:country" v="ES"/>
    <tag k="addr:housenumber" v="24"/>
    <tag k="addr:province" v="Sevilla"/>
    <tag k="addr:street" v="Calle Águilas"/>
    <tag k="name" v="Dulces Artesanos H.H. Clarisas"/>
    <tag k="shop" v="confectionery"/>
    <tag k="wheelchair" v="no"/>
  </node>
  <node id="3162713914" lat="37.3897043" lon="-5.9859388">
    <tag k="name" v="Frutería San Esteban"/>
    <tag k="opening_hours" v="Mo-Fr 09:30-13:30,17:30-20:30; Sa 09:30-13:30"/>
    <tag k="shop" v="greengrocer"/>
    <tag k="wheelchair" v="limited"/>
  </node>
  <node id="3162713915" lat="37.3897157" lon="-5.9862548">
    <tag k="addr:city" v="Sevilla"/>
    <tag k="addr:country" v="ES"/>
    <tag k="addr:housenumber" v="14"/>
    <tag k="addr:postcode" v="41003"/>
    <tag k="addr:province" v="Sevilla"/>
    <tag k="addr:state" v="ES"/>
    <tag k="addr:street" v="Calle San Esteban"/>
    <tag k="name" v="Kompulsivas"/>
    <tag k="opening_hours" v="Mo-Fr 10:30-13:30,17:30-20:30; Sa 10:30-14:00"/>
    <tag k="phone" v="+34 954 22 75 65"/>
    <tag k="shop" v="clothes"/>
    <tag k="website" v="https://www.facebook.com/kompulsivas"/>
    <tag k="wheelchair" v="limited"/>
  </node>
  <node id="3162713916" lat="37.3897034" lon="-5.9860100">
    <tag k="name" v="VENE"/>
    <tag k="opening_hours" v="Mo-Fr 09:30-13:30,17:30-20:30; Sa 09:30-13:30"/>
    <tag k="phone" v="+34 600 68 38 50"/>
    <tag k="shop" v="glaziery"/>
    <tag k="wheelchair" v="limited"/>
  </node>
  <node id="3162718748" lat="37.3896707" lon="-5.9857586">
    <tag k="name" v="Confecciones Luís"/>
    <tag k="opening_hours" v="Mo-Fr 09:30-13:30,17:30-20:30; Sa 09:30-13:30"/>
    <tag k="phone" v="+34 954 42 01 55"/>
    <tag k="shop" v="clothes"/>
    <tag k="wheelchair" v="no"/>
  </node>
  <node id="3162718749" lat="37.3896609" lon="-5.9856863">
    <tag k="name" v="Human Cycles"/>
    <tag k="opening_hours" v="Mo-Fr 10:00-14:00,17:00-20:30"/>
    <tag k="shop" v="bicycle"/>
    <tag k="wheelchair" v="yes"/>
  </node>
  <node id="3162718750" lat="37.3896795" lon="-5.9858276">
    <tag k="name" v="Ultramarinos Martín"/>
    <tag k="opening_hours" v="Mo-Fr 09:30-13:30,17:30-20:30; Sa 09:30-13:30"/>
    <tag k="shop" v="convenience"/>
    <tag k="wheelchair" v="no"/>
  </node>
  <node id="3162723231" lat="37.3896141" lon="-5.9855228">
    <tag k="email" v="lmrepullo@gmail.com"/>
    <tag k="name" v="Marquetería San Esteban"/>
    <tag k="opening_hours" v="Mo-Fr 10:00-14:00,16:30-20:30"/>
    <tag k="phone" v="+34 653 69 48 76"/>
    <tag k="shop" v="frame"/>
    <tag k="wheelchair" v="yes"/>
  </node>
  <node id="3163150506" lat="37.3914134" lon="-5.9575518">
    <tag k="addr:city" v="Sevilla"/>
    <tag k="addr:housenumber" v="3"/>
    <tag k="addr:postcode" v="41007"/>
    <tag k="addr:street" v="Avenida Montes Sierra"/>
    <tag k="name" v="LEXUS SEVILLA"/>
    <tag k="opening_hours" v="opening_hours=Mo-Fr 10:00-14:00,16:30-20:30;Sa 10:00-14:00"/>
    <tag k="operator" v="LEXUS"/>
    <tag k="phone" v="+34 954 57 25 26"/>
    <tag k="shop" v="car"/>
    <tag k="website" v="http://www.lexussevilla.com"/>
    <tag k="wheelchair" v="yes"/>
  </node>
  <node id="3163390801" lat="37.3979165" lon="-5.9979908">
    <tag k="name" v="Supersol"/>
    <tag k="shop" v="supermarket"/>
  </node>
  <node id="3163390805" lat="37.3952979" lon="-5.9990476">
    <tag k="amenity" v="laundry"/>
    <tag k="name" v="Tintorería Garo"/>
    <tag k="shop" v="laundry"/>
  </node>
  <node id="3163390812" lat="37.3978739" lon="-5.9982590">
    <tag k="name" v="Confiteria San Antonio"/>
    <tag k="shop" v="bakery"/>
  </node>
  <node id="3163390818" lat="37.3987240" lon="-5.9988572">
    <tag k="name" v="chucherias"/>
    <tag k="shop" v="confectionery"/>
  </node>
  <node id="3163390819" lat="37.3980124" lon="-5.9990798">
    <tag k="name" v="Prensa"/>
    <tag k="shop" v="newsagent"/>
  </node>
  <node id="3163410283" lat="37.3972965" lon="-5.9976985">
    <tag k="name" v="La tiendecita"/>
    <tag k="shop" v="convenience"/>
  </node>
  <node id="3163410284" lat="37.3972111" lon="-5.9977733">
    <tag k="name" v="Peluqueria del Valle"/>
    <tag k="shop" v="hairdresser"/>
  </node>
  <node id="3163410285" lat="37.3971772" lon="-5.9980552">
    <tag k="shop" v="convenience"/>
  </node>
  <node id="3163410286" lat="37.3972241" lon="-5.9978326">
    <tag k="name" v="Casa Pepe"/>
    <tag k="shop" v="convenience"/>
  </node>
  <node id="3163410288" lat="37.3972470" lon="-5.9977174">
    <tag k="name" v="Peluqueria Teodosio"/>
    <tag k="shop" v="hairdresser"/>
  </node>
  <node id="3163410289" lat="37.3971793" lon="-5.9975965">
    <tag k="name" v="Muebles San Lorenzo"/>
    <tag k="shop" v="furniture"/>
  </node>
  <node id="3164416885" lat="37.3859956" lon="-5.9868231">
    <tag k="name" v="Caballeros"/>
    <tag k="opening_hours" v="Mo-Fr 09:00-14:00, 17:00-21:00; Sa 09:00-14:00"/>
    <tag k="shop" v="hairdresser"/>
    <tag k="wheelchair" v="no"/>
  </node>
  <node id="3164416886" lat="37.3868108" lon="-5.9879089">
    <tag k="name" v="Cuchilleria Ferretería"/>
    <tag k="shop" v="hardware"/>
    <tag k="wheelchair" v="limited"/>
  </node>
  <node id="3164416887" lat="37.3875082" lon="-5.9882623">
    <tag k="name" v="El rincón de leiho"/>
    <tag k="shop" v="interior_decoration"/>
    <tag k="wheelchair" v="limited"/>
  </node>
  <node id="3164416888" lat="37.3875852" lon="-5.9883364">
    <tag k="name" v="Imprenta Suárez"/>
    <tag k="shop" v="copyshop"/>
    <tag k="wheelchair" v="no"/>
  </node>
  <node id="3164416889" lat="37.3871595" lon="-5.9882994">
    <tag k="name" v="Interiorismo Concha Núñez"/>
    <tag k="shop" v="interior_decoration"/>
    <tag k="wheelchair" v="no"/>
  </node>
  <node id="3164416890" lat="37.3862651" lon="-5.9871395">
    <tag k="name" v="Los angelitos"/>
    <tag k="opening_hours" v="Mo-Sa 06:45-22:00"/>
    <tag k="shop" v="bakery"/>
    <tag k="wheelchair" v="limited"/>
  </node>
  <node id="3164416891" lat="37.3887835" lon="-5.9925926">
    <tag k="name" v="Los caminos"/>
    <tag k="shop" v="curtain"/>
    <tag k="wheelchair" v="limited"/>
  </node>
  <node id="3164416892" lat="37.3879350" lon="-5.9916494">
    <tag k="contact:email" v="ventas@juanforonda.com"/>
    <tag k="contact:phone" v="95 4228467"/>
    <tag k="contact:website" v="http://www.juanforonda.com"/>
    <tag k="name" v="Mantones Bordados Juan Foronda"/>
    <tag k="opening_hours" v="Mo-Sa 10:00-13:30, 16:30-20:30"/>
    <tag k="shop" v="curtain"/>
    <tag k="wheelchair" v="limited"/>
  </node>
  <node id="3164416893" lat="37.3886839" lon="-5.9926525">
    <tag k="contact:email" v="oleotecasevilla@gmail.com"/>
    <tag k="contact:phone" v="95 5063536"/>
    <tag k="contact:website" v="http://www.lachinata.es"/>
    <tag k="name" v="Oleoteca Gourmet"/>
    <tag k="shop" v="deli"/>
    <tag k="wheelchair" v="limited"/>
  </node>
  <node id="3164416894" lat="37.3857558" lon="-5.9862390">
    <tag k="name" v="Platería"/>
    <tag k="shop" v="jewelry"/>
    <tag k="wheelchair" v="limited"/>
  </node>
  <node id="3164416895" lat="37.3858258" lon="-5.9863249">
    <tag k="contact:email" v="sangrespanolafashion@gmail.com"/>
    <tag k="contact:facebook" v="sangrespanola"/>
    <tag k="contact:phone" v="95 4535551"/>
    <tag k="name" v="Sangrespañola"/>
    <tag k="opening_hours" v="Mo-Sa 09:30-22:00"/>
    <tag k="organic" v="no"/>
    <tag k="second_hand" v="no"/>
    <tag k="shop" v="clothes"/>
    <tag k="website" v="http://www.sangrespanola.com"/>
    <tag k="wheelchair" v="limited"/>
  </node>
  <node id="3164416896" lat="37.3886137" lon="-5.9927636">
    <tag k="name" v="Velasco"/>
    <tag k="shop" v="curtain"/>
    <tag k="wheelchair" v="limited"/>
  </node>
  <node id="3165356183" lat="37.3880582" lon="-5.9199298">
    <tag k="name" v="PCBox"/>
    <tag k="shop" v="computer"/>
    <tag k="website" v="http://www.pcbox.es"/>
  </node>
  <node id="3177877605" lat="37.4166219" lon="-5.9689384">
    <tag k="addr:street" v="Calle Telegrafistas"/>
    <tag k="name" v="TALLERES MIGUEL AUTO"/>
    <tag k="shop" v="car_repair"/>
  </node>
  <node id="3181698667" lat="37.3842682" lon="-5.9856703">
    <tag k="addr:street" v="Calle Rastro"/>
    <tag k="name" v="Talleres San Fco. Javier"/>
    <tag k="shop" v="car_repair"/>
  </node>
  <node id="3181707996" lat="37.3826165" lon="-5.9867191">
    <tag k="addr:street" v="Avenida de Cádiz"/>
    <tag k="shop" v="kiosk"/>
  </node>
  <node id="3181707997" lat="37.3848298" lon="-5.9863838">
    <tag k="addr:street" v="Avenida Menéndez Pelayo"/>
    <tag k="shop" v="kiosk"/>
  </node>
  <node id="3199765727" lat="37.3913134" lon="-5.9842181">
    <tag k="addr:city" v="Sevilla / Casco Antiguo / San Bartolomé"/>
    <tag k="addr:housenumber" v="23"/>
    <tag k="addr:postcode" v="41003"/>
    <tag k="addr:street" v="Calle Recaredo"/>
    <tag k="name" v="Shoiv II"/>
    <tag k="opening_hours" v="Mo-Ss 09:30-13:30,17:00-21:30;Su 10:30-13:30"/>
    <tag k="shop" v="bazar_chino"/>
    <tag k="wheelchair" v="yes"/>
  </node>
  <node id="3199785293" lat="37.3919037" lon="-5.9841939">
    <tag k="addr:city" v="Sevilla / Casco Antiguo / San Bartolomé"/>
    <tag k="addr:housenumber" v="37 acc c"/>
    <tag k="addr:postcode" v="41003"/>
    <tag k="addr:street" v="Calle Recaredo"/>
    <tag k="name" v="Acuario"/>
    <tag k="note" v="Hablan varios idiomas"/>
    <tag k="opening_hours" v="Mo-Fr 09:30-14:00,17:00-20:30;Sa 10:00-14:00"/>
    <tag k="shop" v="dry_cleaning"/>
    <tag k="wheelchair" v="yes"/>
  </node>
  <node id="3199794862" lat="37.3928155" lon="-5.9841357">
    <tag k="addr:city" v="Sevilla / Casco Antiguo / San Bartolomé"/>
    <tag k="addr:housenumber" v="45"/>
    <tag k="addr:postcode" v="41003"/>
    <tag k="addr:street" v="Calle Recaredo"/>
    <tag k="name" v="Farmacia Recaredo"/>
    <tag k="opening_hours" v="Mo-Sa 09:00-22:00"/>
    <tag k="shop" v="medical_supply"/>
    <tag k="wheelchair" v="yes"/>
  </node>
  <node id="3199851604" lat="37.3930204" lon="-5.9845587">
    <tag k="addr:city" v="Sevilla / Casco Antiguo / San Bartolomé"/>
    <tag k="addr:postcode" v="41003"/>
    <tag k="addr:street" v="Calle de Doña Berenguela"/>
    <tag k="name" v="Droguería,perfumería"/>
    <tag k="shop" v="chemist"/>
    <tag k="wheelchair" v="no"/>
  </node>
  <node id="3199866037" lat="37.3933677" lon="-5.9850657">
    <tag k="addr:city" v="Sevilla / Casco Antiguo / San Bartolomé"/>
    <tag k="addr:housenumber" v="21"/>
    <tag k="addr:postcode" v="41003"/>
    <tag k="addr:street" v="calle salinas"/>
    <tag k="name" v="Esteban distribuciones"/>
    <tag k="note" v="Instrumentos musicales, accesorios para bandas"/>
    <tag k="opening_hours" v="Mo-Fr 10:00-13:00,17:30-21:30;Sa 10:00-13:30"/>
    <tag k="phone" v="954220967"/>
    <tag k="shop" v="music"/>
    <tag k="website" v="www.estebandistribuciones.es"/>
    <tag k="wheelchair" v="no"/>
  </node>
  <node id="3199869896" lat="37.3925942" lon="-5.9849852">
    <tag k="addr:city" v="Sevilla / Casco Antiguo / San Bartolomé"/>
    <tag k="addr:housenumber" v="66"/>
    <tag k="addr:postcode" v="41003"/>
    <tag k="addr:street" v="Calle Muro de los Navarros"/>
    <tag k="name" v="Casa tomada"/>
    <tag k="shop" v="books"/>
    <tag k="website" v="www.casastomada.es"/>
    <tag k="wheelchair" v="yes"/>
  </node>
  <node id="3214462140" lat="37.3947991" lon="-5.9864535">
    <tag k="name" v="Pescadería Juan"/>
    <tag k="opening_hours" v="6.30-14.00"/>
    <tag k="shop" v="convenience"/>
    <tag k="wheelchair" v="yes"/>
  </node>
  <node id="3214462141" lat="37.3946457" lon="-5.9863730">
    <tag k="name" v="Sabor Extremeño"/>
    <tag k="shop" v="butcher"/>
    <tag k="wheelchair" v="no"/>
  </node>
  <node id="3214467800" lat="37.3929490" lon="-5.9886325">
    <tag k="name" v="Reguera"/>
    <tag k="shop" v="books"/>
    <tag k="wheelchair" v="yes"/>
  </node>
  <node id="3214483797" lat="37.3938130" lon="-5.9880092">
    <tag k="name" v="Susana y Felipe"/>
    <tag k="shop" v="convenience"/>
    <tag k="wheelchair" v="yes"/>
  </node>
  <node id="3214483798" lat="37.3948870" lon="-5.9879274">
    <tag k="name" v="Valle"/>
    <tag k="shop" v="hairdresser"/>
    <tag k="wheelchair" v="yes"/>
  </node>
  <node id="3214500551" lat="37.3938685" lon="-5.9878993">
    <tag k="name" v="Ignacio"/>
    <tag k="shop" v="books"/>
    <tag k="wheelchair" v="yes"/>
  </node>
  <node id="3215374577" lat="37.3949108" lon="-5.9866289">
    <tag k="name" v="Juan y Enrique"/>
    <tag k="shop" v="convenience"/>
    <tag k="wheelchair" v="yes"/>
  </node>
  <node id="3216019477" lat="37.3938551" lon="-5.9921666">
    <tag k="name" v="Inocente Tentación"/>
    <tag k="shop" v="yes"/>
  </node>
  <node id="3216078129" lat="37.3949536" lon="-5.9914773">
    <tag k="shop" v="bakery"/>
    <tag k="wheelchair" v="yes"/>
  </node>
  <node id="3216079758" lat="37.3938935" lon="-5.9919788">
    <tag k="shop" v="yes"/>
  </node>
  <node id="3216079759" lat="37.3948833" lon="-5.9915094">
    <tag k="name" v="Botes y Latas"/>
    <tag k="shop" v="deli"/>
    <tag k="wheelchair" v="yes"/>
  </node>
  <node id="3216079760" lat="37.3951411" lon="-5.9913807">
    <tag k="name" v="Placer Italiano"/>
    <tag k="shop" v="deli"/>
    <tag k="wheelchair" v="yes"/>
  </node>
  <node id="3216080061" lat="37.3951375" lon="-5.9912728">
    <tag k="name" v="Alimentación ecológica"/>
    <tag k="shop" v="convenience"/>
  </node>
  <node id="3216083141" lat="37.3950261" lon="-5.9914343">
    <tag k="name" v="Oro Moscú"/>
    <tag k="shop" v="clothes"/>
  </node>
  <node id="3216097680" lat="37.3970127" lon="-5.9910985">
    <tag k="addr:housenumber" v="26"/>
    <tag k="addr:street" v="Calle Feria"/>
    <tag k="name" v="Baena"/>
    <tag k="shop" v="books"/>
  </node>
  <node id="3216097681" lat="37.3971214" lon="-5.9913130">
    <tag k="addr:housenumber" v="33"/>
    <tag k="addr:street" v="Calle Feria"/>
    <tag k="name" v="Aurora"/>
    <tag k="shop" v="furniture"/>
  </node>
  <node id="3216109058" lat="37.3954210" lon="-5.9917556">
    <tag k="name" v="Wabi Sabi"/>
    <tag k="shop" v="interior_decoration"/>
  </node>
  <node id="3216109059" lat="37.3950736" lon="-5.9913050">
    <tag k="name" v="Q Mono"/>
    <tag k="shop" v="interior_decoration"/>
  </node>
  <node id="3221627556" lat="37.3899587" lon="-5.9882764">
    <tag k="addr:city" v="Sevilla"/>
    <tag k="addr:country" v="ES"/>
    <tag k="addr:housenumber" v="35"/>
    <tag k="addr:postcode" v="41003"/>
    <tag k="addr:street" v="Calle Águilas"/>
    <tag k="contact:phone" v="+34 954 220 096"/>
    <tag k="contact:website" v="www.artesanosevilla.com"/>
    <tag k="name" v="Arte-Sano"/>
    <tag k="opening_hours" v="Mo-Fr 10:00-14:00,17:00-20:30; Sa 10:30-13:30"/>
    <tag k="shop" v="gift"/>
    <tag k="wheelchair" v="no"/>
  </node>
  <node id="3221627557" lat="37.3898805" lon="-5.9888983">
    <tag k="addr:city" v="Sevilla"/>
    <tag k="addr:country" v="ES"/>
    <tag k="addr:housenumber" v="13"/>
    <tag k="addr:postcode" v="41003"/>
    <tag k="addr:street" v="Calle Águilas"/>
    <tag k="contact:phone" v="+34 954 227 711"/>
    <tag k="contact:website" v="http://www.esteticadiez.com/"/>
    <tag k="name" v="Estética Díez"/>
    <tag k="opening_hours" v="Mo-Fr 10:00-14:00,17:00-20:30; Sa 10:30-13:30"/>
    <tag k="shop" v="beauty"/>
    <tag k="wheelchair" v="limited"/>
  </node>
  <node id="3221627558" lat="37.3899696" lon="-5.9883769">
    <tag k="name" v="Panadería Esperanza"/>
    <tag k="opening_hours" v="Mo-Fr 10:00-14:00,17:30-20:30; Sa 10:30-13:30"/>
    <tag k="shop" v="bakery"/>
    <tag k="wheelchair" v="no"/>
  </node>
  <node id="3221627559" lat="37.3897972" lon="-5.9867394">
    <tag k="addr:city" v="Sevilla"/>
    <tag k="addr:country" v="ES"/>
    <tag k="addr:housenumber" v="1"/>
    <tag k="addr:postcode" v="41003"/>
    <tag k="addr:street" v="San Esteban"/>
    <tag k="contact:email" v="pilatos1sevilla@hotmail.com"/>
    <tag k="contact:facebook" v="https://www.facebook.com/pages/Pilatos-I/259508257583013"/>
    <tag k="contact:phone" v="+34 954 225 114"/>
    <tag k="name" v="Pilatos I"/>
    <tag k="opening_hours" v="Mo-Fr 10:00-14:00,17:00-20:30; Sa 10:30-13:30"/>
    <tag k="shop" v="clothes"/>
    <tag k="wheelchair" v="yes"/>
  </node>
  <node id="3221627560" lat="37.3894156" lon="-5.9851542">
    <tag k="addr:city" v="Sevilla"/>
    <tag k="addr:country" v="ES"/>
    <tag k="addr:housenumber" v="36"/>
    <tag k="addr:street" v="San Esteban"/>
    <tag k="contact:email" v="clientes@tapiceriaroyamo.es"/>
    <tag k="contact:phone" v="+34 954 420 728"/>
    <tag k="contact:website" v="www.tapiceriaroyamo.es"/>
    <tag k="craft" v="upholsterer"/>
    <tag k="name" v="Tapicería Royamo"/>
    <tag k="opening_hours" v="Mo-Fr 09:30-14:30,17:30-21:00; Sa 10:00-13:30"/>
    <tag k="shop" v="craft"/>
    <tag k="wheelchair" v="yes"/>
  </node>
  <node id="3221628261" lat="37.3891970" lon="-5.9847640">
    <tag k="addr:city" v="Sevilla"/>
    <tag k="addr:country" v="ES"/>
    <tag k="addr:housenumber" v="42"/>
    <tag k="addr:street" v="San Esteban"/>
    <tag k="contact:email" v="comercial@tintastecnoprint.com"/>
    <tag k="contact:facebook" v="https://www.facebook.com/tintastecnoprint.es?fref=ts"/>
    <tag k="contact:phone" v="+34 954 535 483"/>
    <tag k="contact:website" v="www.tintastecnoprint.com"/>
    <tag k="name" v="Tintas Tecnoprint"/>
    <tag k="opening_hours" v="Mo-Fr 10:00-14:00,17:00-20:30; Sa 10:30-13:30"/>
    <tag k="shop" v="copyshop"/>
    <tag k="wheelchair" v="no"/>
  </node>
  <node id="3221628262" lat="37.3892639" lon="-5.9849280">
    <tag k="shop" v="vacant"/>
    <tag k="wheelchair" v="yes"/>
  </node>
  <node id="3221666455" lat="37.3900540" lon="-5.9900111">
    <tag k="addr:city" v="Sevilla"/>
    <tag k="addr:country" v="ES"/>
    <tag k="addr:housenumber" v="13"/>
    <tag k="addr:postcode" v="41004"/>
    <tag k="addr:street" v="Calle Alfalfa"/>
    <tag k="contact:email" v="info@aireropacomplementos.com"/>
    <tag k="contact:facebook" v="https://www.facebook.com/pages/Aire-Ropa-Complementos/294491607409851"/>
    <tag k="contact:phone" v="+34 630 862 086"/>
    <tag k="contact:website" v="www.aireropacomplementos.com"/>
    <tag k="name" v="Aire Ropa &amp; Complentos"/>
    <tag k="opening_hours" v="Mo-Sa 10:00-14:00,18:00-21:00"/>
    <tag k="shop" v="clothes"/>
  </node>
  <node id="3221666456" lat="37.3901243" lon="-5.9902049">
    <tag k="name" v="Antik"/>
    <tag k="opening_hours" v="Mo-Fr 10:00-14:00,17:00-20:30; Sa 10:30-13:30"/>
    <tag k="shop" v="antiques"/>
    <tag k="wheelchair" v="no"/>
  </node>
  <node id="3221666457" lat="37.3899486" lon="-5.9893954">
    <tag k="addr:city" v="Sevilla"/>
    <tag k="addr:country" v="ES"/>
    <tag k="addr:housenumber" v="3"/>
    <tag k="addr:postcode" v="41004"/>
    <tag k="addr:street" v="Calle Águilas"/>
    <tag k="name" v="Don Barato"/>
    <tag k="opening_hours" v="Mo-Fr 10:00-14:00,17:00-20:30; Sa 10:30-13:30"/>
    <tag k="shop" v="variety_store"/>
    <tag k="wheelchair" v="yes"/>
  </node>
  <node id="3221666458" lat="37.3901017" lon="-5.9901548">
    <tag k="addr:city" v="Sevilla"/>
    <tag k="addr:country" v="ES"/>
    <tag k="addr:housenumber" v="7"/>
    <tag k="addr:postcode" v="41004"/>
    <tag k="addr:street" v="Calle Alfalfa"/>
    <tag k="contact:email" v="lankajewerely@gmail.com"/>
    <tag k="contact:phone" v="+34 955 101 886"/>
    <tag k="contact:website" v="arteycreaciongalan.es"/>
    <tag k="name" v="La Gitana Loca"/>
    <tag k="opening_hours" v="Mo-Fr 10:00-14:00,17:00-20:30; Sa 10:30-13:30"/>
    <tag k="shop" v="jewelry"/>
    <tag k="wheelchair" v="no"/>
  </node>
  <node id="3221666459" lat="37.3900149" lon="-5.9897888">
    <tag k="addr:city" v="Sevilla"/>
    <tag k="addr:country" v="ES"/>
    <tag k="addr:housenumber" v="15"/>
    <tag k="addr:postcode" v="41004"/>
    <tag k="addr:street" v="Calle Alfalfa"/>
    <tag k="contact:email" v="puravidaminerales@hotmail.com"/>
    <tag k="contact:facebook" v="https://www.facebook.com/puravida.minerales"/>
    <tag k="contact:phone" v="+34 954 228 113"/>
    <tag k="craft" v="jeweller"/>
    <tag k="opening_hours" v="Mo-Fr 10:00-14:00,17:00-20:30; Sa 10:30-13:30"/>
    <tag k="shop" v="craft"/>
    <tag k="wheelchair" v="limited"/>
  </node>
  <node id="3221666460" lat="37.3899285" lon="-5.9896971">
    <tag k="contact:email" v="info@panypiu.es"/>
    <tag k="contact:fax" v="+34 955 642 024"/>
    <tag k="contact:phone" v="+34 954 219 348"/>
    <tag k="contact:website" v="http://panypiu.es/"/>
    <tag k="name" v="Pan y Più"/>
    <tag k="opening_hours" v="Mo-Sa 08:30-22:00"/>
    <tag k="shop" v="bakery"/>
    <tag k="wheelchair" v="no"/>
  </node>
  <node id="3221666661" lat="37.3898894" lon="-5.9890659">
    <tag k="addr:city" v="Sevilla"/>
    <tag k="addr:country" v="ES"/>
    <tag k="addr:housenumber" v="11"/>
    <tag k="addr:postcode" v="41003"/>
    <tag k="addr:street" v="Calle Águilas"/>
    <tag k="contact:email" v="travelplanetspain@gmail.com"/>
    <tag k="contact:facebook" v="https://www.facebook.com/PlanetSpain.Sevilla"/>
    <tag k="contact:phone" v="+34 955 288 721"/>
    <tag k="contact:website" v="http://planetspain.es/inicio/"/>
    <tag k="name" v="Planet Spain"/>
    <tag k="opening_hours" v="Mo-Th 11:00-14:00,18:00-20:00; Fr 11:00-14:00"/>
    <tag k="shop" v="travel_agency"/>
    <tag k="wheelchair" v="no"/>
  </node>
  <node id="3221666662" lat="37.3898411" lon="-5.9891656">
    <tag k="addr:city" v="Sevilla"/>
    <tag k="addr:country" v="ES"/>
    <tag k="addr:housenumber" v="8"/>
    <tag k="addr:postcode" v="41004"/>
    <tag k="addr:street" v="Calle Águilas"/>
    <tag k="contact:email" v="aguilas@printsandfriends.com"/>
    <tag k="contact:phone" v="+34 954 212 774"/>
    <tag k="name" v="prints&amp;friends"/>
    <tag k="opening_hours" v="Mo-Fr 10:00-14:00,17:00-20:30; Sa 10:30-13:30"/>
    <tag k="shop" v="copyshop"/>
    <tag k="wheelchair" v="yes"/>
  </node>
  <node id="3232868280" lat="37.4032773" lon="-5.9275241">
    <tag k="name" v="Panadería Las Ciencias"/>
    <tag k="shop" v="grocery"/>
  </node>
  <node id="3233518395" lat="37.3996563" lon="-5.9941082">
    <tag k="addr:postcode" v="41002"/>
    <tag k="addr:street" v="Alameda de Hércules"/>
    <tag k="name" v="Kiosco de prensa. Fotocopias"/>
    <tag k="shop" v="newsagent"/>
    <tag k="wheelchair" v="yes"/>
  </node>
  <node id="3233518396" lat="37.3992501" lon="-5.9935015">
    <tag k="addr:postcode" v="41002"/>
    <tag k="addr:street" v="Alameda de Hércules"/>
    <tag k="name" v="Kiosco de prensa"/>
    <tag k="shop" v="newsagent"/>
    <tag k="wheelchair" v="yes"/>
  </node>
  <node id="3233586525" lat="37.3987084" lon="-5.9933246">
    <tag k="addr:city" v="Sevilla"/>
    <tag k="addr:housenumber" v="73"/>
    <tag k="addr:postcode" v="41002"/>
    <tag k="addr:street" v="Alameda de Hércules"/>
    <tag k="name" v="Floristería y vivero"/>
    <tag k="shop" v="florist"/>
    <tag k="wheelchair" v="yes"/>
  </node>
  <node id="3233655351" lat="37.3975240" lon="-5.9943926">
    <tag k="addr:city" v="Sevilla"/>
    <tag k="addr:housenumber" v="21"/>
    <tag k="addr:postcode" v="41002"/>
    <tag k="addr:street" v="Alameda de Hércules"/>
    <tag k="name" v="Muebles de oficina Martínez &amp; GIOVANNI"/>
    <tag k="phone" v="+34 954 38 34 61"/>
    <tag k="shop" v="furniture"/>
    <tag k="website" v="www.martinezgiovanni.com/"/>
  </node>
  <node id="3233672752" lat="37.3970212" lon="-5.9934045">
    <tag k="addr:city" v="Sevilla"/>
    <tag k="addr:postcode" v="41002"/>
    <tag k="addr:street" v="Calle Amor de Dios"/>
    <tag k="name" v="Dulce Dolor Sevilla"/>
    <tag k="shop" v="tattoo"/>
    <tag k="website" v="https://www.facebook.com/dulcedolor.tattoopiercings"/>
  </node>
  <node id="3233673173" lat="37.3966877" lon="-5.9937234">
    <tag k="addr:city" v="Sevilla"/>
    <tag k="addr:housenumber" v="60"/>
    <tag k="addr:postcode" v="41002"/>
    <tag k="addr:street" v="Calle Amor de Dios"/>
    <tag k="name" v="Cupcakes &amp; go"/>
    <tag k="shop" v="pastry"/>
    <tag k="shop_2" v="bakery"/>
    <tag k="website" v="http://www.cupcakesandgo.com/"/>
  </node>
  <node id="3233674603" lat="37.3968999" lon="-5.9934450">
    <tag k="addr:city" v="Sevilla"/>
    <tag k="addr:postcode" v="41002"/>
    <tag k="addr:street" v="Calle Amor de Dios"/>
    <tag k="name" v="Bazar Alimentación"/>
    <tag k="shop" v="convenience"/>
  </node>
  <node id="3233675714" lat="37.3969259" lon="-5.9933961">
    <tag k="addr:city" v="Sevilla"/>
    <tag k="addr:housenumber" v="66"/>
    <tag k="addr:postcode" v="41002"/>
    <tag k="addr:street" v="Calle Amor de Dios"/>
    <tag k="name" v="Totemtanz Records"/>
    <tag k="shop" v="music"/>
    <tag k="website" v="http://www.totemtanz.com/"/>
  </node>
  <node id="3233677016" lat="37.3971434" lon="-5.9930345">
    <tag k="name" v="Rótulos luminosos neón. Serigrafía. Impresión digital"/>
    <tag k="shop" v="electronics"/>
  </node>
  <node id="3234766257" lat="37.3973413" lon="-5.9929395">
    <tag k="addr:city" v="Sevilla"/>
    <tag k="addr:postcode" v="41002"/>
    <tag k="addr:street" v="Calle Correduría"/>
    <tag k="name" v="Galería de arte. Lugadero"/>
    <tag k="shop" v="art"/>
    <tag k="website" v="http://www.lugadero.com/"/>
    <tag k="wheelchair" v="yes"/>
  </node>
  <node id="3234768504" lat="37.3974022" lon="-5.9928607">
    <tag k="addr:city" v="Sevilla"/>
    <tag k="addr:housenumber" v="5"/>
    <tag k="addr:postcode" v="41002"/>
    <tag k="addr:street" v="Calle Correduría"/>
    <tag k="shop" v="books"/>
    <tag k="wheelchair" v="yes"/>
  </node>
  <node id="3234773265" lat="37.3975774" lon="-5.9926139">
    <tag k="addr:city" v="Sevilla"/>
    <tag k="addr:housenumber" v="17-19"/>
    <tag k="addr:postcode" v="41002"/>
    <tag k="addr:street" v="Calle Correduría"/>
    <tag k="name" v="App Informática"/>
    <tag k="shop" v="computer"/>
    <tag k="website" v="http://www.appinformatica.com/"/>
  </node>
  <node id="3234776414" lat="37.3975962" lon="-5.9924432">
    <tag k="addr:city" v="Sevilla"/>
    <tag k="addr:housenumber" v="30"/>
    <tag k="addr:postcode" v="41002"/>
    <tag k="addr:street" v="Calle Correduría"/>
    <tag k="name" v="Llera Peluqueros"/>
    <tag k="shop" v="hairdresser"/>
    <tag k="website" v="http://www.llerapeluqueros.com/"/>
  </node>
  <node id="3234781743" lat="37.3978097" lon="-5.9921374">
    <tag k="addr:city" v="Sevilla"/>
    <tag k="addr:housenumber" v="40"/>
    <tag k="addr:postcode" v="41002"/>
    <tag k="addr:street" v="Calle Correduría"/>
    <tag k="name" v="Flamenco Design"/>
    <tag k="opening_hours" v="Mo-Fr 17:30-21:00;Sa 11:00-14:00"/>
    <tag k="phone" v="+34 658132669"/>
    <tag k="shop" v="clothes"/>
    <tag k="website" v="http://shop.flamencodesign.eu/"/>
  </node>
  <node id="3234791245" lat="37.3978338" lon="-5.9920799">
    <tag k="addr:city" v="Sevilla"/>
    <tag k="addr:housenumber" v="42"/>
    <tag k="addr:postcode" v="41002"/>
    <tag k="addr:street" v="Calle Correduría"/>
    <tag k="name" v="C42 Espacio múltiple. Muebles Vintage"/>
    <tag k="phone" v="+34 955 295381"/>
    <tag k="shop" v="furniture"/>
    <tag k="website" v="http://c42.es/"/>
  </node>
  <node id="3249085207" lat="37.3984106" lon="-5.9851387">
    <tag k="addr:street" v="Plaza Moravia"/>
    <tag k="name" v="Pepe"/>
    <tag k="shop" v="greengrocer"/>
    <tag k="wheelchair" v="yes"/>
  </node>
  <node id="3297241647" lat="37.3894653" lon="-5.9850499">
    <tag k="addr:city" v="Sevilla / Casco Antiguo / San Bartolomé"/>
    <tag k="addr:postcode" v="41003"/>
    <tag k="addr:street" v="Calle San Esteban"/>
    <tag k="name" v="El asador de San Esteban (pollos)"/>
    <tag k="opening_hours" v="Mo-Su 11:30-15:30"/>
    <tag k="shop" v="convenience"/>
    <tag k="wheelchair" v="yes"/>
  </node>
  <node id="3297251769" lat="37.3895185" lon="-5.9850982">
    <tag k="addr:city" v="Sevilla / Casco Antiguo / San Bartolomé"/>
    <tag k="addr:housenumber" v="35"/>
    <tag k="addr:postcode" v="41003"/>
    <tag k="addr:street" v="Calle San Esteban"/>
    <tag k="operator" v="El rincón del nazareno"/>
    <tag k="shop" v="clothes"/>
    <tag k="wheelchair" v="no"/>
  </node>
  <node id="3297257236" lat="37.3895995" lon="-5.9852645">
    <tag k="addr:city" v="Sevilla / Casco Antiguo / San Bartolomé"/>
    <tag k="addr:housenumber" v="27"/>
    <tag k="addr:postcode" v="41003"/>
    <tag k="addr:street" v="Calle San Esteban"/>
    <tag k="name" v="Charo López (ropa mujer)"/>
    <tag k="opening_hours" v="Mo-Fr 10:00-14:00;17:30-21:00 Sa 10:00-14:00"/>
    <tag k="shop" v="clothes"/>
    <tag k="wheelchair" v="yes"/>
  </node>
  <node id="3317236948" lat="37.3827343" lon="-5.9738138">
    <tag k="name" v="Fresh DIA"/>
    <tag k="shop" v="supermarket"/>
  </node>
  <node id="3351793560" lat="37.3851843" lon="-5.9866249">
    <tag k="shop" v="kiosk"/>
    <tag k="source" v="ide.Sevilla"/>
    <tag k="source:date" v="2011"/>
  </node>
  <node id="3368098763" lat="37.3850529" lon="-5.9725103">
    <tag k="shop" v="kiosk"/>
    <tag k="source" v="PNOA"/>
    <tag k="source:date" v="2013"/>
  </node>
  <node id="3390038885" lat="37.3755656" lon="-5.9997345">
    <tag k="name" v="LIDL"/>
    <tag k="shop" v="supermarket"/>
  </node>
  <node id="3397891225" lat="37.4109179" lon="-5.9253627">
    <tag k="name" v="El Jamón"/>
    <tag k="shop" v="supermarket"/>
  </node>
  <node id="3402025023" lat="37.3804124" lon="-5.9368224">
    <tag k="addr:city" v="Sevilla"/>
    <tag k="addr:housenumber" v="11"/>
    <tag k="addr:postcode" v="41006"/>
    <tag k="addr:street" v="Calle San José de Palmete"/>
    <tag k="name" v="Bazarot e Hijos"/>
    <tag k="note" v="Materiales de Construccion en Sevilla, Alquiler de Cubas y Contenedores de Obra y Ferreteria. Áridos, terrazos, morteros, yesos, Albero, Cemento, Canto Rodado Blanco, Herramientas."/>
    <tag k="opening_hours" v="De 9 a 19"/>
    <tag k="phone" v="954516771"/>
    <tag k="shop" v="doityourself"/>
    <tag k="website" v="http://bazarotehijos.com"/>
    <tag k="wheelchair" v="yes"/>
  </node>
  <node id="3402072552" lat="37.3747036" lon="-5.9256767">
    <tag k="addr:city" v="Sevilla"/>
    <tag k="addr:housenumber" v="15"/>
    <tag k="addr:postcode" v="41006"/>
    <tag k="addr:street" v="Calle Pino Ponderosa"/>
    <tag k="name" v="Vestuario Laboral y EPIS Bazarot e Hijos"/>
    <tag k="note" v="Vestuario Laboral. Ropa de Trabajo y Equipos de Protección Individual en Sevilla y Tienda On-Line para todo el mundo."/>
    <tag k="opening_hours" v="De 9 a 19"/>
    <tag k="phone" v="954676329"/>
    <tag k="shop" v="clothes"/>
    <tag k="website" v="http://www.vestuariolaboralsevilla.es"/>
    <tag k="wheelchair" v="yes"/>
  </node>
  <node id="3414773928" lat="37.4122020" lon="-5.9888892">
    <tag k="name" v="Sevilla Bikes"/>
    <tag k="shop" v="bicycle"/>
    <tag k="website" v="http://sevillabikes.es/"/>
  </node>
  <node id="3415845917" lat="37.3557604" lon="-5.9867260">
    <tag k="addr:city" v="Sevilla"/>
    <tag k="addr:housenumber" v="1"/>
    <tag k="addr:postcode" v="41012"/>
    <tag k="addr:street" v="Glorieta Alcalde Fernando Parias Merry"/>
    <tag k="contact:email" v="lourdes.mauri@hotmail.es"/>
    <tag k="contact:phone" v="649 950 805"/>
    <tag k="name" v="Lourdes Mauri Regalos y Complementos"/>
    <tag k="shop" v="gift"/>
  </node>
  <node id="3418199993" lat="37.3856338" lon="-5.9945406">
    <tag k="name" v="El Torno"/>
    <tag k="shop" v="bakery"/>
  </node>
  <node id="3423401360" lat="37.3851880" lon="-5.9693135">
    <tag k="shop" v="toys"/>
  </node>
  <node id="3453362363" lat="37.3559169" lon="-5.9850272">
    <tag k="name" v="Panadería Ana"/>
    <tag k="shop" v="bakery"/>
  </node>
  <node id="3468122037" lat="37.3964293" lon="-5.9751379">
    <tag k="addr:city" v="Sevilla"/>
    <tag k="addr:housenumber" v="44"/>
    <tag k="addr:street" v="Calle Samaniego"/>
    <tag k="name" v="Charly's Estudio Creativo"/>
    <tag k="phone" v="954 10 38 78"/>
    <tag k="shop" v="hairdresser"/>
    <tag k="wheelchair" v="yes"/>
  </node>
  <node id="3469142887" lat="37.3966108" lon="-5.9752479">
    <tag k="addr:city" v="Sevilla"/>
    <tag k="addr:housenumber" v="42"/>
    <tag k="addr:postcode" v="41008"/>
    <tag k="addr:street" v="Calle Samaniego"/>
    <tag k="name" v="Alimentación La Esquinita"/>
    <tag k="opening_hours" v="Mo-Su:08:00-14:30,17:30-20:30"/>
    <tag k="phone" v="+34 954 531 156"/>
    <tag k="shop" v="convenience"/>
    <tag k="wheelchair" v="yes"/>
  </node>
  <node id="3514314902" lat="37.3971381" lon="-5.9916693">
    <tag k="addr:city" v="Sevilla"/>
    <tag k="addr:housenumber" v="32-34"/>
    <tag k="addr:place" v="Alameda"/>
    <tag k="addr:postcode" v="41002"/>
    <tag k="addr:street" v="Conde de Torrejón"/>
    <tag k="amenity" v="arts_centre"/>
    <tag k="artist_name" v="Varios"/>
    <tag k="artwork_type" v="painting"/>
    <tag k="capacity" v="30"/>
    <tag k="designation" v="Galería-Bar"/>
    <tag k="drinking_water" v="yes"/>
    <tag k="internet_access" v="yes"/>
    <tag k="name" v="Moscow&amp;Artspirits."/>
    <tag k="opening_hours" v="20:00-2:00"/>
    <tag k="operator" v="Abilio Dominguez Salanova"/>
    <tag k="phone" v="+34692813122"/>
    <tag k="shop" v="paint"/>
    <tag k="source" v="32-34"/>
    <tag k="tourism" v="artwork"/>
    <tag k="website" v="https://www.MoscowArtSpirits.com"/>
    <tag k="wheelchair" v="yes"/>
  </node>
  <node id="3530480495" lat="37.3832760" lon="-5.9740900">
    <tag k="name" v="Estanco"/>
    <tag k="shop" v="tobacco"/>
    <tag k="wheelchair" v="yes"/>
  </node>
  <node id="3541463612" lat="37.3754872" lon="-5.9968442">
    <tag k="addr:housenumber" v="44B"/>
    <tag k="addr:street" v="Calle Monte Carmelo"/>
    <tag k="name" v="Yo lo Bordo"/>
    <tag k="shop" v="gift"/>
  </node>
  <node id="3549829441" lat="37.3768010" lon="-5.9983519">
    <tag k="name" v="Al Tul-Tul"/>
    <tag k="shop" v="clothes"/>
    <tag k="source" v="flashmapmob"/>
  </node>
  <node id="3576735945" lat="37.3763694" lon="-5.9991702">
    <tag k="name" v="Agea Decoracion"/>
    <tag k="shop" v="interior_decoration"/>
    <tag k="source" v="flashmapmob"/>
  </node>
  <node id="3576736215" lat="37.3766920" lon="-5.9983478">
    <tag k="name" v="Thercio"/>
    <tag k="shop" v="clothes"/>
    <tag k="source" v="flashmapmob"/>
  </node>
  <node id="3581117745" lat="37.3882576" lon="-5.9531704">
    <tag k="addr:housenumber" v="8"/>
    <tag k="addr:postcode" v="41007"/>
    <tag k="addr:street" v="Avenida de la Industria"/>
    <tag k="name" v="BSH Interservice"/>
    <tag k="opening_hours" v="10:00-13:30,16:00-19:00"/>
    <tag k="phone" v="902351352 / 976305712"/>
    <tag k="second_hand" v="only"/>
    <tag k="shop" v="electronics"/>
    <tag k="website" v="https://www.bshie.com"/>
  </node>
  <node id="3631771814" lat="37.3940296" lon="-5.9917788">
    <tag k="addr:housenumber" v="1-1"/>
    <tag k="designation" v="Mercería"/>
    <tag k="name" v="Tricotela"/>
    <tag k="shop" v="clothes"/>
  </node>
  <node id="3631779714" lat="37.3874601" lon="-5.9798330">
    <tag k="addr:city" v="Sevilla"/>
    <tag k="addr:housenumber" v="46"/>
    <tag k="addr:postcode" v="41018"/>
    <tag k="addr:street" v="Calle Luis Montoto"/>
    <tag k="name" v="Carrefour Express"/>
    <tag k="operator" v="Carrefour"/>
    <tag k="shop" v="supermarket"/>
  </node>
  <node id="3725324901" lat="37.4104342" lon="-5.9269774">
    <tag k="shop" v="hairdresser"/>
  </node>
  <node id="3725328374" lat="37.4108539" lon="-5.9254298">
    <tag k="name" v="Perfumeria Ana"/>
    <tag k="operator" v="Perfumeria Ana"/>
    <tag k="shop" v="supermarket"/>
  </node>
  <node id="3747708965" lat="37.3896524" lon="-5.9930935">
    <tag k="shop" v="kiosk"/>
    <tag k="source" v="survey"/>
  </node>
  <node id="3762625338" lat="37.3948954" lon="-5.9951139">
    <tag k="addr:city" v="Sevilla"/>
    <tag k="addr:housenumber" v="18"/>
    <tag k="addr:postcode" v="41002"/>
    <tag k="addr:street" v="Calle Trajano"/>
    <tag k="name" v="Padilla Libros Editores y Libreros"/>
    <tag k="shop" v="books"/>
    <tag k="shop_1" v="bookmaker"/>
    <tag k="shop_2" v="publisher"/>
  </node>
  <node id="3762633455" lat="37.3961539" lon="-5.9912399">
    <tag k="addr:city" v="Sevilla"/>
    <tag k="addr:housenumber" v="15"/>
    <tag k="addr:postcode" v="41003"/>
    <tag k="addr:street" v="Calle Feria"/>
    <tag k="name" v="La Canastilla de mi Bebé"/>
    <tag k="shop" v="baby_goods"/>
  </node>
  <node id="3762983100" lat="37.3911196" lon="-5.9935426">
    <tag k="name" v="Catedral"/>
    <tag k="shop" v="shoes"/>
  </node>
  <node id="3762983101" lat="37.3910654" lon="-5.9938834">
    <tag k="description" v="Ropa interior y bebe"/>
    <tag k="name" v="Ester Santos"/>
    <tag k="shop" v="clothes"/>
  </node>
  <node id="3762983102" lat="37.3908912" lon="-5.9934364">
    <tag k="name" v="Galerías Madrid"/>
    <tag k="shop" v="clothes"/>
  </node>
  <node id="3762983103" lat="37.3910542" lon="-5.9941347">
    <tag k="name" v="Joyeria Emilia Garcia"/>
    <tag k="shop" v="jewellery"/>
  </node>
  <node id="3762983104" lat="37.3911007" lon="-5.9936489">
    <tag k="name" v="Modas Trajes Sevillanos Muñoz SL"/>
    <tag k="shop" v="clothes"/>
  </node>
  <node id="3762983105" lat="37.3910064" lon="-5.9943489">
    <tag k="name" v="Nice Things"/>
    <tag k="shop" v="clothes"/>
  </node>
  <node id="3762983106" lat="37.3910613" lon="-5.9939182">
    <tag k="name" v="Nicolas"/>
    <tag k="shop" v="shoes"/>
  </node>
  <node id="3762983107" lat="37.3910884" lon="-5.9937296">
    <tag k="name" v="Queraltó"/>
    <tag k="shop" v="medical_supply"/>
  </node>
  <node id="3762983108" lat="37.3908018" lon="-5.9944327">
    <tag k="addr:housenumber" v="55"/>
    <tag k="addr:street" v="Calle Sierpes"/>
    <tag k="name" v="Stradivarius"/>
    <tag k="shop" v="clothes"/>
  </node>
  <node id="3762983109" lat="37.3910459" lon="-5.9942038">
    <tag k="name" v="Swatch"/>
    <tag k="shop" v="watches"/>
  </node>
  <node id="3762983110" lat="37.3910499" lon="-5.9939802">
    <tag k="name" v="Tramas"/>
    <tag k="shop" v="interior_decoration"/>
  </node>
  <node id="3762983111" lat="37.3910768" lon="-5.9938022">
    <tag k="name" v="Tutto Tempo"/>
    <tag k="shop" v="clothes"/>
  </node>
  <node id="3765473072" lat="37.3935845" lon="-5.9930328">
    <tag k="addr:housenumber" v="9"/>
    <tag k="addr:postcode" v="41003"/>
    <tag k="addr:street" v="Calle Arguijo"/>
    <tag k="name" v="Asúca"/>
    <tag k="shop" v="tea"/>
    <tag k="website" v="http://tiendadete.es"/>
  </node>
  <node id="3765829020" lat="37.3919983" lon="-5.9953663">
    <tag k="name" v="H&amp;M"/>
    <tag k="shop" v="clothes"/>
  </node>
  <node id="3765829021" lat="37.3921988" lon="-5.9953358">
    <tag k="name" v="Mango"/>
    <tag k="shop" v="clothes"/>
  </node>
  <node id="3765829023" lat="37.3924227" lon="-5.9953280">
    <tag k="name" v="Trucco"/>
    <tag k="shop" v="clothes"/>
  </node>
  <node id="3769058265" lat="37.3909531" lon="-5.9947777">
    <tag k="name" v="Amichi"/>
    <tag k="shop" v="clothes"/>
  </node>
  <node id="3769058266" lat="37.3911897" lon="-5.9946672">
    <tag k="name" v="Bodybell"/>
    <tag k="shop" v="perfumery"/>
  </node>
  <node id="3769058267" lat="37.3909831" lon="-5.9949135">
    <tag k="name" v="Chicco"/>
    <tag k="shop" v="baby_goods"/>
  </node>
  <node id="3769058268" lat="37.3915706" lon="-5.9947805">
    <tag k="name" v="Foto Supra"/>
    <tag k="shop" v="photo"/>
  </node>
  <node id="3769058269" lat="37.3909893" lon="-5.9945887">
    <tag k="name" v="J. Murioz"/>
    <tag k="shop" v="jewelry"/>
  </node>
  <node id="3769058270" lat="37.3911322" lon="-5.9954674">
    <tag k="name" v="Massimo Dutti"/>
    <tag k="shop" v="clothes"/>
  </node>
  <node id="3769058271" lat="37.3910071" lon="-5.9950332">
    <tag k="name" v="Prenatal"/>
    <tag k="shop" v="baby_goods"/>
  </node>
  <node id="3769058272" lat="37.3909586" lon="-5.9946902">
    <tag k="name" v="e-Tong"/>
    <tag k="shop" v="mobile_phone"/>
  </node>
  <node id="3790470465" lat="37.3858661" lon="-5.9941442">
    <tag k="name" v="Calzados Catedral"/>
    <tag k="shop" v="shoes"/>
  </node>
  <node id="3790470466" lat="37.3859359" lon="-5.9941555">
    <tag k="name" v="Félix"/>
    <tag k="shop" v="gift"/>
  </node>
  <node id="3790470467" lat="37.3857946" lon="-5.9941345">
    <tag k="name" v="Pilar Burgos"/>
    <tag k="shop" v="shoes"/>
  </node>
  <node id="3790470549" lat="37.3820908" lon="-5.9932350">
    <tag k="shop" v="kiosk"/>
  </node>
  <node id="3790471479" lat="37.3851479" lon="-5.9944599">
    <tag k="shop" v="kiosk"/>
    <tag k="source" v="survey"/>
  </node>
  <node id="3790471496" lat="37.3859109" lon="-5.9941492">
    <tag k="shop" v="tobacco"/>
  </node>
  <node id="3791142668" lat="37.3968245" lon="-5.9938549">
    <tag k="shop" v="kiosk"/>
    <tag k="source" v="survey"/>
  </node>
  <node id="3797318488" lat="37.3917332" lon="-5.9962676">
    <tag k="name" v="Butlers"/>
    <tag k="shop" v="interior_decoration"/>
  </node>
  <node id="3797318489" lat="37.3918542" lon="-5.9960082">
    <tag k="name" v="Charanga"/>
    <tag k="shop" v="baby_goods"/>
  </node>
  <node id="3797318491" lat="37.3919081" lon="-5.9959087">
    <tag k="name" v="Zara Home"/>
    <tag k="shop" v="interior_decoration"/>
  </node>
  <node id="3798286884" lat="37.3793629" lon="-5.9887911">
    <tag k="shop" v="kiosk"/>
  </node>
  <node id="3798286943" lat="37.3804525" lon="-5.9884303">
    <tag k="shop" v="kiosk"/>
  </node>
  <node id="3802857720" lat="37.3853673" lon="-5.9886450">
    <tag k="name" v="Antigüedades Santa Teresa"/>
    <tag k="shop" v="antiques"/>
  </node>
  <node id="3809939015" lat="37.3897155" lon="-5.9950900">
    <tag k="name" v="Camper"/>
    <tag k="shop" v="shoes"/>
  </node>
  <node id="3809939016" lat="37.3898344" lon="-5.9951175">
    <tag k="name" v="Cortefiel"/>
    <tag k="shop" v="clothes"/>
  </node>
  <node id="3809939017" lat="37.3897717" lon="-5.9951031">
    <tag k="name" v="Imaginarium"/>
    <tag k="shop" v="toys"/>
  </node>
  <node id="3809939018" lat="37.3895809" lon="-5.9950663">
    <tag k="description" v="Mantones y mantillas bordados a mano"/>
    <tag k="name" v="Juan Foronda"/>
    <tag k="shop" v="boutique"/>
    <tag k="website" v="http://juanforonda.com/"/>
  </node>
  <node id="3809939019" lat="37.3896442" lon="-5.9950785">
    <tag k="name" v="Kiko"/>
    <tag k="shop" v="cosmetics"/>
  </node>
  <node id="3809939020" lat="37.3899763" lon="-5.9955788">
    <tag k="name" v="Tonos"/>
    <tag k="shop" v="curtain"/>
  </node>
  <node id="3817281774" lat="37.3924046" lon="-5.9948360">
    <tag k="name" v="Papelería Ferrer"/>
    <tag k="shop" v="stationery"/>
    <tag k="website" v="http://www.papeleriaferrer.es/"/>
  </node>
  <node id="3826639847" lat="37.3885836" lon="-5.9950994">
    <tag k="shop" v="kiosk"/>
    <tag k="source" v="survey"/>
  </node>
  <node id="3826897857" lat="37.4003678" lon="-5.9903593">
    <tag k="addr:city" v="Sevilla"/>
    <tag k="addr:housenumber" v="44"/>
    <tag k="addr:postcode" v="41003"/>
    <tag k="addr:street" v="Calle Relator"/>
    <tag k="diet" v="vegetarian"/>
    <tag k="name" v="Red Verde"/>
    <tag k="opening_hours" v="Mon-Fri 10:00-14:00, 17:30-20:30; Sat 10-14:30"/>
    <tag k="shop" v="greengrocer"/>
  </node>
  <node id="3830561346" lat="37.3910742" lon="-5.9970235">
    <tag k="shop" v="kiosk"/>
    <tag k="source" v="survey"/>
  </node>
  <node id="3838640863" lat="37.3744575" lon="-5.9830368">
    <tag k="addr:city" v="Sevilla"/>
    <tag k="addr:housenumber" v="4"/>
    <tag k="addr:street" v="Calle Río de la Plata"/>
    <tag k="name" v="Bicicletas El Porvenir"/>
    <tag k="opening_hours" v="10:30-14:00 y 16:30-21:00"/>
    <tag k="shop" v="bicycle"/>
  </node>
  <node id="3841336563" lat="37.3909502" lon="-5.9989032">
    <tag k="shop" v="kiosk"/>
  </node>
  <node id="3845350726" lat="37.3877266" lon="-5.9944294">
    <tag k="name" v="Confiteria Filella"/>
    <tag k="shop" v="bakery"/>
  </node>
  <node id="3852905954" lat="37.4082963" lon="-5.9780778">
    <tag k="shop" v="confectionery"/>
  </node>
  <node id="3857024268" lat="37.3863858" lon="-5.9875234">
    <tag k="shop" v="kiosk"/>
  </node>
  <node id="3865096669" lat="37.3775598" lon="-5.9693421">
    <tag k="shop" v="kiosk"/>
  </node>
  <node id="3868743395" lat="37.3849186" lon="-5.9601042">
    <tag k="addr:housenumber" v="48"/>
    <tag k="addr:street" v="Calle Vidal de Noya"/>
    <tag k="name" v="Horno Chari, Obrador Artesano de Pan"/>
    <tag k="shop" v="bakery"/>
  </node>
  <node id="3869617258" lat="37.3754798" lon="-5.9974672">
    <tag k="name" v="Boho"/>
    <tag k="shop" v="clothes"/>
    <tag k="source" v="flashmapmob"/>
    <tag k="wheelchair" v="yes"/>
  </node>
  <node id="3869641592" lat="37.3775848" lon="-5.9965662">
    <tag k="name" v="Uniformes Sevilla"/>
    <tag k="shop" v="general"/>
    <tag k="source" v="flashmapmob"/>
    <tag k="subshop" v="Uniformes"/>
  </node>
  <node id="3869643232" lat="37.3768652" lon="-5.9974784">
    <tag k="name" v="The Phone House"/>
    <tag k="shop" v="mobile_phone"/>
    <tag k="source" v="flashmapmob"/>
  </node>
  <node id="3869643759" lat="37.3768945" lon="-5.9975045">
    <tag k="name" v="Admon. nº 68 Dña. Chon"/>
    <tag k="shop" v="lottery"/>
    <tag k="source" v="flashmapmob"/>
  </node>
  <node id="3869643957" lat="37.3766992" lon="-5.9981500">
    <tag k="name" v="Azabache"/>
    <tag k="shop" v="clothes"/>
    <tag k="source" v="flashmapmob"/>
  </node>
  <node id="3869643958" lat="37.3766774" lon="-5.9975224">
    <tag k="name" v="Merceria Sol y Luna"/>
    <tag k="shop" v="clothes"/>
    <tag k="source" v="flashmapmob"/>
    <tag k="wheelchair" v="yes"/>
  </node>
  <node id="3869644059" lat="37.3765579" lon="-5.9993203">
    <tag k="name" v="Arcos.21"/>
    <tag k="shop" v="frame"/>
    <tag k="source" v="flashmapmob"/>
  </node>
  <node id="3869644061" lat="37.3756173" lon="-5.9974715">
    <tag k="name" v="Profesional Version"/>
    <tag k="shop" v="beauty"/>
    <tag k="source" v="flashmapmob"/>
    <tag k="wheelchair" v="yes"/>
  </node>
  <node id="3869644062" lat="37.3775370" lon="-5.9973410">
    <tag k="name" v="Pescaderia Ricardo"/>
    <tag k="shop" v="fishing"/>
    <tag k="source" v="flashmapmob"/>
    <tag k="wheelchair" v="yes"/>
  </node>
  <node id="3869646379" lat="37.3769350" lon="-5.9975032">
    <tag k="name" v="Electricidad"/>
    <tag k="shop" v="electronics"/>
    <tag k="source" v="flashmapmob"/>
  </node>
  <node id="3869646553" lat="37.3775877" lon="-5.9965655">
    <tag k="name" v="Donna"/>
    <tag k="shop" v="clothes"/>
    <tag k="source" v="flashmapmob"/>
    <tag k="subshop" v="lenceria"/>
  </node>
  <node id="3869648230" lat="37.3768901" lon="-5.9977733">
    <tag k="name" v="Women's Secret"/>
    <tag k="shop" v="clothes"/>
    <tag k="source" v="flashmapmob"/>
  </node>
  <node id="3869649257" lat="37.3766351" lon="-5.9975215">
    <tag k="name" v="Zinco"/>
    <tag k="opening_hours" v="Mo-St 10:00-14:00 y 17:00-21:00"/>
    <tag k="shop" v="shoes"/>
    <tag k="source" v="flashmapmob"/>
    <tag k="wheelchair" v="yes"/>
  </node>
  <node id="3869649420" lat="37.3769861" lon="-5.9974964">
    <tag k="name" v="Beta"/>
    <tag k="shop" v="books"/>
    <tag k="source" v="flashmapmob"/>
  </node>
  <node id="3869649421" lat="37.3775843" lon="-5.9962753">
    <tag k="name" v="La Encajería"/>
    <tag k="shop" v="general"/>
    <tag k="source" v="flashmapmob"/>
    <tag k="subshop" v="Mercería"/>
  </node>
  <node id="3869649535" lat="37.3771004" lon="-5.9975255">
    <tag k="name" v="Gocco"/>
    <tag k="shop" v="clothes"/>
    <tag k="source" v="flashmapmob"/>
  </node>
  <node id="3869650689" lat="37.3769206" lon="-5.9977449">
    <tag k="name" v="Marino"/>
    <tag k="shop" v="clothes"/>
    <tag k="source" v="flashmapmob"/>
  </node>
  <node id="3869651357" lat="37.3768660" lon="-5.9971190">
    <tag k="name" v="Golden Coffee cups"/>
    <tag k="shop" v="general"/>
    <tag k="source" v="flashmapmob"/>
    <tag k="wheelchair" v="limited"/>
  </node>
  <node id="3869651361" lat="37.3764836" lon="-5.9975184">
    <tag k="addr:street" v="Calle Asunción"/>
    <tag k="craft" v="photographic_laboratory"/>
    <tag k="name" v="Foto Supra"/>
    <tag k="shop" v="video"/>
    <tag k="source" v="flashmapmob"/>
  </node>
  <node id="3869651473" lat="37.3769943" lon="-5.9977632">
    <tag k="name" v="Bodybell"/>
    <tag k="shop" v="perfumery"/>
    <tag k="source" v="flashmapmob"/>
  </node>
  <node id="3869653057" lat="37.3765955" lon="-5.9989122">
    <tag k="name" v="Zhapatos Abril"/>
    <tag k="shop" v="shoes"/>
    <tag k="source" v="flashmapmob"/>
  </node>
  <node id="3869653076" lat="37.3767982" lon="-5.9985122">
    <tag k="name" v="Las María"/>
    <tag k="shop" v="clothes"/>
    <tag k="source" v="flashmapmob"/>
  </node>
  <node id="3869653337" lat="37.3771512" lon="-5.9977656">
    <tag k="name" v="Mango kids"/>
    <tag k="shop" v="clothes"/>
    <tag k="source" v="flashmapmob"/>
  </node>
  <node id="3869654258" lat="37.3769020" lon="-5.9968930">
    <tag k="name" v="Rosas y Lopez"/>
    <tag k="shop" v="antiques"/>
    <tag k="source" v="flashmapmob"/>
    <tag k="wheelchair" v="no"/>
  </node>
  <node id="3869654259" lat="37.3762555" lon="-5.9975066">
    <tag k="name" v="Osorno"/>
    <tag k="shop" v="toys"/>
    <tag k="source" v="flashmapmob"/>
    <tag k="wheelchair" v="no"/>
  </node>
  <node id="3869654260" lat="37.3775460" lon="-5.9969740">
    <tag k="name" v="MC"/>
    <tag k="shop" v="boutique"/>
    <tag k="source" v="flashmapmob"/>
    <tag k="wheelchair" v="no"/>
  </node>
  <node id="3869654261" lat="37.3775500" lon="-5.9972640">
    <tag k="name" v="El Culebrin"/>
    <tag k="shop" v="supermarket"/>
    <tag k="source" v="flashmapmob"/>
    <tag k="wheelchair" v="yes"/>
  </node>
  <node id="3869654262" lat="37.3775460" lon="-5.9974490">
    <tag k="name" v="Fruteria Pepe"/>
    <tag k="shop" v="supermarket"/>
    <tag k="source" v="flashmapmob"/>
    <tag k="wheelchair" v="yes"/>
  </node>
  <node id="3869654263" lat="37.3783340" lon="-5.9971110">
    <tag k="name" v="Cherubina"/>
    <tag k="shop" v="boutique"/>
    <tag k="source" v="flashmapmob"/>
    <tag k="wheelchair" v="limited"/>
  </node>
  <node id="3869655981" lat="37.3772306" lon="-5.9977615">
    <tag k="name" v="Nicolás"/>
    <tag k="shop" v="shoes"/>
    <tag k="source" v="flashmapmob"/>
  </node>
  <node id="3869656136" lat="37.3772039" lon="-5.9975288">
    <tag k="name" v="Misako"/>
    <tag k="shop" v="bag"/>
    <tag k="source" v="flashmapmob"/>
  </node>
  <node id="3869657563" lat="37.3763676" lon="-5.9975122">
    <tag k="name" v="Vinda Complementos"/>
    <tag k="shop" v="boutique"/>
    <tag k="source" v="flashmapmob"/>
    <tag k="wheelchair" v="no"/>
  </node>
  <node id="3869657765" lat="37.3763627" lon="-5.9976836">
    <tag k="name" v="Cosas que importan"/>
    <tag k="shop" v="interior_decoration"/>
    <tag k="source" v="flashmapmob"/>
  </node>
  <node id="3869657766" lat="37.3762999" lon="-5.9976801">
    <tag k="name" v="Don regalón"/>
    <tag k="opening_hours" v="10:00-13:45 17:00-20:30"/>
    <tag k="shop" v="interior_decoration"/>
    <tag k="source" v="flashmapmob"/>
  </node>
  <node id="3869657767" lat="37.3761545" lon="-5.9976726">
    <tag k="name" v="optica2000"/>
    <tag k="opening_hours" v="9:30-14:00 17:00-20:30"/>
    <tag k="shop" v="optician"/>
    <tag k="source" v="flashmapmob"/>
    <tag k="wheelchair" v="yes"/>
  </node>
  <node id="3869658059" lat="37.3767952" lon="-5.9986979">
    <tag k="name" v="Corbatissima"/>
    <tag k="shop" v="clothes"/>
    <tag k="source" v="flashmapmob"/>
  </node>
  <node id="3869658076" lat="37.3765675" lon="-5.9976936">
    <tag k="name" v="Marypaz"/>
    <tag k="shop" v="shoes"/>
    <tag k="source" v="flashmapmob"/>
  </node>
  <node id="3869658077" lat="37.3764020" lon="-5.9976857">
    <tag k="name" v="Montoro joyeros"/>
    <tag k="shop" v="jewelry"/>
    <tag k="source" v="flashmapmob"/>
  </node>
  <node id="3869658078" lat="37.3760985" lon="-5.9976701">
    <tag k="name" v="juguetes osorno"/>
    <tag k="opening_hours" v="10:00-14:00 16:30-20:30"/>
    <tag k="shop" v="toys"/>
    <tag k="source" v="flashmapmob"/>
    <tag k="wheelchair" v="yes"/>
  </node>
  <node id="3869658079" lat="37.3760595" lon="-5.9976683">
    <tag k="name" v="multiopticas"/>
    <tag k="opening_hours" v="9:30-14:00 17:00-20:30"/>
    <tag k="shop" v="optician"/>
    <tag k="source" v="flashmapmob"/>
    <tag k="wheelchair" v="yes"/>
  </node>
  <node id="3869658080" lat="37.3758309" lon="-5.9976581">
    <tag k="name" v="nicolad"/>
    <tag k="second_hand" v="no"/>
    <tag k="shop" v="shoes"/>
    <tag k="source" v="flashmapmob"/>
    <tag k="wheelchair" v="yes"/>
  </node>
  <node id="3869658081" lat="37.3757853" lon="-5.9976561">
    <tag k="name" v="pibe"/>
    <tag k="opening_hours" v="10-13:45 17-20:30"/>
    <tag k="second_hand" v="no"/>
    <tag k="shop" v="shoes"/>
    <tag k="source" v="flashmapmob"/>
  </node>
  <node id="3869658082" lat="37.3754630" lon="-5.9976449">
    <tag k="name" v="Tian yi"/>
    <tag k="shop" v="electronics"/>
    <tag k="source" v="flashmapmob"/>
  </node>
  <node id="3869658083" lat="37.3754347" lon="-5.9976437">
    <tag k="name" v="pull &amp; bear"/>
    <tag k="opening_hours" v="10-14 17-20:40"/>
    <tag k="second_hand" v="no"/>
    <tag k="shop" v="clothes"/>
    <tag k="source" v="flashmapmob"/>
    <tag k="wheelchair" v="no"/>
  </node>
  <node id="3869658085" lat="37.3751018" lon="-5.9976299">
    <tag k="name" v="girasol"/>
    <tag k="shop" v="clothes"/>
    <tag k="source" v="flashmapmob"/>
    <tag k="wheelchair" v="no"/>
  </node>
  <node id="3869658461" lat="37.3770319" lon="-5.9983632">
    <tag k="name" v="Alice..."/>
    <tag k="shop" v="clothes"/>
    <tag k="source" v="flashmapmob"/>
  </node>
  <node id="3869658720" lat="37.3775950" lon="-5.9962146">
    <tag k="name" v="Celestre"/>
    <tag k="shop" v="fashion"/>
    <tag k="source" v="flashmapmob"/>
    <tag k="subshop" v="ropa_complementos"/>
  </node>
  <node id="3869658897" lat="37.3773037" lon="-5.9977721">
    <tag k="name" v="Decathlon "/>
    <tag k="shop" v="clothes"/>
    <tag k="source" v="flashmapmob"/>
  </node>
  <node id="3869658898" lat="37.3772857" lon="-5.9975378">
    <tag k="name" v="Guillermo Loscertales"/>
    <tag k="shop" v="interior_decoration"/>
    <tag k="source" v="flashmapmob"/>
  </node>
  <node id="3869659158" lat="37.3771000" lon="-5.9968990">
    <tag k="name" v="David Broncano"/>
    <tag k="shop" v="hairdresser"/>
    <tag k="source" v="flashmapmob"/>
    <tag k="wheelchair" v="yes"/>
  </node>
  <node id="3869660358" lat="37.3773820" lon="-5.9977688">
    <tag k="name" v="Don Regalón"/>
    <tag k="shop" v="gift"/>
    <tag k="source" v="flashmapmob"/>
  </node>
  <node id="3869662557" lat="37.3762964" lon="-5.9975083">
    <tag k="name" v="Entertainment Exchange Webuy.com"/>
    <tag k="shop" v="electronics"/>
    <tag k="source" v="flashmapmob"/>
    <tag k="wheelchair" v="yes"/>
  </node>
  <node id="3869662558" lat="37.3759708" lon="-5.9974948">
    <tag k="name" v="La Barata"/>
    <tag k="shop" v="clothes"/>
    <tag k="source" v="flashmapmob"/>
    <tag k="wheelchair" v="yes"/>
  </node>
  <node id="3869662875" lat="37.3774480" lon="-5.9977761">
    <tag k="name" v="Twinner"/>
    <tag k="shop" v="sports"/>
    <tag k="source" v="flashmapmob"/>
  </node>
  <node id="3869665339" lat="37.3775230" lon="-5.9975421">
    <tag k="name" v="ibañez"/>
    <tag k="shop" v="clothes"/>
    <tag k="source" v="flashmapmob"/>
  </node>
  <node id="3869668441" lat="37.3775254" lon="-5.9977742">
    <tag k="name" v="Tabacos exp. 36"/>
    <tag k="shop" v="tobacco"/>
    <tag k="source" v="flashmapmob"/>
  </node>
  <node id="3869668446" lat="37.3776891" lon="-5.9975470">
    <tag k="name" v="Pleximar"/>
    <tag k="shop" v="houseware"/>
    <tag k="source" v="flashmapmob"/>
  </node>
  <node id="3869674051" lat="37.3777355" lon="-5.9975423">
    <tag k="name" v="La Jaboteca"/>
    <tag k="shop" v="cosmetics"/>
    <tag k="source" v="flashmapmob"/>
  </node>
  <node id="3869674357" lat="37.3761158" lon="-5.9975009">
    <tag k="name" v="Sergent Major"/>
    <tag k="shop" v="clothes"/>
    <tag k="source" v="flashmapmob"/>
    <tag k="wheelchair" v="yes"/>
  </node>
  <node id="3869675658" lat="37.3776950" lon="-5.9972980">
    <tag k="name" v="Wo &amp; Men"/>
    <tag k="shop" v="beauty"/>
    <tag k="source" v="flashmapmob"/>
    <tag k="wheelchair" v="limited"/>
  </node>
  <node id="3869675659" lat="37.3749502" lon="-5.9974435">
    <tag k="name" v="Toner City"/>
    <tag k="shop" v="paint"/>
    <tag k="source" v="flashmapmob"/>
    <tag k="wheelchair" v="yes"/>
  </node>
  <node id="3869675661" lat="37.3773377" lon="-5.9983787">
    <tag k="name" v="Kobido"/>
    <tag k="shop" v="beauty"/>
    <tag k="source" v="flashmapmob"/>
  </node>
  <node id="3869675664" lat="37.3787310" lon="-5.9981270">
    <tag k="name" v="Floristeria Triana"/>
    <tag k="shop" v="florist"/>
    <tag k="source" v="flashmapmob"/>
    <tag k="wheelchair" v="limited"/>
  </node>
  <node id="3869677847" lat="37.3778025" lon="-5.9977845">
    <tag k="name" v="Los Angelitos"/>
    <tag k="shop" v="confectionery"/>
    <tag k="source" v="flashmapmob"/>
  </node>
  <node id="3869677957" lat="37.3774880" lon="-5.9969360">
    <tag k="name" v="El Patio"/>
    <tag k="shop" v="antiques"/>
    <tag k="source" v="flashmapmob"/>
    <tag k="wheelchair" v="yes"/>
  </node>
  <node id="3869677958" lat="37.3775460" lon="-5.9970440">
    <tag k="name" v="Pekin 2008"/>
    <tag k="shop" v="general"/>
    <tag k="source" v="flashmapmob"/>
    <tag k="wheelchair" v="no"/>
  </node>
  <node id="3869677960" lat="37.3787520" lon="-5.9973090">
    <tag k="name" v="Descuento global"/>
    <tag k="shop" v="clothes"/>
    <tag k="source" v="flashmapmob"/>
    <tag k="wheelchair" v="yes"/>
  </node>
  <node id="3869679392" lat="37.3778162" lon="-5.9975501">
    <tag k="name" v="Tiger"/>
    <tag k="shop" v="general"/>
    <tag k="source" v="flashmapmob"/>
  </node>
  <node id="3869679417" lat="37.3777276" lon="-5.9962558">
    <tag k="name" v="Helen Doron"/>
    <tag k="shop" v="general"/>
    <tag k="sub2" v="idiomas"/>
  </node>
  <node id="3869682857" lat="37.3758814" lon="-5.9974893">
    <tag k="name" v="Neck &amp; Neck"/>
    <tag k="shop" v="clothes"/>
    <tag k="source" v="flashmapmob"/>
    <tag k="wheelchair" v="no"/>
  </node>
  <node id="3869684216" lat="37.3778856" lon="-5.9977979">
    <tag k="name" v="Springfield"/>
    <tag k="shop" v="clothes"/>
    <tag k="source" v="flashmapmob"/>
  </node>
  <node id="3869684669" lat="37.3778848" lon="-5.9975516">
    <tag k="name" v="Bossa"/>
    <tag k="shop" v="clothes"/>
    <tag k="source" v="flashmapmob"/>
  </node>
  <node id="3869685408" lat="37.3779922" lon="-5.9977945">
    <tag k="name" v="Zabol"/>
    <tag k="shop" v="shoes"/>
    <tag k="source" v="flashmapmob"/>
  </node>
  <node id="3869687582" lat="37.3781178" lon="-5.9975691">
    <tag k="name" v="Ms. Lady"/>
    <tag k="shop" v="clothes"/>
    <tag k="source" v="flashmapmob"/>
  </node>
  <node id="3869689499" lat="37.3780445" lon="-5.9978002">
    <tag k="name" v="Equivalenza"/>
    <tag k="shop" v="perfumery"/>
    <tag k="source" v="flashmapmob"/>
  </node>
  <node id="3869690352" lat="37.3777156" lon="-5.9969547">
    <tag k="name" v="Mundodeco"/>
    <tag k="shop" v="general"/>
    <tag k="source" v="flashmapmob"/>
    <tag k="sub" v="muebles_decoracion"/>
  </node>
  <node id="3869690427" lat="37.3776981" lon="-5.9972282">
    <tag k="name" v="Golden Coffe Cups"/>
    <tag k="shop" v="coffee"/>
    <tag k="source" v="flashmapmob"/>
  </node>
  <node id="3869691419" lat="37.3781636" lon="-5.9978007">
    <tag k="name" v="Phone Star"/>
    <tag k="shop" v="mobile_phone"/>
    <tag k="source" v="flashmapmob"/>
  </node>
  <node id="3869692918" lat="37.3776846" lon="-5.9971098">
    <tag k="name" v="Tintorería Nuria"/>
    <tag k="shop" v="dry_cleaning"/>
    <tag k="source" v="flashmapmob"/>
    <tag k="wheelchair" v="limited"/>
  </node>
  <node id="3869692924" lat="37.3781728" lon="-5.9975657">
    <tag k="name" v="tx2 y identika"/>
    <tag k="shop" v="general"/>
    <tag k="source" v="flashmapmob"/>
  </node>
  <node id="3869693057" lat="37.3767966" lon="-5.9986117">
    <tag k="name" v="Lengüeta"/>
    <tag k="shop" v="clothes"/>
    <tag k="source" v="flashmapmob"/>
  </node>
  <node id="3869694756" lat="37.3782158" lon="-5.9978047">
    <tag k="name" v="Mi casa"/>
    <tag k="shop" v="interior_decoration"/>
    <tag k="source" v="flashmapmob"/>
  </node>
  <node id="3869695561" lat="37.3759609" lon="-5.9976639">
    <tag k="name" v="kiddy's class"/>
    <tag k="opening_hours" v="10-14 17-20:30"/>
    <tag k="second_hand" v="no"/>
    <tag k="shop" v="clothes"/>
    <tag k="source" v="flashmapmob"/>
    <tag k="wheelchair" v="yes"/>
  </node>
  <node id="3869695562" lat="37.3758546" lon="-5.9976592">
    <tag k="name" v="el zapato rojo"/>
    <tag k="opening_hours" v="10-20:45"/>
    <tag k="second_hand" v="no"/>
    <tag k="shop" v="shoes"/>
    <tag k="source" v="flashmapmob"/>
    <tag k="wheelchair" v="yes"/>
  </node>
  <node id="3869695563" lat="37.3755084" lon="-5.9976468">
    <tag k="name" v="xtalla"/>
    <tag k="opening_hours" v="10-13:45 17:30-20:30"/>
    <tag k="shop" v="shoes"/>
    <tag k="source" v="flashmapmob"/>
    <tag k="wheelchair" v="no"/>
  </node>
  <node id="3869695564" lat="37.3749953" lon="-5.9976252">
    <tag k="name" v="baoban"/>
    <tag k="opening_hours" v="10-14 17-20:30"/>
    <tag k="shop" v="bookmaker"/>
    <tag k="source" v="flashmapmob"/>
    <tag k="wheelchair" v="yes"/>
  </node>
  <node id="3869695565" lat="37.3748747" lon="-5.9976191">
    <tag k="name" v="calzedonia"/>
    <tag k="shop" v="clothes"/>
    <tag k="source" v="flashmapmob"/>
    <tag k="wheelchair" v="yes"/>
  </node>
  <node id="3869695758" lat="37.3751138" lon="-5.9974501">
    <tag k="name" v="Fragances &amp; colores"/>
    <tag k="shop" v="beauty"/>
    <tag k="source" v="flashmapmob"/>
  </node>
  <node id="3869695759" lat="37.3763804" lon="-5.9976845">
    <tag k="name" v="Aromas"/>
    <tag k="opening_hours" v="09:45-14:00 17:15-20:30"/>
    <tag k="shop" v="beauty"/>
    <tag k="source" v="flashmapmob"/>
  </node>
  <node id="3869695858" lat="37.3762612" lon="-5.9976779">
    <tag k="name" v="el pikaro"/>
    <tag k="shop" v="bakery"/>
    <tag k="source" v="flashmapmob"/>
    <tag k="wheelchair" v="yes"/>
  </node>
  <node id="3869695859" lat="37.3755697" lon="-5.9976493">
    <tag k="name" v="j. luis joyero"/>
    <tag k="opening_hours" v="10-14 17-20:30"/>
    <tag k="shop" v="jewelry"/>
    <tag k="source" v="flashmapmob"/>
    <tag k="wheelchair" v="no"/>
  </node>
  <node id="3869697157" lat="37.3752574" lon="-5.9974560">
    <tag k="name" v="La tenería"/>
    <tag k="shop" v="clothes"/>
    <tag k="source" v="flashmapmob"/>
    <tag k="wheelchair" v="no"/>
  </node>
  <node id="3869697158" lat="37.3750836" lon="-5.9974488">
    <tag k="name" v="Audifon Centros auditivos"/>
    <tag k="shop" v="hearing_aids"/>
    <tag k="source" v="flashmapmob"/>
  </node>
  <node id="3869697683" lat="37.3782831" lon="-5.9978034">
    <tag k="name" v="Papeles del Norte"/>
    <tag k="shop" v="stationery"/>
    <tag k="source" v="flashmapmob"/>
  </node>
  <node id="3869698787" lat="37.3776860" lon="-5.9973608">
    <tag k="name" v="Mail Boxes ETC"/>
    <tag k="shop" v="general"/>
    <tag k="source" v="flashmapmob"/>
    <tag k="sub2" v="paqueteria"/>
  </node>
  <node id="3869705272" lat="37.3763545" lon="-5.9983985">
    <tag k="name" v="Ascensores Carbonell"/>
    <tag k="shop" v="general"/>
    <tag k="source" v="flashmapmob"/>
    <tag k="sub" v="ascensores"/>
  </node>
  <node id="3869705358" lat="37.3788760" lon="-5.9982130">
    <tag k="name" v="Sedici"/>
    <tag k="shop" v="boutique"/>
    <tag k="source" v="flashmapmob"/>
    <tag k="wheelchair" v="yes"/>
  </node>
  <node id="3869705672" lat="37.3782546" lon="-5.9975684">
    <tag k="name" v="Queraltó"/>
    <tag k="shop" v="medical_supply"/>
    <tag k="source" v="flashmapmob"/>
  </node>
  <node id="3869706062" lat="37.3783071" lon="-5.9975756">
    <tag k="name" v="Derby"/>
    <tag k="shop" v="clothes"/>
    <tag k="source" v="flashmapmob"/>
  </node>
  <node id="3869707916" lat="37.3783923" lon="-5.9975800">
    <tag k="name" v="Style Dorado"/>
    <tag k="shop" v="shoes"/>
    <tag k="source" v="flashmapmob"/>
  </node>
  <node id="3869707923" lat="37.3762473" lon="-5.9983306">
    <tag k="name" v="Ufamo"/>
    <tag k="shop" v="general"/>
    <tag k="sub2" v="de_oficina"/>
  </node>
  <node id="3869708068" lat="37.3783341" lon="-5.9978154">
    <tag k="name" v="depiline center"/>
    <tag k="shop" v="beauty"/>
    <tag k="source" v="flashmapmob"/>
  </node>
  <node id="3869708157" lat="37.3749014" lon="-5.9974415">
    <tag k="name" v="Chic Glamour"/>
    <tag k="shop" v="beauty"/>
    <tag k="source" v="flashmapmob"/>
    <tag k="wheelchair" v="no"/>
  </node>
  <node id="3869709157" lat="37.3784447" lon="-5.9975860">
    <tag k="name" v="Caballito azul"/>
    <tag k="shop" v="shoes"/>
    <tag k="source" v="flashmapmob"/>
  </node>
  <node id="3869709167" lat="37.3785225" lon="-5.9975930">
    <tag k="name" v="Redpiso"/>
    <tag k="shop" v="estate_agent"/>
    <tag k="source" v="flashmapmob"/>
  </node>
  <node id="3869709248" lat="37.3761466" lon="-5.9983234">
    <tag k="name" v="La Boutique del Arreglo"/>
    <tag k="shop" v="sewing"/>
    <tag k="sub2" v="a_medida"/>
  </node>
  <node id="3869710596" lat="37.3785811" lon="-5.9975950">
    <tag k="name" v="Eguia"/>
    <tag k="shop" v="clothes"/>
    <tag k="source" v="flashmapmob"/>
  </node>
  <node id="3869712963" lat="37.3786003" lon="-5.9978147">
    <tag k="name" v="Global Mtcv"/>
    <tag k="shop" v="fashion"/>
    <tag k="source" v="flashmapmob"/>
    <tag k="website" v="www.globalsevilla.es"/>
  </node>
  <node id="3869714118" lat="37.3786325" lon="-5.9975927">
    <tag k="name" v="Pueblerinos"/>
    <tag k="shop" v="convenience"/>
    <tag k="source" v="flashmapmob"/>
  </node>
  <node id="3869714765" lat="37.3757780" lon="-5.9983273">
    <tag k="name" v="MD Toiles Natur"/>
    <tag k="shop" v="general"/>
    <tag k="source" v="flashmapmob"/>
    <tag k="sub" v="muebles"/>
  </node>
  <node id="3869716117" lat="37.3757780" lon="-5.9981128">
    <tag k="name" v="My Style"/>
    <tag k="shop" v="clothes"/>
    <tag k="source" v="flashmapmob"/>
  </node>
  <node id="3869716132" lat="37.3786432" lon="-5.9975873">
    <tag k="name" v="crustum"/>
    <tag k="shop" v="bakery"/>
    <tag k="source" v="flashmapmob"/>
  </node>
  <node id="3869717074" lat="37.3786626" lon="-5.9978281">
    <tag k="name" v="Tudermofarmacia"/>
    <tag k="shop" v="beauty"/>
    <tag k="source" v="flashmapmob"/>
  </node>
  <node id="3869719255" lat="37.3787431" lon="-5.9978328">
    <tag k="name" v="YamamaY"/>
    <tag k="shop" v="clothes"/>
    <tag k="source" v="flashmapmob"/>
  </node>
  <node id="3869719256" lat="37.3789792" lon="-5.9976177">
    <tag k="name" v="Encuentro"/>
    <tag k="shop" v="clothes"/>
    <tag k="source" v="flashmapmob"/>
  </node>
  <node id="3869719757" lat="37.3788840" lon="-5.9979600">
    <tag k="name" v="Florencio Madrid"/>
    <tag k="shop" v="hairdresser"/>
    <tag k="source" v="flashmapmob"/>
    <tag k="wheelchair" v="no"/>
  </node>
  <node id="3869720325" lat="37.3787268" lon="-5.9975913">
    <tag k="name" v="Samo"/>
    <tag k="shop" v="furniture"/>
    <tag k="source" v="flashmapmob"/>
  </node>
  <node id="3869720335" lat="37.3789021" lon="-5.9976173">
    <tag k="name" v="Heracles"/>
    <tag k="shop" v="gift"/>
    <tag k="source" v="flashmapmob"/>
  </node>
  <node id="3869720754" lat="37.3790420" lon="-5.9978502">
    <tag k="name" v="Persa"/>
    <tag k="shop" v="fashion"/>
    <tag k="source" v="flashmapmob"/>
  </node>
  <node id="3869724090" lat="37.3790411" lon="-5.9976152">
    <tag k="name" v="Zuco"/>
    <tag k="shop" v="fashion"/>
    <tag k="source" v="flashmapmob"/>
  </node>
  <node id="3869724257" lat="37.3788800" lon="-5.9982880">
    <tag k="name" v="Ibañez ceremonia"/>
    <tag k="shop" v="boutique"/>
    <tag k="source" v="flasmapmob"/>
    <tag k="wheelchair" v="limited"/>
  </node>
  <node id="3869724957" lat="37.3789731" lon="-5.9978340">
    <tag k="name" v="Bimba y Lola"/>
    <tag k="shop" v="fashion"/>
    <tag k="source" v="flashmapmob"/>
  </node>
  <node id="3869726393" lat="37.3761594" lon="-5.9981503">
    <tag k="name" v="Lüza Belleza"/>
    <tag k="shop" v="general"/>
    <tag k="source" v="flashmapmob"/>
    <tag k="sub" v="centro_estetica"/>
  </node>
  <node id="3869728097" lat="37.3791682" lon="-5.9976178">
    <tag k="name" v="Bingo Los Remedios"/>
    <tag k="shop" v="bookmaker"/>
    <tag k="source" v="flashmapmob"/>
  </node>
  <node id="3869728275" lat="37.3791228" lon="-5.9978435">
    <tag k="name" v="Le Marché"/>
    <tag k="shop" v="fashion"/>
    <tag k="source" v="flashmapmob"/>
  </node>
  <node id="3869729819" lat="37.3791804" lon="-5.9978570">
    <tag k="name" v="Belle de jour shop BdJ"/>
    <tag k="shop" v="fashion"/>
    <tag k="source" v="flashmapmob"/>
  </node>
  <node id="3869732423" lat="37.3794082" lon="-5.9976292">
    <tag k="name" v="Abrines"/>
    <tag k="shop" v="jewelry"/>
    <tag k="source" v="flashmapmob"/>
  </node>
  <node id="3869734698" lat="37.3792625" lon="-5.9978531">
    <tag k="name" v="Adolfo Domínguez"/>
    <tag k="shop" v="clothes"/>
    <tag k="source" v="flashmapmob"/>
  </node>
  <node id="3869734699" lat="37.3795280" lon="-5.9976861">
    <tag k="name" v="Once"/>
    <tag k="shop" v="bookmaker"/>
    <tag k="source" v="flashmapmob"/>
  </node>
  <node id="3869735709" lat="37.3793600" lon="-5.9978622">
    <tag k="name" v="Ibañez"/>
    <tag k="shop" v="clothes"/>
    <tag k="source" v="flashmapmob"/>
  </node>
  <node id="3869738095" lat="37.3795050" lon="-5.9978703">
    <tag k="name" v="General óptica "/>
    <tag k="shop" v="optician"/>
    <tag k="source" v="flashmapmob"/>
  </node>
  <node id="3869783562" lat="37.3766088" lon="-5.9995278">
    <tag k="name" v="Cingara"/>
    <tag k="shop" v="general"/>
    <tag k="source" v="flashmapmob"/>
    <tag k="sub2" v="complementos"/>
  </node>

</osm>
